station,valid,tmpf,dwpf,relh,drct,sknt,p01i,alti,mslp,vsby,gust,skyc1,skyc2,skyc3,skyc4,skyl1,skyl2,skyl3,skyl4,wxcodes,ice_accretion_1hr,ice_accretion_3hr,ice_accretion_6hr,peak_wind_gust,peak_wind_drct,peak_wind_time,feel,metar,snowdepth
WYS,2023-09-01 00:55,68.00,24.80,19.47,M,6.00,0.00,30.02,M,10.00,M,CLR,M,M,M,M,M,M,M,M,M,M,M,M,M,M,68.00,KWYS 010055Z AUTO VRB06KT 10SM CLR 20/M04 A3002 RMK AO2,M
WYS,2023-09-01 01:55,60.80,32.00,33.64,210.00,3.00,0.00,30.01,M,10.00,M,CLR,M,M,M,M,M,M,M,M,M,M,M,M,M,M,60.80,KWYS 010155Z AUTO 21003KT 10SM CLR 16/M00 A3001 RMK AO2,M
WYS,2023-09-01 02:55,51.80,35.60,53.81,0.00,0.00,0.00,30.03,M,10.00,M,CLR,M,M,M,M,M,M,M,M,M,M,M,M,M,M,51.80,KWYS 010255Z AUTO 00000KT 10SM CLR 11/02 A3003 RMK AO2,M
WYS,2023-09-01 03:55,46.40,37.40,70.68,200.00,4.00,0.00,30.04,M,10.00,M,CLR,M,M,M,M,M,M,M,M,M,M,M,M,M,M,44.24,KWYS 010355Z AUTO 20004KT 10SM CLR 08/03 A3004 RMK AO2,M
WYS,2023-09-01 04:55,42.80,37.40,81.07,0.00,0.00,0.00,30.02,M,10.00,M,CLR,M,M,M,M,M,M,M,M,M,M,M,M,M,M,42.80,KWYS 010455Z AUTO 00000KT 10SM CLR 06/03 A3002 RMK AO2,M
WYS,2023-09-01 05:55,42.80,39.20,86.99,0.00,0.00,0.00,30.01,M,10.00,M,CLR,M,M,M,M,M,M,M,M,M,M,M,M,M,M,42.80,KWYS 010555Z AUTO 00000KT 10SM CLR 06/04 A3001 RMK AO2,M
WYS,2023-09-01 06:55,48.20,33.80,57.26,320.00,8.00,0.00,30.03,M,10.00,14.00,FEW,SCT,BKN,M,5500.00,7500.00,11000.00,M,M,M,M,M,M,M,M,44.07,KWYS 010655Z AUTO 32008G14KT 290V350 10SM FEW055 SCT075 BKN110 09/01 A3003 RMK AO2,M
WYS,2023-09-01 07:55,42.80,35.60,75.50,0.00,0.00,0.00,30.04,M,10.00,M,CLR,M,M,M,M,M,M,M,M,M,M,M,M,M,M,42.80,KWYS 010755Z AUTO 00000KT 10SM CLR 06/02 A3004 RMK AO2,M
WYS,2023-09-01 08:55,39.20,37.40,93.19,0.00,0.00,0.00,30.02,M,10.00,M,CLR,M,M,M,M,M,M,M,M,M,M,M,M,M,M,39.20,KWYS 010855Z AUTO 00000KT 10SM CLR 04/03 A3002 RMK AO2,M
WYS,2023-09-01 09:55,37.40,37.40,100.00,0.00,0.00,0.00,30.02,M,10.00,M,CLR,M,M,M,M,M,M,M,M,M,M,M,M,M,M,37.40,KWYS 010955Z AUTO 00000KT 10SM CLR 03/03 A3002 RMK AO2,M
WYS,2023-09-01 10:55,35.60,35.60,100.00,0.00,0.00,0.00,30.02,M,10.00,M,CLR,M,M,M,M,M,M,M,M,M,M,M,M,M,M,35.60,KWYS 011055Z AUTO 00000KT 10SM CLR 02/02 A3002 RMK AO2,M
WYS,2023-09-01 11:55,33.80,35.60,M,0.00,0.00,0.00,30.01,M,10.00,M,CLR,M,M,M,M,M,M,M,M,M,M,M,M,M,M,M,KWYS 011155Z AUTO 00000KT 10SM CLR 01/02 A3001 RMK AO2,M
WYS,2023-09-01 12:55,33.80,33.80,100.00,0.00,0.00,0.00,30.03,M,10.00,M,CLR,M,M,M,M,M,M,M,M,M,M,M,M,M,M,33.80,KWYS 011255Z AUTO 00000KT 10SM CLR 01/01 A3003 RMK AO2,M
WYS,2023-09-01 13:55,41.00,39.20,93.24,0.00,0.00,0.00,30.05,M,10.00,M,CLR,M,M,M,M,M,M,M,M,M,M,M,M,M,M,41.00,KWYS 011355Z AUTO 00000KT 10SM CLR 05/04 A3005 RMK AO2,M
WYS,2023-09-01 14:55,50.00,39.20,66.27,0.00,0.00,0.00,30.06,M,10.00,M,CLR,M,M,M,M,M,M,M,M,M,M,M,M,M,M,50.00,KWYS 011455Z AUTO 00000KT 10SM CLR 10/04 A3006 RMK AO2,M
WYS,2023-09-01 15:55,57.20,39.20,50.91,0.00,0.00,0.00,30.07,M,10.00,M,CLR,M,M,M,M,M,M,M,M,M,M,M,M,M,M,57.20,KWYS 011555Z AUTO 00000KT 10SM CLR 14/04 A3007 RMK AO2,M
WYS,2023-09-01 16:55,64.40,41.00,42.28,0.00,0.00,0.00,30.07,M,10.00,M,CLR,M,M,M,M,M,M,M,M,M,M,M,M,M,M,64.40,KWYS 011655Z AUTO 00000KT 10SM CLR 18/05 A3007 RMK AO2,M
WYS,2023-09-01 17:55,73.40,44.60,35.66,220.00,11.00,0.00,30.07,M,10.00,17.00,CLR,M,M,M,M,M,M,M,M,M,M,M,M,M,M,73.40,KWYS 011755Z AUTO 22011G17KT 10SM CLR 23/07 A3007 RMK AO2,M
WYS,2023-09-01 18:55,73.40,46.40,38.18,210.00,12.00,0.00,30.08,M,10.00,18.00,SCT,SCT,SCT,M,6500.00,7500.00,12000.00,M,M,M,M,M,M,M,M,73.40,KWYS 011855Z AUTO 21012G18KT 10SM SCT065 SCT075 SCT120 23/08 A3008 RMK AO2,M
WYS,2023-09-01 19:55,75.20,46.40,35.94,220.00,15.00,0.00,30.08,M,10.00,23.00,FEW,FEW,SCT,M,6000.00,8000.00,10000.00,M,M,M,M,M,M,M,M,75.20,KWYS 011955Z AUTO 22015G23KT 10SM FEW060 FEW080 SCT100 24/08 A3008 RMK AO2,M
WYS,2023-09-01 20:55,73.40,46.40,38.18,210.00,14.00,0.00,30.10,M,10.00,23.00,FEW,SCT,SCT,M,7000.00,9000.00,11000.00,M,M,M,M,M,M,M,M,73.40,KWYS 012055Z AUTO 21014G23KT 10SM FEW070 SCT090 SCT110 23/08 A3010 RMK AO2,M
WYS,2023-09-01 21:55,66.20,55.40,68.15,150.00,4.00,0.02,30.11,M,10.00,M,FEW,M,M,M,11000.00,M,M,M,M,M,M,M,M,M,M,66.20,KWYS 012155Z AUTO 15004KT 10SM FEW110 19/13 A3011 RMK AO2 P0002,M
WYS,2023-09-01 22:55,66.20,55.40,68.15,180.00,6.00,0.00,30.11,M,10.00,M,SCT,BKN,M,M,6500.00,11000.00,M,M,M,M,M,M,M,M,M,66.20,KWYS 012255Z AUTO 18006KT 10SM SCT065 BKN110 19/13 A3011 RMK AO2,M
WYS,2023-09-01 23:55,62.60,53.60,72.38,230.00,8.00,0.00,30.14,M,10.00,13.00,SCT,M,M,M,11000.00,M,M,M,M,M,M,M,M,M,M,62.60,KWYS 012355Z AUTO 23008G13KT 10SM SCT110 17/12 A3014 RMK AO2,M
WYS,2023-09-02 00:55,60.80,55.40,82.37,30.00,4.00,0.00,30.15,M,10.00,M,FEW,M,M,M,12000.00,M,M,M,M,M,M,M,M,M,M,60.80,KWYS 020055Z AUTO 03004KT 10SM FEW120 16/13 A3015 RMK AO2,M
WYS,2023-09-02 01:55,57.20,57.20,100.00,0.00,0.00,0.00,30.15,M,10.00,M,CLR,M,M,M,M,M,M,M,M,M,M,M,M,M,M,57.20,KWYS 020155Z AUTO 00000KT 10SM CLR 14/14 A3015 RMK AO2,M
WYS,2023-09-02 02:55,57.20,55.40,93.69,0.00,0.00,0.00,30.19,M,10.00,M,FEW,BKN,OVC,M,4900.00,6000.00,7000.00,M,M,M,M,M,M,M,M,57.20,KWYS 020255Z AUTO 00000KT 10SM FEW049 BKN060 OVC070 14/13 A3019 RMK AO2,M
WYS,2023-09-02 03:55,53.60,53.60,100.00,160.00,3.00,0.00,30.21,M,10.00,M,SCT,M,M,M,8000.00,M,M,M,M,M,M,M,M,M,M,53.60,KWYS 020355Z AUTO 16003KT 10SM SCT080 12/12 A3021 RMK AO2,M
WYS,2023-09-02 04:55,53.60,53.60,100.00,0.00,0.00,0.00,30.21,M,10.00,M,FEW,BKN,M,M,5000.00,10000.00,M,M,M,M,M,M,M,M,M,53.60,KWYS 020455Z AUTO 00000KT 10SM FEW050 BKN100 12/12 A3021 RMK AO2,M
WYS,2023-09-02 05:55,51.80,51.80,100.00,0.00,0.00,0.00,30.22,M,10.00,M,FEW,M,M,M,10000.00,M,M,M,M,M,M,M,M,M,M,51.80,KWYS 020555Z AUTO 00000KT 10SM FEW100 11/11 A3022 RMK AO2,M
WYS,2023-09-02 06:55,50.00,50.00,100.00,20.00,4.00,0.00,30.22,M,10.00,M,CLR,M,M,M,M,M,M,M,M,M,M,M,M,M,M,50.00,KWYS 020655Z AUTO 02004KT 10SM CLR 10/10 A3022 RMK AO2,M
WYS,2023-09-02 07:55,50.00,50.00,100.00,0.00,0.00,0.00,30.21,M,10.00,M,FEW,M,M,M,5500.00,M,M,M,M,M,M,M,M,M,M,50.00,KWYS 020755Z AUTO 00000KT 10SM FEW055 10/10 A3021 RMK AO2,M
WYS,2023-09-02 08:55,48.20,48.20,100.00,0.00,0.00,0.00,30.21,M,10.00,M,CLR,M,M,M,M,M,M,M,M,M,M,M,M,M,M,48.20,KWYS 020855Z AUTO 00000KT 10SM CLR 09/09 A3021 RMK AO2,M
WYS,2023-09-02 09:55,46.40,46.40,100.00,0.00,0.00,0.00,30.22,M,10.00,M,CLR,M,M,M,M,M,M,M,M,M,M,M,M,M,M,46.40,KWYS 020955Z AUTO 00000KT 10SM CLR 08/08 A3022 RMK AO2,M
WYS,2023-09-02 10:55,46.40,46.40,100.00,0.00,0.00,0.00,30.23,M,10.00,M,OVC,M,M,M,6500.00,M,M,M,M,M,M,M,M,M,M,46.40,KWYS 021055Z AUTO 00000KT 10SM OVC065 08/08 A3023 RMK AO2,M
WYS,2023-09-02 11:55,48.20,48.20,100.00,0.00,0.00,0.00,30.24,M,10.00,M,BKN,OVC,M,M,6500.00,7500.00,M,M,M,M,M,M,M,M,M,48.20,KWYS 021155Z AUTO 00000KT 10SM BKN065 OVC075 09/09 A3024 RMK AO2,M
WYS,2023-09-02 12:55,50.00,50.00,100.00,0.00,0.00,0.00,30.26,M,10.00,M,SCT,SCT,OVC,M,4400.00,5000.00,6000.00,M,M,M,M,M,M,M,M,50.00,KWYS 021255Z AUTO 00000KT 10SM SCT044 SCT050 OVC060 10/10 A3026 RMK AO2,M
WYS,2023-09-02 13:55,50.00,50.00,100.00,0.00,0.00,0.00,30.27,M,10.00,M,FEW,SCT,OVC,M,3800.00,4500.00,6500.00,M,M,M,M,M,M,M,M,50.00,KWYS 021355Z AUTO 00000KT 10SM FEW038 SCT045 OVC065 10/10 A3027 RMK AO2,M
WYS,2023-09-02 14:55,55.40,53.60,93.65,0.00,0.00,0.00,30.28,M,10.00,M,SCT,BKN,M,M,5000.00,6000.00,M,M,M,M,M,M,M,M,M,55.40,KWYS 021455Z AUTO 00000KT 10SM SCT050 BKN060 13/12 A3028 RMK AO2,M
WYS,2023-09-02 15:55,60.80,51.80,72.20,0.00,0.00,0.00,30.28,M,10.00,M,M,M,M,M,M,M,M,M,M,M,M,M,M,M,M,60.80,KWYS 021555Z AUTO 00000KT 10SM 16/11 A3028 RMK AO2,M
WYS,2023-09-02 16:55,64.40,50.00,59.50,200.00,13.00,0.00,30.28,M,10.00,M,SCT,SCT,SCT,M,3600.00,4900.00,5500.00,M,M,M,M,M,M,M,M,64.40,KWYS 021655Z AUTO 20013KT 10SM SCT036 SCT049 SCT055 18/10 A3028 RMK AO2,M
WYS,2023-09-02 17:55,64.40,50.00,59.50,230.00,9.00,0.00,30.28,M,10.00,M,SCT,SCT,OVC,M,3900.00,4800.00,5500.00,M,M,M,M,M,M,M,M,64.40,KWYS 021755Z AUTO 23009KT 10SM SCT039 SCT048 OVC055 18/10 A3028 RMK AO2,M
WYS,2023-09-02 18:55,64.40,50.00,59.50,220.00,8.00,0.00,30.28,M,10.00,14.00,FEW,OVC,M,M,3700.00,6000.00,M,M,M,M,M,M,M,M,M,64.40,KWYS 021855Z AUTO 22008G14KT 10SM FEW037 OVC060 18/10 A3028 RMK AO2,M
WYS,2023-09-02 19:55,66.20,50.00,55.88,210.00,11.00,0.00,30.27,M,10.00,17.00,SCT,BKN,OVC,M,3800.00,4400.00,7000.00,M,M,M,M,M,M,M,M,66.20,KWYS 021955Z AUTO 21011G17KT 10SM SCT038 BKN044 OVC070 19/10 A3027 RMK AO2,M
WYS,2023-09-02 20:55,68.00,50.00,52.51,200.00,15.00,0.00,30.26,M,10.00,M,SCT,SCT,BKN,M,4200.00,5000.00,5500.00,M,M,M,M,M,M,M,M,68.00,KWYS 022055Z AUTO 20015KT 10SM SCT042 SCT050 BKN055 20/10 A3026 RMK AO2,M
WYS,2023-09-02 21:55,69.80,48.20,46.16,260.00,12.00,0.00,30.25,M,10.00,M,SCT,BKN,M,M,4600.00,7000.00,M,M,M,M,M,M,M,M,M,69.80,KWYS 022155Z AUTO 26012KT 230V290 10SM SCT046 BKN070 21/09 A3025 RMK AO2,M
WYS,2023-09-02 22:55,71.60,50.00,46.43,210.00,12.00,0.00,30.24,M,10.00,M,SCT,BKN,BKN,M,4800.00,7000.00,8500.00,M,M,M,M,M,M,M,M,71.60,KWYS 022255Z AUTO 21012KT 10SM SCT048 BKN070 BKN085 22/10 A3024 RMK AO2,M
WYS,2023-09-02 23:55,69.80,50.00,49.37,220.00,8.00,0.00,30.23,M,10.00,15.00,CLR,M,M,M,M,M,M,M,M,M,M,M,M,M,M,69.80,KWYS 022355Z AUTO 22008G15KT 10SM CLR 21/10 A3023 RMK AO2,M
WYS,2023-09-03 00:55,69.80,48.20,46.16,220.00,9.00,0.00,30.22,M,10.00,14.00,CLR,M,M,M,M,M,M,M,M,M,M,M,M,M,M,69.80,KWYS 030055Z AUTO 22009G14KT 10SM CLR 21/09 A3022 RMK AO2,M
WYS,2023-09-03 01:55,64.40,51.80,63.60,0.00,0.00,0.00,30.22,M,10.00,M,CLR,M,M,M,M,M,M,M,M,M,M,M,M,M,M,64.40,KWYS 030155Z AUTO 00000KT 10SM CLR 18/11 A3022 RMK AO2,M
WYS,2023-09-03 02:55,59.00,51.80,76.98,0.00,0.00,0.00,30.24,M,10.00,M,CLR,M,M,M,M,M,M,M,M,M,M,M,M,M,M,59.00,KWYS 030255Z AUTO 00000KT 10SM CLR 15/11 A3024 RMK AO2,M
WYS,2023-09-03 03:55,60.80,51.80,72.20,M,4.00,0.00,30.25,M,10.00,M,CLR,M,M,M,M,M,M,M,M,M,M,M,M,M,M,60.80,KWYS 030355Z AUTO VRB04KT 10SM CLR 16/11 A3025 RMK AO2,M
WYS,2023-09-03 04:55,55.40,53.60,93.65,0.00,0.00,0.00,30.25,M,10.00,M,CLR,M,M,M,M,M,M,M,M,M,M,M,M,M,M,55.40,KWYS 030455Z AUTO 00000KT 10SM CLR 13/12 A3025 RMK AO2,M
WYS,2023-09-03 05:55,53.60,53.60,100.00,0.00,0.00,0.00,30.25,M,10.00,M,CLR,M,M,M,M,M,M,M,M,M,M,M,M,M,M,53.60,KWYS 030555Z AUTO 00000KT 10SM CLR 12/12 A3025 RMK AO2,M
WYS,2023-09-03 06:55,50.00,50.00,100.00,0.00,0.00,0.00,30.25,M,10.00,M,CLR,M,M,M,M,M,M,M,M,M,M,M,M,M,M,50.00,KWYS 030655Z AUTO 00000KT 10SM CLR 10/10 A3025 RMK AO2,M
WYS,2023-09-03 07:55,46.40,46.40,100.00,0.00,0.00,0.00,30.24,M,10.00,M,FEW,M,M,M,9500.00,M,M,M,M,M,M,M,M,M,M,46.40,KWYS 030755Z AUTO 00000KT 10SM FEW095 08/08 A3024 RMK AO2,M
WYS,2023-09-03 08:55,44.60,44.60,100.00,0.00,0.00,0.00,30.24,M,10.00,M,BKN,M,M,M,5000.00,M,M,M,M,M,M,M,M,M,M,44.60,KWYS 030855Z AUTO 00000KT 10SM BKN050 07/07 A3024 RMK AO2,M
WYS,2023-09-03 09:55,44.60,44.60,100.00,0.00,0.00,0.00,30.23,M,10.00,M,CLR,M,M,M,M,M,M,M,M,M,M,M,M,M,M,44.60,KWYS 030955Z AUTO 00000KT 10SM CLR 07/07 A3023 RMK AO2,M
WYS,2023-09-03 10:55,42.80,42.80,100.00,0.00,0.00,0.00,30.22,M,10.00,M,CLR,M,M,M,M,M,M,M,M,M,M,M,M,M,M,42.80,KWYS 031055Z AUTO 00000KT 10SM CLR 06/06 A3022 RMK AO2,M
WYS,2023-09-03 11:55,41.00,41.00,100.00,0.00,0.00,0.00,30.20,M,10.00,M,FEW,M,M,M,9500.00,M,M,M,M,M,M,M,M,M,M,41.00,KWYS 031155Z AUTO 00000KT 10SM FEW095 05/05 A3020 RMK AO2,M
WYS,2023-09-03 12:55,41.00,42.80,M,0.00,0.00,0.00,30.19,M,10.00,M,SCT,M,M,M,7000.00,M,M,M,M,M,M,M,M,M,M,M,KWYS 031255Z AUTO 00000KT 10SM SCT070 05/06 A3019 RMK AO2,M
WYS,2023-09-03 13:55,48.20,48.20,100.00,0.00,0.00,0.00,30.20,M,8.00,M,FEW,BKN,OVC,M,4200.00,7000.00,8000.00,M,-RA,M,M,M,M,M,M,48.20,KWYS 031355Z AUTO 00000KT 8SM -RA FEW042 BKN070 OVC080 09/09 A3020 RMK AO2,M
WYS,2023-09-03 14:55,50.00,50.00,100.00,0.00,0.00,0.01,30.20,M,10.00,M,BKN,BKN,M,M,4700.00,5500.00,M,M,M,M,M,M,M,M,M,50.00,KWYS 031455Z AUTO 00000KT 10SM BKN047 BKN055 10/10 A3020 RMK AO2 P0001,M
WYS,2023-09-03 15:55,51.80,51.80,100.00,0.00,0.00,0.00,30.18,M,10.00,M,M,M,M,M,M,M,M,M,M,M,M,M,M,M,M,51.80,KWYS 031555Z AUTO 00000KT 10SM 11/11 A3018 RMK AO2,M
WYS,2023-09-03 16:55,53.60,53.60,100.00,40.00,5.00,0.00,30.17,M,10.00,M,CLR,M,M,M,M,M,M,M,M,M,M,M,M,M,M,53.60,KWYS 031655Z AUTO 04005KT 10SM CLR 12/12 A3017 RMK AO2,M
WYS,2023-09-03 17:55,55.40,55.40,100.00,100.00,3.00,0.00,30.14,M,3.00,M,SCT,BKN,M,M,3400.00,4300.00,M,M,BR,M,M,M,M,M,M,55.40,KWYS 031755Z AUTO 10003KT 3SM BR SCT034 BKN043 13/13 A3014 RMK AO2,M
WYS,2023-09-03 18:55,57.20,57.20,100.00,0.00,0.00,0.00,30.13,M,10.00,M,FEW,SCT,SCT,M,2200.00,7500.00,10000.00,M,M,M,M,M,M,M,M,57.20,KWYS 031855Z AUTO 00000KT 10SM FEW022 SCT075 SCT100 14/14 A3013 RMK AO2,M
WYS,2023-09-03 19:55,60.80,57.20,87.92,150.00,3.00,0.00,30.10,M,10.00,M,M,M,M,M,M,M,M,M,M,M,M,M,M,M,M,60.80,KWYS 031955Z AUTO 15003KT 10SM 16/14 A3010 RMK AO2,M
WYS,2023-09-03 20:55,60.80,57.20,87.92,230.00,6.00,0.00,30.08,M,10.00,M,M,M,M,M,M,M,M,M,M,M,M,M,M,M,M,60.80,KWYS 032055Z AUTO 23006KT 10SM 16/14 A3008 RMK AO2,M
WYS,2023-09-03 21:55,62.60,57.20,82.50,230.00,5.00,0.00,30.06,M,10.00,12.00,M,M,M,M,M,M,M,M,M,M,M,M,M,M,M,62.60,KWYS 032155Z AUTO 23005G12KT 10SM 17/14 A3006 RMK AO2,M
WYS,2023-09-03 22:55,55.40,55.40,100.00,230.00,5.00,0.00,30.07,M,6.00,M,BKN,M,M,M,6500.00,M,M,M,-DZ,M,M,M,M,M,M,55.40,KWYS 032255Z AUTO 23005KT 6SM -DZ BKN065 13/13 A3007 RMK AO2,M
WYS,2023-09-03 23:55,55.40,55.40,100.00,0.00,0.00,0.01,30.03,M,10.00,M,FEW,FEW,M,M,9500.00,11000.00,M,M,M,M,M,M,M,M,M,55.40,KWYS 032355Z AUTO 00000KT 10SM FEW095 FEW110 13/13 A3003 RMK AO2 P0001,M
WYS,2023-09-04 00:55,55.40,55.40,100.00,0.00,0.00,0.00,30.02,M,10.00,M,FEW,SCT,BKN,M,1200.00,3600.00,7000.00,M,M,M,M,M,M,M,M,55.40,KWYS 040055Z AUTO 00000KT 10SM FEW012 SCT036 BKN070 13/13 A3002 RMK AO2,M
WYS,2023-09-04 01:55,55.40,55.40,100.00,0.00,0.00,0.00,30.02,M,10.00,M,SCT,BKN,OVC,M,2000.00,4800.00,10000.00,M,M,M,M,M,M,M,M,55.40,KWYS 040155Z AUTO 00000KT 10SM SCT020 BKN048 OVC100 13/13 A3002 RMK AO2,M
WYS,2023-09-04 02:55,55.40,55.40,100.00,200.00,8.00,0.00,30.04,M,9.00,M,SCT,BKN,OVC,M,4500.00,6000.00,7500.00,M,M,M,M,M,M,M,M,55.40,KWYS 040255Z AUTO 20008KT 9SM SCT045 BKN060 OVC075 13/13 A3004 RMK AO2,M
WYS,2023-09-04 03:55,51.80,53.60,M,210.00,12.00,0.00,30.05,M,9.00,M,FEW,SCT,BKN,M,1300.00,5000.00,6500.00,M,M,M,M,M,M,M,M,M,KWYS 040355Z AUTO 21012KT 9SM FEW013 SCT050 BKN065 11/12 A3005 RMK AO2,M
WYS,2023-09-04 04:55,51.80,51.80,100.00,140.00,4.00,0.00,29.99,M,10.00,M,FEW,BKN,OVC,M,2800.00,7500.00,10000.00,M,M,M,M,M,M,M,M,51.80,KWYS 040455Z AUTO 14004KT 10SM FEW028 BKN075 OVC100 11/11 A2999 RMK AO2,M
WYS,2023-09-04 05:55,50.00,50.00,100.00,0.00,0.00,0.00,29.98,M,10.00,M,FEW,M,M,M,12000.00,M,M,M,M,M,M,M,M,M,M,50.00,KWYS 040555Z AUTO 00000KT 10SM FEW120 10/10 A2998 RMK AO2,M
WYS,2023-09-04 06:55,48.20,48.20,100.00,290.00,3.00,0.00,29.96,M,10.00,M,SCT,BKN,M,M,9500.00,12000.00,M,M,M,M,M,M,M,M,M,47.21,KWYS 040655Z AUTO 29003KT 10SM SCT095 BKN120 09/09 A2996 RMK AO2,M
WYS,2023-09-04 07:55,48.20,48.20,100.00,0.00,0.00,0.00,29.95,M,10.00,M,SCT,OVC,M,M,3600.00,6000.00,M,M,M,M,M,M,M,M,M,48.20,KWYS 040755Z AUTO 00000KT 10SM SCT036 OVC060 09/09 A2995 RMK AO2,M
WYS,2023-09-04 08:55,50.00,50.00,100.00,190.00,5.00,0.00,29.95,M,10.00,M,SCT,SCT,OVC,M,2300.00,2900.00,3700.00,M,M,M,M,M,M,M,M,50.00,KWYS 040855Z AUTO 19005KT 10SM SCT023 SCT029 OVC037 10/10 A2995 RMK AO2,M
WYS,2023-09-04 09:55,50.00,50.00,100.00,0.00,0.00,0.00,29.94,M,10.00,M,FEW,SCT,OVC,M,1500.00,2300.00,3500.00,M,M,M,M,M,M,M,M,50.00,KWYS 040955Z AUTO 00000KT 10SM FEW015 SCT023 OVC035 10/10 A2994 RMK AO2,M
WYS,2023-09-04 10:55,50.00,50.00,100.00,190.00,10.00,0.00,29.93,M,10.00,M,FEW,BKN,OVC,M,1100.00,2800.00,6000.00,M,M,M,M,M,M,M,M,50.00,KWYS 041055Z AUTO 19010KT 10SM FEW011 BKN028 OVC060 10/10 A2993 RMK AO2,M
WYS,2023-09-04 11:55,48.20,48.20,100.00,200.00,6.00,0.00,29.91,M,10.00,M,FEW,OVC,M,M,2400.00,3300.00,M,M,M,M,M,M,M,M,M,45.04,KWYS 041155Z AUTO 20006KT 10SM FEW024 OVC033 09/09 A2991 RMK AO2,M
WYS,2023-09-04 12:55,48.20,48.20,100.00,0.00,0.00,0.00,29.91,M,10.00,M,FEW,BKN,OVC,M,1100.00,4300.00,5500.00,M,M,M,M,M,M,M,M,48.20,KWYS 041255Z AUTO 00000KT 10SM FEW011 BKN043 OVC055 09/09 A2991 RMK AO2,M
WYS,2023-09-04 13:55,48.20,48.20,100.00,190.00,6.00,0.00,29.91,M,9.00,M,FEW,BKN,BKN,M,4000.00,4800.00,6000.00,M,M,M,M,M,M,M,M,45.04,KWYS 041355Z AUTO 19006KT 9SM FEW040 BKN048 BKN060 09/09 A2991 RMK AO2,M
WYS,2023-09-04 14:55,50.00,50.00,100.00,210.00,8.00,0.00,29.90,M,10.00,M,SCT,BKN,OVC,M,1300.00,1700.00,2800.00,M,M,M,M,M,M,M,M,50.00,KWYS 041455Z AUTO 21008KT 10SM SCT013 BKN017 OVC028 10/10 A2990 RMK AO2,M
WYS,2023-09-04 15:55,50.00,50.00,100.00,220.00,4.00,0.00,29.90,M,3.00,M,SCT,BKN,BKN,M,3100.00,3700.00,4300.00,M,BR,M,M,M,M,M,M,50.00,KWYS 041555Z AUTO 22004KT 3SM BR SCT031 BKN037 BKN043 10/10 A2990 RMK AO2,M
WYS,2023-09-04 16:55,50.00,51.80,M,210.00,9.00,0.00,29.91,M,10.00,M,BKN,OVC,M,M,2300.00,2900.00,M,M,M,M,M,M,M,M,M,M,KWYS 041655Z AUTO 21009KT 10SM BKN023 OVC029 10/11 A2991 RMK AO2,M
WYS,2023-09-04 17:55,51.80,51.80,100.00,210.00,7.00,0.00,29.92,M,9.00,M,FEW,FEW,BKN,M,1400.00,2800.00,4300.00,M,M,M,M,M,M,M,M,51.80,KWYS 041755Z AUTO 21007KT 9SM FEW014 FEW028 BKN043 11/11 A2992 RMK AO2,M
WYS,2023-09-04 18:55,53.60,51.80,93.60,260.00,8.00,0.00,29.92,M,10.00,14.00,M,M,M,M,M,M,M,M,M,M,M,M,M,M,M,53.60,KWYS 041855Z AUTO 26008G14KT 10SM 12/11 A2992 RMK AO2,M
WYS,2023-09-04 19:35,51.80,51.80,100.00,M,5.00,0.00,29.93,M,5.00,10.00,FEW,SCT,SCT,M,4000.00,4600.00,5000.00,M,-RA,M,M,M,M,M,M,51.80,KWYS 041935Z AUTO VRB05G10KT 5SM -RA FEW040 SCT046 SCT050 11/11 A2993 RMK AO2,M
WYS,2023-09-04 20:55,51.80,51.80,100.00,270.00,4.00,0.00,29.95,M,9.00,M,BKN,BKN,M,M,4400.00,6000.00,M,M,M,M,M,M,M,M,M,51.80,KWYS 042055Z AUTO 27004KT 9SM BKN044 BKN060 11/11 A2995 RMK AO2,M
WYS,2023-09-04 21:35,51.80,51.80,100.00,0.00,0.00,0.00,29.96,M,9.00,M,FEW,FEW,SCT,M,4400.00,5000.00,5500.00,M,M,M,M,M,M,M,M,51.80,KWYS 042135Z AUTO 00000KT 9SM FEW044 FEW050 SCT055 11/11 A2996 RMK AO2,M
WYS,2023-09-04 22:40,51.80,51.80,100.00,350.00,7.00,0.00,29.97,M,4.00,M,FEW,SCT,SCT,M,1700.00,2400.00,3100.00,M,-RA,M,M,M,M,M,M,51.80,KWYS 042240Z AUTO 35007KT 4SM -RA FEW017 SCT024 SCT031 11/11 A2997 RMK AO2,M
WYS,2023-09-04 23:55,53.60,51.80,93.60,M,5.00,0.00,30.01,M,10.00,M,OVC,M,M,M,5000.00,M,M,M,M,M,M,M,M,M,M,53.60,KWYS 042355Z AUTO VRB05KT 10SM OVC050 12/11 A3001 RMK AO2,M
WYS,2023-09-05 00:55,53.60,51.80,93.60,0.00,0.00,0.00,30.03,M,8.00,M,FEW,M,M,M,6500.00,M,M,M,M,M,M,M,M,M,M,53.60,KWYS 050055Z AUTO 00000KT 8SM FEW065 12/11 A3003 RMK AO2,M
WYS,2023-09-05 01:35,51.80,51.80,100.00,0.00,0.00,0.00,30.04,M,10.00,M,FEW,FEW,SCT,M,3700.00,4900.00,11000.00,M,M,M,M,M,M,M,M,51.80,KWYS 050135Z AUTO 00000KT 10SM FEW037 FEW049 SCT110 11/11 A3004 RMK AO2,M
WYS,2023-09-05 02:55,51.80,51.80,100.00,0.00,0.00,0.00,30.09,M,10.00,M,OVC,M,M,M,4700.00,M,M,M,M,M,M,M,M,M,M,51.80,KWYS 050255Z AUTO 00000KT 10SM OVC047 11/11 A3009 RMK AO2,M
WYS,2023-09-05 03:55,50.00,50.00,100.00,220.00,3.00,0.00,30.10,M,10.00,M,BKN,OVC,M,M,5000.00,6000.00,M,M,M,M,M,M,M,M,M,50.00,KWYS 050355Z AUTO 22003KT 10SM BKN050 OVC060 10/10 A3010 RMK AO2,M
WYS,2023-09-05 04:55,50.00,50.00,100.00,200.00,3.00,0.00,30.11,M,10.00,M,FEW,SCT,OVC,M,4000.00,4800.00,6000.00,M,M,M,M,M,M,M,M,50.00,KWYS 050455Z AUTO 20003KT 10SM FEW040 SCT048 OVC060 10/10 A3011 RMK AO2,M
WYS,2023-09-05 05:55,48.20,48.20,100.00,0.00,0.00,0.00,30.12,M,10.00,M,OVC,M,M,M,6000.00,M,M,M,M,M,M,M,M,M,M,48.20,KWYS 050555Z AUTO 00000KT 10SM OVC060 09/09 A3012 RMK AO2,M
WYS,2023-09-05 06:55,48.20,48.20,100.00,220.00,4.00,0.00,30.14,M,10.00,M,OVC,M,M,M,6500.00,M,M,M,M,M,M,M,M,M,M,46.34,KWYS 050655Z AUTO 22004KT 10SM OVC065 09/09 A3014 RMK AO2,M
WYS,2023-09-05 07:55,48.20,48.20,100.00,220.00,4.00,0.00,30.14,M,10.00,M,BKN,BKN,M,M,7000.00,8000.00,M,M,M,M,M,M,M,M,M,46.34,KWYS 050755Z AUTO 22004KT 10SM BKN070 BKN080 09/09 A3014 RMK AO2,M
WYS,2023-09-05 08:55,46.40,46.40,100.00,0.00,0.00,0.00,30.15,M,10.00,M,FEW,BKN,OVC,M,1600.00,2700.00,7500.00,M,M,M,M,M,M,M,M,46.40,KWYS 050855Z AUTO 00000KT 10SM FEW016 BKN027 OVC075 08/08 A3015 RMK AO2,M
WYS,2023-09-05 09:55,46.40,46.40,100.00,0.00,0.00,0.00,30.16,M,10.00,M,FEW,OVC,M,M,2000.00,7500.00,M,M,M,M,M,M,M,M,M,46.40,KWYS 050955Z AUTO 00000KT 10SM FEW020 OVC075 08/08 A3016 RMK AO2,M
WYS,2023-09-05 10:55,46.40,46.40,100.00,0.00,0.00,0.00,30.16,M,10.00,M,OVC,M,M,M,7500.00,M,M,M,M,M,M,M,M,M,M,46.40,KWYS 051055Z AUTO 00000KT 10SM OVC075 08/08 A3016 RMK AO2,M
WYS,2023-09-05 11:55,46.40,46.40,100.00,0.00,0.00,0.00,30.17,M,10.00,M,SCT,OVC,M,M,2000.00,7000.00,M,M,M,M,M,M,M,M,M,46.40,KWYS 051155Z AUTO 00000KT 10SM SCT020 OVC070 08/08 A3017 RMK AO2,M
WYS,2023-09-05 12:55,46.40,46.40,100.00,0.00,0.00,0.00,30.18,M,10.00,M,OVC,M,M,M,7000.00,M,M,M,M,M,M,M,M,M,M,46.40,KWYS 051255Z AUTO 00000KT 10SM OVC070 08/08 A3018 RMK AO2,M
WYS,2023-09-05 13:55,46.40,46.40,100.00,0.00,0.00,0.00,30.19,M,10.00,M,OVC,M,M,M,1700.00,M,M,M,M,M,M,M,M,M,M,46.40,KWYS 051355Z AUTO 00000KT 10SM OVC017 08/08 A3019 RMK AO2,M
WYS,2023-09-05 14:55,50.00,50.00,100.00,0.00,0.00,0.00,30.19,M,10.00,M,OVC,M,M,M,7500.00,M,M,M,M,M,M,M,M,M,M,50.00,KWYS 051455Z AUTO 00000KT 10SM OVC075 10/10 A3019 RMK AO2,M
WYS,2023-09-05 15:55,51.80,51.80,100.00,0.00,0.00,0.00,30.20,M,10.00,M,FEW,OVC,M,M,1100.00,7500.00,M,M,M,M,M,M,M,M,M,51.80,KWYS 051555Z AUTO 00000KT 10SM FEW011 OVC075 11/11 A3020 RMK AO2,M
WYS,2023-09-05 16:55,53.60,50.00,87.56,0.00,0.00,0.00,30.20,M,10.00,M,M,M,M,M,M,M,M,M,M,M,M,M,M,M,M,53.60,KWYS 051655Z AUTO 00000KT 10SM 12/10 A3020 RMK AO2,M
WYS,2023-09-05 17:55,57.20,50.00,76.82,M,4.00,0.00,30.20,M,10.00,M,M,M,M,M,M,M,M,M,M,M,M,M,M,M,M,57.20,KWYS 051755Z AUTO VRB04KT 10SM 14/10 A3020 RMK AO2,M
WYS,2023-09-05 18:55,59.00,46.40,62.92,220.00,6.00,0.00,30.18,M,10.00,M,M,M,M,M,M,M,M,M,M,M,M,M,M,M,M,59.00,KWYS 051855Z AUTO 22006KT 10SM 15/08 A3018 RMK AO2,M
WYS,2023-09-05 19:35,59.00,46.40,62.92,220.00,9.00,0.00,30.18,M,10.00,16.00,FEW,FEW,BKN,M,3200.00,4200.00,7500.00,M,M,M,M,M,M,M,M,59.00,KWYS 051935Z AUTO 22009G16KT 10SM FEW032 FEW042 BKN075 15/08 A3018 RMK AO2,M
WYS,2023-09-05 20:55,59.00,46.40,62.92,230.00,9.00,0.00,30.17,M,10.00,M,M,M,M,M,M,M,M,M,M,M,M,M,M,M,M,59.00,KWYS 052055Z AUTO 23009KT 10SM 15/08 A3017 RMK AO2,M
WYS,2023-09-05 21:55,59.00,48.20,67.33,220.00,8.00,0.00,30.16,M,10.00,M,FEW,SCT,OVC,M,5500.00,6500.00,8000.00,M,M,M,M,M,M,M,M,59.00,KWYS 052155Z AUTO 22008KT 10SM FEW055 SCT065 OVC080 15/09 A3016 RMK AO2,M
WYS,2023-09-05 22:40,60.80,46.40,59.01,220.00,10.00,0.00,30.15,M,10.00,M,SCT,OVC,M,M,3700.00,8500.00,M,M,M,M,M,M,M,M,M,60.80,KWYS 052240Z AUTO 22010KT 10SM SCT037 OVC085 16/08 A3015 RMK AO2,M
WYS,2023-09-05 23:55,59.00,44.60,58.77,230.00,9.00,0.00,30.16,M,10.00,M,OVC,M,M,M,9000.00,M,M,M,M,M,M,M,M,M,M,59.00,KWYS 052355Z AUTO 23009KT 10SM OVC090 15/07 A3016 RMK AO2,M
WYS,2023-09-06 00:55,59.00,46.40,62.92,220.00,6.00,0.00,30.15,M,10.00,M,SCT,M,M,M,9000.00,M,M,M,M,M,M,M,M,M,M,59.00,KWYS 060055Z AUTO 22006KT 10SM SCT090 15/08 A3015 RMK AO2,M
WYS,2023-09-06 01:40,55.40,50.00,81.99,200.00,4.00,0.00,30.15,M,10.00,M,CLR,M,M,M,M,M,M,M,M,M,M,M,M,M,M,55.40,KWYS 060140Z AUTO 20004KT 10SM CLR 13/10 A3015 RMK AO2,M
WYS,2023-09-06 02:55,53.60,46.40,76.50,200.00,8.00,0.00,30.16,M,10.00,M,SCT,BKN,M,M,6000.00,7000.00,M,M,M,M,M,M,M,M,M,53.60,KWYS 060255Z AUTO 20008KT 10SM SCT060 BKN070 12/08 A3016 RMK AO2,M
WYS,2023-09-06 03:55,48.20,48.20,100.00,0.00,0.00,0.00,30.17,M,10.00,M,FEW,M,M,M,8000.00,M,M,M,M,M,M,M,M,M,M,48.20,KWYS 060355Z AUTO 00000KT 10SM FEW080 09/09 A3017 RMK AO2,M
WYS,2023-09-06 04:40,46.40,46.40,100.00,0.00,0.00,0.00,30.18,M,10.00,M,SCT,M,M,M,5500.00,M,M,M,M,M,M,M,M,M,M,46.40,KWYS 060440Z AUTO 00000KT 10SM SCT055 08/08 A3018 RMK AO2,M
WYS,2023-09-06 05:55,42.80,42.80,100.00,0.00,0.00,0.00,30.18,M,10.00,M,CLR,M,M,M,M,M,M,M,M,M,M,M,M,M,M,42.80,KWYS 060555Z AUTO 00000KT 10SM CLR 06/06 A3018 RMK AO2,M
WYS,2023-09-06 06:35,41.00,41.00,100.00,0.00,0.00,0.00,30.19,M,10.00,M,CLR,M,M,M,M,M,M,M,M,M,M,M,M,M,M,41.00,KWYS 060635Z AUTO 00000KT 10SM CLR 05/05 A3019 RMK AO2,M
WYS,2023-09-06 07:55,39.20,39.20,100.00,0.00,0.00,0.00,30.20,M,10.00,M,CLR,M,M,M,M,M,M,M,M,M,M,M,M,M,M,39.20,KWYS 060755Z AUTO 00000KT 10SM CLR 04/04 A3020 RMK AO2,M
WYS,2023-09-06 08:55,37.40,37.40,100.00,0.00,0.00,0.00,30.19,M,10.00,M,CLR,M,M,M,M,M,M,M,M,M,M,M,M,M,M,37.40,KWYS 060855Z AUTO 00000KT 10SM CLR 03/03 A3019 RMK AO2,M
WYS,2023-09-06 09:40,35.60,35.60,100.00,0.00,0.00,0.00,30.19,M,10.00,M,CLR,M,M,M,M,M,M,M,M,M,M,M,M,M,M,35.60,KWYS 060940Z AUTO 00000KT 10SM CLR 02/02 A3019 RMK AO2,M
WYS,2023-09-06 10:55,35.60,35.60,100.00,0.00,0.00,0.00,30.20,M,10.00,M,CLR,M,M,M,M,M,M,M,M,M,M,M,M,M,M,35.60,KWYS 061055Z AUTO 00000KT 10SM CLR 02/02 A3020 RMK AO2,M
WYS,2023-09-06 11:55,33.80,33.80,100.00,0.00,0.00,0.00,30.21,M,10.00,M,CLR,M,M,M,M,M,M,M,M,M,M,M,M,M,M,33.80,KWYS 061155Z AUTO 00000KT 10SM CLR 01/01 A3021 RMK AO2,M
WYS,2023-09-06 12:40,33.80,33.80,100.00,0.00,0.00,0.00,30.21,M,9.00,M,BKN,M,M,M,200.00,M,M,M,M,M,M,M,M,M,M,33.80,KWYS 061240Z AUTO 00000KT 9SM BKN002 01/01 A3021 RMK AO2,M
WYS,2023-09-06 13:55,37.40,37.40,100.00,0.00,0.00,0.00,30.22,M,0.25,M,OVC,M,M,M,200.00,M,M,M,FG,M,M,M,M,M,M,37.40,KWYS 061355Z AUTO 00000KT M1/4SM FG OVC002 03/03 A3022 RMK AO2,M
WYS,2023-09-06 14:55,41.00,41.00,100.00,0.00,0.00,0.00,30.23,M,0.25,M,OVC,M,M,M,200.00,M,M,M,FG,M,M,M,M,M,M,41.00,KWYS 061455Z AUTO 00000KT 1/4SM FG OVC002 05/05 A3023 RMK AO2,M
WYS,2023-09-06 15:40,44.60,44.60,100.00,0.00,0.00,0.00,30.23,M,2.50,M,OVC,M,M,M,200.00,M,M,M,BR,M,M,M,M,M,M,44.60,KWYS 061540Z AUTO 00000KT 2 1/2SM BR OVC002 07/07 A3023 RMK AO2 VIS 2V4,M
WYS,2023-09-06 16:55,51.80,50.00,93.55,0.00,0.00,0.00,30.21,M,10.00,M,M,M,M,M,M,M,M,M,M,M,M,M,M,M,M,51.80,KWYS 061655Z AUTO 00000KT 10SM 11/10 A3021 RMK AO2,M
WYS,2023-09-06 17:55,59.00,46.40,62.92,170.00,4.00,0.00,30.20,M,10.00,M,M,M,M,M,M,M,M,M,M,M,M,M,M,M,M,59.00,KWYS 061755Z AUTO 17004KT 10SM 15/08 A3020 RMK AO2,M
WYS,2023-09-06 18:55,62.60,42.80,48.28,220.00,12.00,0.00,30.18,M,10.00,17.00,FEW,M,M,M,4800.00,M,M,M,M,M,M,M,M,M,M,62.60,KWYS 061855Z AUTO 22012G17KT 10SM FEW048 17/06 A3018 RMK AO2,M
WYS,2023-09-06 19:40,64.40,42.80,45.32,230.00,9.00,0.00,30.17,M,10.00,18.00,FEW,M,M,M,4600.00,M,M,M,M,M,M,M,M,M,M,64.40,KWYS 061940Z AUTO 23009G18KT 10SM FEW046 18/06 A3017 RMK AO2,M
WYS,2023-09-06 20:40,66.20,41.00,39.72,220.00,13.00,0.00,30.16,M,10.00,19.00,FEW,M,M,M,5000.00,M,M,M,M,M,M,M,M,M,M,66.20,KWYS 062040Z AUTO 22013G19KT 10SM FEW050 19/05 A3016 RMK AO2,M
WYS,2023-09-06 21:55,66.20,41.00,39.72,200.00,10.00,0.00,30.14,M,10.00,17.00,SCT,M,M,M,5500.00,M,M,M,M,M,M,M,M,M,M,66.20,KWYS 062155Z AUTO 20010G17KT 10SM SCT055 19/05 A3014 RMK AO2,M
WYS,2023-09-06 22:55,64.40,39.20,39.43,220.00,11.00,0.00,30.14,M,10.00,20.00,FEW,M,M,M,6000.00,M,M,M,M,M,M,M,M,M,M,64.40,KWYS 062255Z AUTO 22011G20KT 10SM FEW060 18/04 A3014 RMK AO2,M
WYS,2023-09-06 23:40,66.20,39.20,37.03,230.00,7.00,0.00,30.14,M,10.00,15.00,CLR,M,M,M,M,M,M,M,M,M,M,M,M,M,M,66.20,KWYS 062340Z AUTO 23007G15KT 210V270 10SM CLR 19/04 A3014 RMK AO2,M
WYS,2023-09-07 00:55,64.40,41.00,42.28,210.00,9.00,0.00,30.13,M,10.00,15.00,CLR,M,M,M,M,M,M,M,M,M,M,M,M,M,M,64.40,KWYS 070055Z AUTO 21009G15KT 10SM CLR 18/05 A3013 RMK AO2,M
WYS,2023-09-07 01:55,57.20,42.80,58.52,220.00,4.00,0.00,30.13,M,10.00,M,CLR,M,M,M,M,M,M,M,M,M,M,M,M,M,M,57.20,KWYS 070155Z AUTO 22004KT 10SM CLR 14/06 A3013 RMK AO2,M
WYS,2023-09-07 02:35,51.80,42.80,71.26,0.00,0.00,0.00,30.14,M,10.00,M,CLR,M,M,M,M,M,M,M,M,M,M,M,M,M,M,51.80,KWYS 070235Z AUTO 00000KT 10SM CLR 11/06 A3014 RMK AO2,M
WYS,2023-09-07 03:40,48.20,44.60,87.28,0.00,0.00,0.00,30.15,M,10.00,M,CLR,M,M,M,M,M,M,M,M,M,M,M,M,M,M,48.20,KWYS 070340Z AUTO 00000KT 10SM CLR 09/07 A3015 RMK AO2,M
WYS,2023-09-07 04:55,42.80,42.80,100.00,220.00,6.00,0.00,30.15,M,10.00,M,FEW,M,M,M,7000.00,M,M,M,M,M,M,M,M,M,M,38.54,KWYS 070455Z AUTO 22006KT 10SM FEW070 06/06 A3015 RMK AO2,M
WYS,2023-09-07 05:55,50.00,44.60,81.61,200.00,4.00,0.00,30.16,M,10.00,M,BKN,M,M,M,10000.00,M,M,M,M,M,M,M,M,M,M,50.00,KWYS 070555Z AUTO 20004KT 10SM BKN100 10/07 A3016 RMK AO2,M
WYS,2023-09-07 06:35,51.80,44.60,76.34,0.00,0.00,0.00,30.17,M,10.00,M,CLR,M,M,M,M,M,M,M,M,M,M,M,M,M,M,51.80,KWYS 070635Z AUTO 00000KT 10SM CLR 11/07 A3017 RMK AO2,M
WYS,2023-09-07 07:40,50.00,46.40,87.37,0.00,0.00,0.00,30.16,M,10.00,11.00,CLR,M,M,M,M,M,M,M,M,M,M,M,M,M,M,50.00,KWYS 070740Z AUTO 00000G11KT 10SM CLR 10/08 A3016 RMK AO2,M
WYS,2023-09-07 08:55,44.60,44.60,100.00,0.00,0.00,0.00,30.16,M,10.00,M,FEW,M,M,M,10000.00,M,M,M,M,M,M,M,M,M,M,44.60,KWYS 070855Z AUTO 00000KT 10SM FEW100 07/07 A3016 RMK AO2,M
WYS,2023-09-07 09:55,41.00,41.00,100.00,0.00,0.00,0.00,30.18,M,10.00,M,CLR,M,M,M,M,M,M,M,M,M,M,M,M,M,M,41.00,KWYS 070955Z AUTO 00000KT 10SM CLR 05/05 A3018 RMK AO2,M
WYS,2023-09-07 10:40,37.40,37.40,100.00,0.00,0.00,0.00,30.19,M,10.00,M,CLR,M,M,M,M,M,M,M,M,M,M,M,M,M,M,37.40,KWYS 071040Z AUTO 00000KT 10SM CLR 03/03 A3019 RMK AO2,M
WYS,2023-09-07 11:35,41.00,41.00,100.00,0.00,0.00,0.00,30.19,M,10.00,M,BKN,OVC,M,M,8000.00,9500.00,M,M,M,M,M,M,M,M,M,41.00,KWYS 071135Z AUTO 00000KT 10SM BKN080 OVC095 05/05 A3019 RMK AO2,M
WYS,2023-09-07 12:55,42.80,42.80,100.00,140.00,6.00,0.00,30.20,M,10.00,M,FEW,SCT,BKN,M,2300.00,4000.00,5000.00,M,M,M,M,M,M,M,M,38.54,KWYS 071255Z AUTO 14006KT 10SM FEW023 SCT040 BKN050 06/06 A3020 RMK AO2,M
WYS,2023-09-07 13:40,42.80,42.80,100.00,0.00,0.00,0.00,30.22,M,10.00,M,OVC,M,M,M,8000.00,M,M,M,M,M,M,M,M,M,M,42.80,KWYS 071340Z AUTO 00000KT 10SM OVC080 06/06 A3022 RMK AO2,M
WYS,2023-09-07 14:55,46.40,48.20,M,0.00,0.00,0.00,30.23,M,10.00,M,M,M,M,M,M,M,M,M,M,M,M,M,M,M,M,M,KWYS 071455Z AUTO 00000KT 10SM 08/09 A3023 RMK AO2,M
WYS,2023-09-07 15:55,53.60,48.20,81.87,0.00,0.00,0.00,30.23,M,10.00,M,M,M,M,M,M,M,M,M,M,M,M,M,M,M,M,53.60,KWYS 071555Z AUTO 00000KT 10SM 12/09 A3023 RMK AO2,M
WYS,2023-09-07 16:35,57.20,46.40,67.12,0.00,0.00,0.00,30.24,M,10.00,M,M,M,M,M,M,M,M,M,M,M,M,M,M,M,M,57.20,KWYS 071635Z AUTO 00000KT 10SM 14/08 A3024 RMK AO2,M
WYS,2023-09-07 17:40,64.40,42.80,45.32,190.00,13.00,0.00,30.23,M,10.00,M,CLR,M,M,M,M,M,M,M,M,M,M,M,M,M,M,64.40,KWYS 071740Z AUTO 19013KT 10SM CLR 18/06 A3023 RMK AO2,M
WYS,2023-09-07 18:55,66.20,44.60,45.60,240.00,11.00,0.00,30.21,M,10.00,16.00,CLR,M,M,M,M,M,M,M,M,M,M,M,M,M,M,66.20,KWYS 071855Z AUTO 24011G16KT 10SM CLR 19/07 A3021 RMK AO2,M
WYS,2023-09-07 19:55,68.00,42.80,40.00,220.00,10.00,0.00,30.21,M,10.00,20.00,CLR,M,M,M,M,M,M,M,M,M,M,M,M,M,M,68.00,KWYS 071955Z AUTO 22010G20KT 200V270 10SM CLR 20/06 A3021 RMK AO2,M
WYS,2023-09-07 20:40,68.00,41.00,37.32,200.00,12.00,0.00,30.21,M,10.00,19.00,CLR,M,M,M,M,M,M,M,M,M,M,M,M,M,M,68.00,KWYS 072040Z AUTO 20012G19KT 10SM CLR 20/05 A3021 RMK AO2,M
WYS,2023-09-07 21:40,69.80,41.00,35.09,210.00,14.00,0.00,30.20,M,10.00,20.00,CLR,M,M,M,M,M,M,M,M,M,M,M,M,M,M,69.80,KWYS 072140Z AUTO 21014G20KT 10SM CLR 21/05 A3020 RMK AO2,M
WYS,2023-09-07 22:55,69.80,39.20,32.72,220.00,19.00,0.00,30.20,M,10.00,M,CLR,M,M,M,M,M,M,M,M,M,M,M,M,M,M,69.80,KWYS 072255Z AUTO 22019KT 10SM CLR 21/04 A3020 RMK AO2,M
WYS,2023-09-07 23:55,69.80,41.00,35.09,200.00,11.00,0.00,30.19,M,10.00,M,CLR,M,M,M,M,M,M,M,M,M,M,M,M,M,M,69.80,KWYS 072355Z AUTO 20011KT 10SM CLR 21/05 A3019 RMK AO2,M
WYS,2023-09-08 00:40,68.00,41.00,37.32,210.00,7.00,0.00,30.19,M,10.00,13.00,CLR,M,M,M,M,M,M,M,M,M,M,M,M,M,M,68.00,KWYS 080040Z AUTO 21007G13KT 10SM CLR 20/05 A3019 RMK AO2,M
WYS,2023-09-08 01:40,60.80,44.60,55.12,0.00,0.00,0.00,30.19,M,10.00,M,CLR,M,M,M,M,M,M,M,M,M,M,M,M,M,M,60.80,KWYS 080140Z AUTO 00000KT 10SM CLR 16/07 A3019 RMK AO2,M
WYS,2023-09-08 02:55,53.60,46.40,76.50,0.00,0.00,0.00,30.21,M,10.00,M,FEW,M,M,M,10000.00,M,M,M,M,M,M,M,M,M,M,53.60,KWYS 080255Z AUTO 00000KT 10SM FEW100 12/08 A3021 RMK AO2,M
WYS,2023-09-08 03:35,51.80,46.40,81.74,0.00,0.00,0.00,30.21,M,10.00,M,FEW,FEW,M,M,8000.00,9000.00,M,M,M,M,M,M,M,M,M,51.80,KWYS 080335Z AUTO 00000KT 10SM FEW080 FEW090 11/08 A3021 RMK AO2,M
WYS,2023-09-08 04:40,50.00,48.20,93.50,0.00,0.00,0.00,30.22,M,10.00,M,BKN,M,M,M,11000.00,M,M,M,M,M,M,M,M,M,M,50.00,KWYS 080440Z AUTO 00000KT 10SM BKN110 10/09 A3022 RMK AO2,M
WYS,2023-09-08 05:35,46.40,46.40,100.00,0.00,0.00,0.00,30.21,M,10.00,M,SCT,M,M,M,11000.00,M,M,M,M,M,M,M,M,M,M,46.40,KWYS 080535Z AUTO 00000KT 10SM SCT110 08/08 A3021 RMK AO2,M
WYS,2023-09-08 06:40,50.00,50.00,100.00,200.00,5.00,0.00,30.24,M,10.00,11.00,FEW,SCT,BKN,M,200.00,5500.00,7500.00,M,M,M,M,M,M,M,M,50.00,KWYS 080640Z AUTO 20005G11KT 10SM FEW002 SCT055 BKN075 10/10 A3024 RMK AO2,M
WYS,2023-09-08 07:40,48.20,48.20,100.00,40.00,3.00,0.00,30.23,M,10.00,M,OVC,M,M,M,10000.00,M,M,M,M,M,M,M,M,M,M,47.21,KWYS 080740Z AUTO 04003KT 10SM OVC100 09/09 A3023 RMK AO2,M
WYS,2023-09-08 08:40,48.20,48.20,100.00,0.00,0.00,0.00,30.25,M,10.00,M,BKN,OVC,M,M,7500.00,9000.00,M,M,M,M,M,M,M,M,M,48.20,KWYS 080840Z AUTO 00000KT 10SM BKN075 OVC090 09/09 A3025 RMK AO2,M
WYS,2023-09-08 09:40,48.20,48.20,100.00,M,4.00,0.00,30.27,M,10.00,M,FEW,FEW,SCT,M,6500.00,7500.00,9000.00,M,M,M,M,M,M,M,M,46.34,KWYS 080940Z AUTO VRB04KT 10SM FEW065 FEW075 SCT090 09/09 A3027 RMK AO2,M
WYS,2023-09-08 10:35,48.20,48.20,100.00,110.00,8.00,0.00,30.24,M,10.00,14.00,FEW,BKN,BKN,M,7500.00,9500.00,12000.00,M,M,M,M,M,M,M,M,44.07,KWYS 081035Z AUTO 11008G14KT 10SM FEW075 BKN095 BKN120 09/09 A3024 RMK AO2,M
WYS,2023-09-08 11:40,44.60,44.60,100.00,0.00,0.00,0.00,30.22,M,10.00,M,CLR,M,M,M,M,M,M,M,M,M,M,M,M,M,M,44.60,KWYS 081140Z AUTO 00000KT 10SM CLR 07/07 A3022 RMK AO2,M
WYS,2023-09-08 12:40,41.00,41.00,100.00,0.00,0.00,0.00,30.24,M,10.00,M,BKN,M,M,M,9500.00,M,M,M,M,M,M,M,M,M,M,41.00,KWYS 081240Z AUTO 00000KT 10SM BKN095 05/05 A3024 RMK AO2,M
WYS,2023-09-08 13:40,44.60,44.60,100.00,0.00,0.00,0.00,30.26,M,10.00,M,BKN,BKN,M,M,9000.00,11000.00,M,M,M,M,M,M,M,M,M,44.60,KWYS 081340Z AUTO 00000KT 10SM BKN090 BKN110 07/07 A3026 RMK AO2,M
WYS,2023-09-08 14:40,48.20,48.20,100.00,0.00,0.00,0.00,30.26,M,10.00,M,CLR,M,M,M,M,M,M,M,M,M,M,M,M,M,M,48.20,KWYS 081440Z AUTO 00000KT 10SM CLR 09/09 A3026 RMK AO2,M
WYS,2023-09-08 15:40,53.60,50.00,87.56,0.00,0.00,0.00,30.26,M,10.00,M,M,M,M,M,M,M,M,M,M,M,M,M,M,M,M,53.60,KWYS 081540Z AUTO 00000KT 10SM 12/10 A3026 RMK AO2,M
WYS,2023-09-08 16:55,60.80,46.40,59.01,0.00,0.00,0.00,30.26,M,10.00,M,M,M,M,M,M,M,M,M,M,M,M,M,M,M,M,60.80,KWYS 081655Z AUTO 00000KT 10SM 16/08 A3026 RMK AO2,M
WYS,2023-09-08 17:40,66.20,42.80,42.57,210.00,13.00,0.00,30.26,M,10.00,M,CLR,M,M,M,M,M,M,M,M,M,M,M,M,M,M,66.20,KWYS 081740Z AUTO 21013KT 10SM CLR 19/06 A3026 RMK AO2,M
WYS,2023-09-08 18:40,68.00,42.80,40.00,220.00,10.00,0.00,30.25,M,10.00,19.00,CLR,M,M,M,M,M,M,M,M,M,M,M,M,M,M,68.00,KWYS 081840Z AUTO 22010G19KT 10SM CLR 20/06 A3025 RMK AO2,M
WYS,2023-09-08 19:55,71.60,35.60,26.71,230.00,12.00,0.00,30.25,M,10.00,21.00,FEW,M,M,M,8500.00,M,M,M,M,M,M,M,M,M,M,71.60,KWYS 081955Z AUTO 23012G21KT 10SM FEW085 22/02 A3025 RMK AO2,M
WYS,2023-09-08 20:40,69.80,37.40,30.49,210.00,8.00,0.00,30.24,M,10.00,14.00,SCT,SCT,M,M,8000.00,9500.00,M,M,M,M,M,M,M,M,M,69.80,KWYS 082040Z AUTO 21008G14KT 10SM SCT080 SCT095 21/03 A3024 RMK AO2,M
WYS,2023-09-08 21:55,73.40,33.80,23.39,250.00,14.00,0.00,30.23,M,10.00,25.00,FEW,M,M,M,8500.00,M,M,M,M,M,M,M,M,M,M,73.40,KWYS 082155Z AUTO 25014G25KT 10SM FEW085 23/01 A3023 RMK AO2,M
WYS,2023-09-08 22:55,68.00,35.60,30.20,250.00,8.00,0.00,30.24,M,10.00,13.00,FEW,M,M,M,10000.00,M,M,M,M,M,M,M,M,M,M,68.00,KWYS 082255Z AUTO 25008G13KT 10SM FEW100 20/02 A3024 RMK AO2,M
WYS,2023-09-08 23:35,60.80,39.20,44.76,280.00,11.00,0.00,30.31,M,8.00,28.00,FEW,SCT,BKN,M,3300.00,5500.00,8500.00,M,M,M,M,M,M,M,M,60.80,KWYS 082335Z AUTO 28011G28KT 250V320 8SM FEW033 SCT055 BKN085 16/04 A3031 RMK AO2,M
WYS,2023-09-09 00:40,59.00,42.80,54.86,100.00,5.00,0.00,30.27,M,10.00,M,BKN,M,M,M,11000.00,M,M,M,M,M,M,M,M,M,M,59.00,KWYS 090040Z AUTO 10005KT 10SM BKN110 15/06 A3027 RMK AO2,M
WYS,2023-09-09 01:40,55.40,48.20,76.66,0.00,0.00,0.00,30.27,M,10.00,M,SCT,SCT,M,M,9500.00,11000.00,M,M,M,M,M,M,M,M,M,55.40,KWYS 090140Z AUTO 00000KT 10SM SCT095 SCT110 13/09 A3027 RMK AO2,M
WYS,2023-09-09 02:55,50.00,50.00,100.00,270.00,3.00,0.00,30.29,M,10.00,M,SCT,M,M,M,10000.00,M,M,M,M,M,M,M,M,M,M,50.00,KWYS 090255Z AUTO 27003KT 10SM SCT100 10/10 A3029 RMK AO2,M
WYS,2023-09-09 03:55,48.20,48.20,100.00,0.00,0.00,0.00,30.31,M,10.00,M,BKN,OVC,M,M,9000.00,11000.00,M,M,M,M,M,M,M,M,M,48.20,KWYS 090355Z AUTO 00000KT 10SM BKN090 OVC110 09/09 A3031 RMK AO2,M
WYS,2023-09-09 04:40,46.40,46.40,100.00,200.00,3.00,0.00,30.32,M,10.00,M,OVC,M,M,M,11000.00,M,M,M,M,M,M,M,M,M,M,45.15,KWYS 090440Z AUTO 20003KT 10SM OVC110 08/08 A3032 RMK AO2,M
WYS,2023-09-09 05:55,46.40,46.40,100.00,0.00,0.00,0.00,30.34,M,10.00,M,FEW,FEW,M,M,9500.00,12000.00,M,M,M,M,M,M,M,M,M,46.40,KWYS 090555Z AUTO 00000KT 10SM FEW095 FEW120 08/08 A3034 RMK AO2,M
WYS,2023-09-09 06:55,42.80,42.80,100.00,150.00,5.00,0.00,30.34,M,10.00,M,CLR,M,M,M,M,M,M,M,M,M,M,M,M,M,M,39.22,KWYS 090655Z AUTO 15005KT 10SM CLR 06/06 A3034 RMK AO2,M
WYS,2023-09-09 07:55,41.00,41.00,100.00,200.00,3.00,0.00,30.34,M,10.00,M,CLR,M,M,M,M,M,M,M,M,M,M,M,M,M,M,38.98,KWYS 090755Z AUTO 20003KT 10SM CLR 05/05 A3034 RMK AO2,M
WYS,2023-09-09 08:35,41.00,41.00,100.00,0.00,0.00,0.00,30.34,M,10.00,M,CLR,M,M,M,M,M,M,M,M,M,M,M,M,M,M,41.00,KWYS 090835Z AUTO 00000KT 10SM CLR 05/05 A3034 RMK AO2,M
WYS,2023-09-09 09:40,37.40,37.40,100.00,0.00,0.00,0.00,30.34,M,10.00,M,CLR,M,M,M,M,M,M,M,M,M,M,M,M,M,M,37.40,KWYS 090940Z AUTO 00000KT 10SM CLR 03/03 A3034 RMK AO2,M
WYS,2023-09-09 10:40,35.60,35.60,100.00,0.00,0.00,0.00,30.35,M,10.00,M,CLR,M,M,M,M,M,M,M,M,M,M,M,M,M,M,35.60,KWYS 091040Z AUTO 00000KT 10SM CLR 02/02 A3035 RMK AO2,M
WYS,2023-09-09 11:55,33.80,33.80,100.00,0.00,0.00,0.00,30.37,M,10.00,M,CLR,M,M,M,M,M,M,M,M,M,M,M,M,M,M,33.80,KWYS 091155Z AUTO 00000KT 10SM CLR 01/01 A3037 RMK AO2,M
WYS,2023-09-09 12:40,33.80,33.80,100.00,0.00,0.00,0.00,30.37,M,10.00,M,CLR,M,M,M,M,M,M,M,M,M,M,M,M,M,M,33.80,KWYS 091240Z AUTO 00000KT 10SM CLR 01/01 A3037 RMK AO2,M
WYS,2023-09-09 13:40,33.80,35.60,M,0.00,0.00,0.00,30.38,M,10.00,M,CLR,M,M,M,M,M,M,M,M,M,M,M,M,M,M,M,KWYS 091340Z AUTO 00000KT 10SM CLR 01/02 A3038 RMK AO2,M
WYS,2023-09-09 14:40,42.80,42.80,100.00,0.00,0.00,0.00,30.38,M,10.00,M,CLR,M,M,M,M,M,M,M,M,M,M,M,M,M,M,42.80,KWYS 091440Z AUTO 00000KT 10SM CLR 06/06 A3038 RMK AO2,M
WYS,2023-09-09 15:40,50.00,48.20,93.50,0.00,0.00,0.00,30.38,M,10.00,M,M,M,M,M,M,M,M,M,M,M,M,M,M,M,M,50.00,KWYS 091540Z AUTO 00000KT 10SM 10/09 A3038 RMK AO2,M
WYS,2023-09-09 16:40,53.60,46.40,76.50,0.00,0.00,0.00,30.37,M,10.00,M,M,M,M,M,M,M,M,M,M,M,M,M,M,M,M,53.60,KWYS 091640Z AUTO 00000KT 10SM 12/08 A3037 RMK AO2,M
WYS,2023-09-09 17:40,59.00,46.40,62.92,0.00,0.00,0.00,30.36,M,10.00,M,M,M,M,M,M,M,M,M,M,M,M,M,M,M,M,59.00,KWYS 091740Z AUTO 00000KT 10SM 15/08 A3036 RMK AO2,M
WYS,2023-09-09 18:40,64.40,44.60,48.55,M,3.00,0.00,30.34,M,10.00,M,CLR,M,M,M,M,M,M,M,M,M,M,M,M,M,M,64.40,KWYS 091840Z AUTO VRB03KT 10SM CLR 18/07 A3034 RMK AO2,M
WYS,2023-09-09 19:40,66.20,37.40,34.51,230.00,6.00,0.00,30.33,M,10.00,M,CLR,M,M,M,M,M,M,M,M,M,M,M,M,M,M,66.20,KWYS 091940Z AUTO 23006KT 10SM CLR 19/03 A3033 RMK AO2,M
WYS,2023-09-09 20:40,68.00,35.60,30.20,270.00,9.00,0.00,30.32,M,10.00,15.00,FEW,FEW,M,M,7500.00,9000.00,M,M,M,M,M,M,M,M,M,68.00,KWYS 092040Z AUTO 27009G15KT 230V300 10SM FEW075 FEW090 20/02 A3032 RMK AO2,M
WYS,2023-09-09 21:40,68.00,35.60,30.20,240.00,6.00,0.00,30.31,M,10.00,12.00,FEW,FEW,M,M,7500.00,9500.00,M,M,M,M,M,M,M,M,M,68.00,KWYS 092140Z AUTO 24006G12KT 10SM FEW075 FEW095 20/02 A3031 RMK AO2,M
WYS,2023-09-09 22:35,68.00,33.80,28.11,270.00,4.00,0.00,30.31,M,10.00,14.00,FEW,FEW,M,M,7500.00,9500.00,M,M,M,M,M,M,M,M,M,68.00,KWYS 092235Z AUTO 27004G14KT 10SM FEW075 FEW095 20/01 A3031 RMK AO2,M
WYS,2023-09-09 23:35,66.20,37.40,34.51,290.00,4.00,0.00,30.30,M,10.00,M,FEW,M,M,M,8500.00,M,M,M,M,M,M,M,M,M,M,66.20,KWYS 092335Z AUTO 29004KT 10SM FEW085 19/03 A3030 RMK AO2,M
WYS,2023-09-10 00:40,66.20,39.20,37.03,250.00,7.00,0.00,30.31,M,10.00,13.00,CLR,M,M,M,M,M,M,M,M,M,M,M,M,M,M,66.20,KWYS 100040Z AUTO 25007G13KT 10SM CLR 19/04 A3031 RMK AO2,M
WYS,2023-09-10 01:40,59.00,44.60,58.77,30.00,9.00,0.00,30.32,M,10.00,M,BKN,M,M,M,12000.00,M,M,M,M,M,M,M,M,M,M,59.00,KWYS 100140Z AUTO 03009KT 10SM BKN120 15/07 A3032 RMK AO2,M
WYS,2023-09-10 02:40,55.40,44.60,66.91,40.00,6.00,0.00,30.35,M,10.00,M,FEW,M,M,M,12000.00,M,M,M,M,M,M,M,M,M,M,55.40,KWYS 100240Z AUTO 04006KT 10SM FEW120 13/07 A3035 RMK AO2,M
WYS,2023-09-10 03:40,53.60,42.80,66.70,20.00,5.00,0.00,30.36,M,10.00,M,OVC,M,M,M,11000.00,M,M,M,M,M,M,M,M,M,M,53.60,KWYS 100340Z AUTO 02005KT 10SM OVC110 12/06 A3036 RMK AO2,M
WYS,2023-09-10 04:40,51.80,42.80,71.26,20.00,6.00,0.00,30.36,M,10.00,M,BKN,M,M,M,11000.00,M,M,M,M,M,M,M,M,M,M,51.80,KWYS 100440Z AUTO 02006KT 10SM BKN110 11/06 A3036 RMK AO2,M
WYS,2023-09-10 05:40,50.00,42.80,76.18,0.00,0.00,0.00,30.36,M,10.00,M,BKN,BKN,M,M,10000.00,12000.00,M,M,M,M,M,M,M,M,M,50.00,KWYS 100540Z AUTO 00000KT 10SM BKN100 BKN120 10/06 A3036 RMK AO2,M
WYS,2023-09-10 06:40,48.20,48.20,100.00,50.00,7.00,0.00,30.35,M,9.00,M,SCT,BKN,OVC,M,4500.00,7500.00,9500.00,M,M,M,M,M,M,M,M,44.53,KWYS 100640Z AUTO 05007KT 9SM SCT045 BKN075 OVC095 09/09 A3035 RMK AO2,M
WYS,2023-09-10 07:40,48.20,44.60,87.28,30.00,4.00,0.00,30.36,M,10.00,M,FEW,SCT,OVC,M,5000.00,6000.00,9500.00,M,M,M,M,M,M,M,M,46.34,KWYS 100740Z AUTO 03004KT 10SM FEW050 SCT060 OVC095 09/07 A3036 RMK AO2,M
WYS,2023-09-10 08:40,46.40,46.40,100.00,0.00,0.00,0.00,30.36,M,10.00,M,FEW,BKN,OVC,M,7000.00,8500.00,11000.00,M,M,M,M,M,M,M,M,46.40,KWYS 100840Z AUTO 00000KT 10SM FEW070 BKN085 OVC110 08/08 A3036 RMK AO2,M
WYS,2023-09-10 09:40,42.80,42.80,100.00,180.00,3.00,0.00,30.36,M,10.00,M,BKN,M,M,M,9500.00,M,M,M,M,M,M,M,M,M,M,41.03,KWYS 100940Z AUTO 18003KT 10SM BKN095 06/06 A3036 RMK AO2,M
WYS,2023-09-10 10:40,44.60,44.60,100.00,330.00,5.00,0.00,30.36,M,10.00,M,FEW,SCT,OVC,M,6500.00,7500.00,9500.00,M,M,M,M,M,M,M,M,41.36,KWYS 101040Z AUTO 33005KT 10SM FEW065 SCT075 OVC095 07/07 A3036 RMK AO2,M
WYS,2023-09-10 11:40,44.60,44.60,100.00,110.00,5.00,0.00,30.35,M,10.00,M,FEW,SCT,OVC,M,4600.00,6500.00,9000.00,M,M,M,M,M,M,M,M,41.36,KWYS 101140Z AUTO 11005KT 10SM FEW046 SCT065 OVC090 07/07 A3035 RMK AO2,M
WYS,2023-09-10 12:40,41.00,41.00,100.00,0.00,0.00,0.00,30.36,M,10.00,M,BKN,BKN,M,M,9000.00,11000.00,M,M,M,M,M,M,M,M,M,41.00,KWYS 101240Z AUTO 00000KT 10SM BKN090 BKN110 05/05 A3036 RMK AO2,M
WYS,2023-09-10 13:35,41.00,41.00,100.00,0.00,0.00,0.00,30.37,M,10.00,M,SCT,M,M,M,11000.00,M,M,M,M,M,M,M,M,M,M,41.00,KWYS 101335Z AUTO 00000KT 10SM SCT110 05/05 A3037 RMK AO2,M
WYS,2023-09-10 14:40,48.20,48.20,100.00,0.00,0.00,0.00,30.37,M,10.00,M,OVC,M,M,M,11000.00,M,M,M,M,M,M,M,M,M,M,48.20,KWYS 101440Z AUTO 00000KT 10SM OVC110 09/09 A3037 RMK AO2,M
WYS,2023-09-10 15:40,51.80,46.40,81.74,0.00,0.00,0.00,30.36,M,10.00,M,SCT,M,M,M,11000.00,M,M,M,M,M,M,M,M,M,M,51.80,KWYS 101540Z AUTO 00000KT 10SM SCT110 11/08 A3036 RMK AO2,M
WYS,2023-09-10 16:40,55.40,44.60,66.91,0.00,0.00,0.00,30.36,M,10.00,M,M,M,M,M,M,M,M,M,M,M,M,M,M,M,M,55.40,KWYS 101640Z AUTO 00000KT 10SM 13/07 A3036 RMK AO2,M
WYS,2023-09-10 17:40,59.00,42.80,54.86,0.00,0.00,0.00,30.34,M,10.00,M,CLR,M,M,M,M,M,M,M,M,M,M,M,M,M,M,59.00,KWYS 101740Z AUTO 00000KT 10SM CLR 15/06 A3034 RMK AO2,M
WYS,2023-09-10 18:40,64.40,39.20,39.43,M,4.00,0.00,30.32,M,10.00,M,SCT,M,M,M,11000.00,M,M,M,M,M,M,M,M,M,M,64.40,KWYS 101840Z AUTO VRB04KT 10SM SCT110 18/04 A3032 RMK AO2,M
WYS,2023-09-10 19:35,66.20,37.40,34.51,0.00,0.00,0.00,30.30,M,10.00,M,FEW,M,M,M,10000.00,M,M,M,M,M,M,M,M,M,M,66.20,KWYS 101935Z AUTO 00000KT 10SM FEW100 19/03 A3030 RMK AO2,M
WYS,2023-09-10 20:40,68.00,37.40,32.43,M,4.00,0.00,30.28,M,10.00,M,SCT,M,M,M,11000.00,M,M,M,M,M,M,M,M,M,M,68.00,KWYS 102040Z AUTO VRB04KT 10SM SCT110 20/03 A3028 RMK AO2,M
WYS,2023-09-10 21:55,66.20,33.80,29.92,M,4.00,0.00,30.27,M,10.00,10.00,BKN,BKN,M,M,9500.00,12000.00,M,M,M,M,M,M,M,M,M,66.20,KWYS 102155Z AUTO VRB04G10KT 10SM BKN095 BKN120 19/01 A3027 RMK AO2,M
WYS,2023-09-10 22:55,66.20,35.60,32.14,0.00,0.00,0.00,30.27,M,10.00,M,SCT,M,M,M,11000.00,M,M,M,M,M,M,M,M,M,M,66.20,KWYS 102255Z AUTO 00000KT 10SM SCT110 19/02 A3027 RMK AO2,M
WYS,2023-09-10 23:40,68.00,32.00,26.15,M,5.00,0.00,30.26,M,10.00,M,SCT,M,M,M,11000.00,M,M,M,M,M,M,M,M,M,M,68.00,KWYS 102340Z AUTO VRB05KT 10SM SCT110 20/M00 A3026 RMK AO2,M
WYS,2023-09-11 00:55,64.40,41.00,42.28,20.00,9.00,0.00,30.27,M,10.00,M,CLR,M,M,M,M,M,M,M,M,M,M,M,M,M,M,64.40,KWYS 110055Z AUTO 02009KT 10SM CLR 18/05 A3027 RMK AO2,M
WYS,2023-09-11 01:55,60.80,42.80,51.45,60.00,8.00,0.00,30.29,M,10.00,M,CLR,M,M,M,M,M,M,M,M,M,M,M,M,M,M,60.80,KWYS 110155Z AUTO 06008KT 10SM CLR 16/06 A3029 RMK AO2,M
WYS,2023-09-11 02:40,57.20,41.00,54.60,350.00,6.00,0.00,30.30,M,10.00,M,FEW,M,M,M,7000.00,M,M,M,M,M,M,M,M,M,M,57.20,KWYS 110240Z AUTO 35006KT 10SM FEW070 14/05 A3030 RMK AO2,M
WYS,2023-09-11 03:55,50.00,42.80,76.18,0.00,0.00,0.00,30.32,M,10.00,M,CLR,M,M,M,M,M,M,M,M,M,M,M,M,M,M,50.00,KWYS 110355Z AUTO 00000KT 10SM CLR 10/06 A3032 RMK AO2,M
WYS,2023-09-11 04:55,42.80,42.80,100.00,210.00,3.00,0.00,30.33,M,10.00,M,CLR,M,M,M,M,M,M,M,M,M,M,M,M,M,M,41.03,KWYS 110455Z AUTO 21003KT 10SM CLR 06/06 A3033 RMK AO2,M
WYS,2023-09-11 05:40,42.80,44.60,M,0.00,0.00,0.00,30.33,M,10.00,M,CLR,M,M,M,M,M,M,M,M,M,M,M,M,M,M,M,KWYS 110540Z AUTO 00000KT 10SM CLR 06/07 A3033 RMK AO2,M
WYS,2023-09-11 06:40,39.20,39.20,100.00,0.00,0.00,0.00,30.34,M,10.00,M,CLR,M,M,M,M,M,M,M,M,M,M,M,M,M,M,39.20,KWYS 110640Z AUTO 00000KT 10SM CLR 04/04 A3034 RMK AO2,M
WYS,2023-09-11 07:35,37.40,37.40,100.00,0.00,0.00,0.00,30.34,M,10.00,M,CLR,M,M,M,M,M,M,M,M,M,M,M,M,M,M,37.40,KWYS 110735Z AUTO 00000KT 10SM CLR 03/03 A3034 RMK AO2,M
WYS,2023-09-11 08:40,35.60,35.60,100.00,0.00,0.00,0.00,30.34,M,10.00,M,CLR,M,M,M,M,M,M,M,M,M,M,M,M,M,M,35.60,KWYS 110840Z AUTO 00000KT 10SM CLR 02/02 A3034 RMK AO2,M
WYS,2023-09-11 09:35,33.80,33.80,100.00,0.00,0.00,0.00,30.34,M,10.00,M,CLR,M,M,M,M,M,M,M,M,M,M,M,M,M,M,33.80,KWYS 110935Z AUTO 00000KT 10SM CLR 01/01 A3034 RMK AO2,M
WYS,2023-09-11 10:40,32.00,32.00,100.00,0.00,0.00,0.00,30.34,M,10.00,M,CLR,M,M,M,M,M,M,M,M,M,M,M,M,M,M,32.00,KWYS 111040Z AUTO 00000KT 10SM CLR 00/00 A3034 RMK AO2,M
WYS,2023-09-11 11:35,30.20,30.20,100.00,0.00,0.00,0.00,30.34,M,10.00,M,CLR,M,M,M,M,M,M,M,M,M,M,M,M,M,M,30.20,KWYS 111135Z AUTO 00000KT 10SM CLR M01/M01 A3034 RMK AO2,M
WYS,2023-09-11 12:40,30.20,30.20,100.00,0.00,0.00,0.00,30.34,M,10.00,M,CLR,M,M,M,M,M,M,M,M,M,M,M,M,M,M,30.20,KWYS 111240Z AUTO 00000KT 10SM CLR M01/M01 A3034 RMK AO2,M
WYS,2023-09-11 13:40,32.00,32.00,100.00,0.00,0.00,0.00,30.35,M,10.00,M,CLR,M,M,M,M,M,M,M,M,M,M,M,M,M,M,32.00,KWYS 111340Z AUTO 00000KT 10SM CLR M00/M00 A3035 RMK AO2,M
WYS,2023-09-11 14:40,39.20,39.20,100.00,0.00,0.00,0.00,30.35,M,10.00,M,CLR,M,M,M,M,M,M,M,M,M,M,M,M,M,M,39.20,KWYS 111440Z AUTO 00000KT 10SM CLR 04/04 A3035 RMK AO2,M
WYS,2023-09-11 15:40,46.40,42.80,87.19,0.00,0.00,0.00,30.34,M,10.00,M,CLR,M,M,M,M,M,M,M,M,M,M,M,M,M,M,46.40,KWYS 111540Z AUTO 00000KT 10SM CLR 08/06 A3034 RMK AO2,M
WYS,2023-09-11 16:40,53.60,42.80,66.70,0.00,0.00,0.00,30.33,M,10.00,M,CLR,M,M,M,M,M,M,M,M,M,M,M,M,M,M,53.60,KWYS 111640Z AUTO 00000KT 10SM CLR 12/06 A3033 RMK AO2,M
WYS,2023-09-11 17:40,59.00,42.80,54.86,0.00,0.00,0.00,30.31,M,10.00,M,CLR,M,M,M,M,M,M,M,M,M,M,M,M,M,M,59.00,KWYS 111740Z AUTO 00000KT 10SM CLR 15/06 A3031 RMK AO2,M
WYS,2023-09-11 18:40,64.40,37.40,36.74,110.00,3.00,0.00,30.29,M,10.00,M,CLR,M,M,M,M,M,M,M,M,M,M,M,M,M,M,64.40,KWYS 111840Z AUTO 11003KT 10SM CLR 18/03 A3029 RMK AO2,M
WYS,2023-09-11 19:40,68.00,37.40,32.43,210.00,7.00,0.00,30.27,M,10.00,M,FEW,M,M,M,9500.00,M,M,M,M,M,M,M,M,M,M,68.00,KWYS 111940Z AUTO 21007KT 10SM FEW095 20/03 A3027 RMK AO2,M
WYS,2023-09-11 20:40,68.00,35.60,30.20,0.00,0.00,0.00,30.26,M,10.00,M,SCT,BKN,M,M,8000.00,9000.00,M,M,M,M,M,M,M,M,M,68.00,KWYS 112040Z AUTO 00000KT 10SM SCT080 BKN090 20/02 A3026 RMK AO2,M
WYS,2023-09-11 21:40,69.80,33.80,26.43,200.00,7.00,0.00,30.24,M,10.00,12.00,FEW,M,M,M,9000.00,M,M,M,M,M,M,M,M,M,M,69.80,KWYS 112140Z AUTO 20007G12KT 10SM FEW090 21/01 A3024 RMK AO2,M
WYS,2023-09-11 22:40,69.80,35.60,28.39,200.00,9.00,0.00,30.22,M,10.00,M,CLR,M,M,M,M,M,M,M,M,M,M,M,M,M,M,69.80,KWYS 112240Z AUTO 20009KT 10SM CLR 21/02 A3022 RMK AO2,M
WYS,2023-09-11 23:40,69.80,35.60,28.39,200.00,11.00,0.00,30.21,M,10.00,M,CLR,M,M,M,M,M,M,M,M,M,M,M,M,M,M,69.80,KWYS 112340Z AUTO 20011KT 10SM CLR 21/02 A3021 RMK AO2,M
WYS,2023-09-12 00:40,69.80,35.60,28.39,210.00,6.00,0.00,30.20,M,10.00,M,CLR,M,M,M,M,M,M,M,M,M,M,M,M,M,M,69.80,KWYS 120040Z AUTO 21006KT 10SM CLR 21/02 A3020 RMK AO2,M
WYS,2023-09-12 01:40,60.80,39.20,44.76,0.00,0.00,0.00,30.20,M,10.00,M,CLR,M,M,M,M,M,M,M,M,M,M,M,M,M,M,60.80,KWYS 120140Z AUTO 00000KT 10SM CLR 16/04 A3020 RMK AO2,M
WYS,2023-09-12 02:40,51.80,39.20,61.99,0.00,0.00,0.00,30.20,M,10.00,M,CLR,M,M,M,M,M,M,M,M,M,M,M,M,M,M,51.80,KWYS 120240Z AUTO 00000KT 10SM CLR 11/04 A3020 RMK AO2,M
WYS,2023-09-12 03:40,50.00,41.00,71.07,0.00,0.00,0.00,30.21,M,10.00,M,CLR,M,M,M,M,M,M,M,M,M,M,M,M,M,M,50.00,KWYS 120340Z AUTO 00000KT 10SM CLR 10/05 A3021 RMK AO2,M
WYS,2023-09-12 04:40,48.20,39.20,70.88,0.00,0.00,0.00,30.22,M,10.00,M,CLR,M,M,M,M,M,M,M,M,M,M,M,M,M,M,48.20,KWYS 120440Z AUTO 00000KT 10SM CLR 09/04 A3022 RMK AO2,M
WYS,2023-09-12 05:55,41.00,41.00,100.00,0.00,0.00,0.00,30.22,M,10.00,M,CLR,M,M,M,M,M,M,M,M,M,M,M,M,M,M,41.00,KWYS 120555Z AUTO 00000KT 10SM CLR 05/05 A3022 RMK AO2,M
WYS,2023-09-12 06:35,41.00,39.20,93.24,0.00,0.00,0.00,30.22,M,10.00,M,CLR,M,M,M,M,M,M,M,M,M,M,M,M,M,M,41.00,KWYS 120635Z AUTO 00000KT 10SM CLR 05/04 A3022 RMK AO2,M
WYS,2023-09-12 07:40,39.20,39.20,100.00,0.00,0.00,0.00,30.22,M,10.00,M,BKN,M,M,M,10000.00,M,M,M,M,M,M,M,M,M,M,39.20,KWYS 120740Z AUTO 00000KT 10SM BKN100 04/04 A3022 RMK AO2,M
WYS,2023-09-12 08:55,39.20,39.20,100.00,0.00,0.00,0.00,30.22,M,10.00,M,OVC,M,M,M,9000.00,M,M,M,M,M,M,M,M,M,M,39.20,KWYS 120855Z AUTO 00000KT 10SM OVC090 04/04 A3022 RMK AO2,M
WYS,2023-09-12 09:35,39.20,39.20,100.00,0.00,0.00,0.00,30.21,M,10.00,M,OVC,M,M,M,11000.00,M,M,M,M,M,M,M,M,M,M,39.20,KWYS 120935Z AUTO 00000KT 10SM OVC110 04/04 A3021 RMK AO2,M
WYS,2023-09-12 10:40,35.60,37.40,M,0.00,0.00,0.00,30.22,M,10.00,M,FEW,M,M,M,11000.00,M,M,M,M,M,M,M,M,M,M,M,KWYS 121040Z AUTO 00000KT 10SM FEW110 02/03 A3022 RMK AO2,M
WYS,2023-09-12 11:55,33.80,33.80,100.00,0.00,0.00,0.00,30.22,M,10.00,M,CLR,M,M,M,M,M,M,M,M,M,M,M,M,M,M,33.80,KWYS 121155Z AUTO 00000KT 10SM CLR 01/01 A3022 RMK AO2,M
WYS,2023-09-12 12:55,32.00,32.00,100.00,0.00,0.00,0.00,30.22,M,10.00,M,CLR,M,M,M,M,M,M,M,M,M,M,M,M,M,M,32.00,KWYS 121255Z AUTO 00000KT 10SM CLR 00/00 A3022 RMK AO2,M
WYS,2023-09-12 13:55,35.60,35.60,100.00,0.00,0.00,0.00,30.22,M,10.00,M,CLR,M,M,M,M,M,M,M,M,M,M,M,M,M,M,35.60,KWYS 121355Z AUTO 00000KT 10SM CLR 02/02 A3022 RMK AO2,M
WYS,2023-09-12 14:55,44.60,41.00,87.09,0.00,0.00,0.00,30.23,M,10.00,M,FEW,M,M,M,11000.00,M,M,M,M,M,M,M,M,M,M,44.60,KWYS 121455Z AUTO 00000KT 10SM FEW110 07/05 A3023 RMK AO2,M
WYS,2023-09-12 15:40,48.20,42.80,81.47,0.00,0.00,0.00,30.22,M,10.00,M,FEW,M,M,M,9500.00,M,M,M,M,M,M,M,M,M,M,48.20,KWYS 121540Z AUTO 00000KT 10SM FEW095 09/06 A3022 RMK AO2,M
WYS,2023-09-12 16:55,57.20,41.00,54.60,0.00,0.00,0.00,30.22,M,10.00,M,M,M,M,M,M,M,M,M,M,M,M,M,M,M,M,57.20,KWYS 121655Z AUTO 00000KT 10SM 14/05 A3022 RMK AO2,M
WYS,2023-09-12 17:55,66.20,39.20,37.03,200.00,8.00,0.00,30.19,M,10.00,M,CLR,M,M,M,M,M,M,M,M,M,M,M,M,M,M,66.20,KWYS 121755Z AUTO 20008KT 150V230 10SM CLR 19/04 A3019 RMK AO2,M
WYS,2023-09-12 18:40,69.80,37.40,30.49,210.00,11.00,0.00,30.18,M,10.00,M,CLR,M,M,M,M,M,M,M,M,M,M,M,M,M,M,69.80,KWYS 121840Z AUTO 21011KT 10SM CLR 21/03 A3018 RMK AO2,M
WYS,2023-09-12 19:55,71.60,32.00,23.13,M,4.00,0.00,30.15,M,10.00,13.00,CLR,M,M,M,M,M,M,M,M,M,M,M,M,M,M,71.60,KWYS 121955Z AUTO VRB04G13KT 10SM CLR 22/00 A3015 RMK AO2,M
WYS,2023-09-12 20:35,73.40,32.00,21.76,240.00,10.00,0.00,30.14,M,10.00,M,FEW,M,M,M,10000.00,M,M,M,M,M,M,M,M,M,M,73.40,KWYS 122035Z AUTO 24010KT 210V270 10SM FEW100 23/00 A3014 RMK AO2,M
WYS,2023-09-12 21:40,64.40,37.40,36.74,M,6.00,0.00,30.15,M,10.00,13.00,SCT,SCT,M,M,9500.00,12000.00,M,M,M,M,M,M,M,M,M,64.40,KWYS 122140Z AUTO VRB06G13KT 10SM SCT095 SCT120 18/03 A3015 RMK AO2,M
WYS,2023-09-12 22:55,64.40,42.80,45.32,230.00,6.00,0.00,30.14,M,10.00,11.00,SCT,M,M,M,12000.00,M,M,M,M,M,M,M,M,M,M,64.40,KWYS 122255Z AUTO 23006G11KT 10SM SCT120 18/06 A3014 RMK AO2,M
WYS,2023-09-12 23:40,62.60,42.80,48.28,220.00,4.00,0.00,30.14,M,10.00,M,CLR,M,M,M,M,M,M,M,M,M,M,M,M,M,M,62.60,KWYS 122340Z AUTO 22004KT 10SM CLR 17/06 A3014 RMK AO2,M
WYS,2023-09-13 00:55,64.40,39.20,39.43,0.00,0.00,0.00,30.12,M,10.00,M,CLR,M,M,M,M,M,M,M,M,M,M,M,M,M,M,64.40,KWYS 130055Z AUTO 00000KT 10SM CLR 18/04 A3012 RMK AO2,M
WYS,2023-09-13 01:55,53.60,44.60,71.45,0.00,0.00,0.00,30.12,M,10.00,M,SCT,M,M,M,12000.00,M,M,M,M,M,M,M,M,M,M,53.60,KWYS 130155Z AUTO 00000KT 10SM SCT120 12/07 A3012 RMK AO2,M
WYS,2023-09-13 02:40,51.80,46.40,81.74,0.00,0.00,0.00,30.13,M,10.00,M,BKN,M,M,M,12000.00,M,M,M,M,M,M,M,M,M,M,51.80,KWYS 130240Z AUTO 00000KT 10SM BKN120 11/08 A3013 RMK AO2,M
WYS,2023-09-13 03:40,48.20,48.20,100.00,0.00,0.00,0.00,30.14,M,10.00,M,OVC,M,M,M,11000.00,M,M,M,M,M,M,M,M,M,M,48.20,KWYS 130340Z AUTO 00000KT 10SM OVC110 09/09 A3014 RMK AO2,M
WYS,2023-09-13 04:40,44.60,44.60,100.00,0.00,0.00,0.00,30.14,M,10.00,M,BKN,M,M,M,11000.00,M,M,M,M,M,M,M,M,M,M,44.60,KWYS 130440Z AUTO 00000KT 10SM BKN110 07/07 A3014 RMK AO2,M
WYS,2023-09-13 05:40,42.80,42.80,100.00,0.00,0.00,0.00,30.14,M,10.00,M,OVC,M,M,M,11000.00,M,M,M,M,M,M,M,M,M,M,42.80,KWYS 130540Z AUTO 00000KT 10SM OVC110 06/06 A3014 RMK AO2,M
WYS,2023-09-13 06:40,42.80,42.80,100.00,0.00,0.00,0.00,30.14,M,10.00,M,BKN,M,M,M,11000.00,M,M,M,M,M,M,M,M,M,M,42.80,KWYS 130640Z AUTO 00000KT 10SM BKN110 06/06 A3014 RMK AO2,M
WYS,2023-09-13 07:40,41.00,41.00,100.00,0.00,0.00,0.00,30.13,M,10.00,M,FEW,SCT,BKN,M,8000.00,10000.00,12000.00,M,M,M,M,M,M,M,M,41.00,KWYS 130740Z AUTO 00000KT 10SM FEW080 SCT100 BKN120 05/05 A3013 RMK AO2,M
WYS,2023-09-13 08:40,41.00,41.00,100.00,0.00,0.00,0.00,30.14,M,10.00,M,BKN,BKN,M,M,8000.00,9000.00,M,M,M,M,M,M,M,M,M,41.00,KWYS 130840Z AUTO 00000KT 10SM BKN080 BKN090 05/05 A3014 RMK AO2,M
WYS,2023-09-13 09:40,41.00,41.00,100.00,0.00,0.00,0.00,30.14,M,10.00,M,SCT,OVC,M,M,7500.00,9500.00,M,M,M,M,M,M,M,M,M,41.00,KWYS 130940Z AUTO 00000KT 10SM SCT075 OVC095 05/05 A3014 RMK AO2,M
WYS,2023-09-13 10:40,41.00,41.00,100.00,0.00,0.00,0.00,30.14,M,10.00,M,FEW,BKN,OVC,M,4000.00,8500.00,11000.00,M,M,M,M,M,M,M,M,41.00,KWYS 131040Z AUTO 00000KT 10SM FEW040 BKN085 OVC110 05/05 A3014 RMK AO2,M
WYS,2023-09-13 11:35,42.80,42.80,100.00,0.00,0.00,0.00,30.13,M,9.00,M,FEW,BKN,OVC,M,4100.00,5500.00,7500.00,M,-UP,M,M,M,M,M,M,42.80,KWYS 131135Z AUTO 00000KT 9SM -UP FEW041 BKN055 OVC075 06/06 A3013 RMK AO2,M
WYS,2023-09-13 12:40,42.80,42.80,100.00,280.00,4.00,0.00,30.14,M,10.00,M,BKN,OVC,M,M,7500.00,9000.00,M,M,M,M,M,M,M,M,M,40.03,KWYS 131240Z AUTO 28004KT 10SM BKN075 OVC090 06/06 A3014 RMK AO2,M
WYS,2023-09-13 13:40,42.80,42.80,100.00,50.00,4.00,0.00,30.15,M,10.00,M,OVC,M,M,M,9000.00,M,M,M,M,M,M,M,M,M,M,40.03,KWYS 131340Z AUTO 05004KT 10SM OVC090 06/06 A3015 RMK AO2,M
WYS,2023-09-13 14:40,48.20,46.40,93.45,M,4.00,0.00,30.16,M,10.00,M,BKN,BKN,OVC,M,7000.00,8000.00,10000.00,M,M,M,M,M,M,M,M,46.34,KWYS 131440Z AUTO VRB04KT 10SM BKN070 BKN080 OVC100 09/08 A3016 RMK AO2,M
WYS,2023-09-13 15:40,48.20,46.40,93.45,0.00,0.00,0.00,30.17,M,10.00,M,SCT,BKN,BKN,M,7000.00,8000.00,11000.00,M,M,M,M,M,M,M,M,48.20,KWYS 131540Z AUTO 00000KT 10SM SCT070 BKN080 BKN110 09/08 A3017 RMK AO2,M
WYS,2023-09-13 16:40,53.60,44.60,71.45,M,6.00,0.00,30.19,M,10.00,M,BKN,BKN,OVC,M,6500.00,7500.00,9500.00,M,M,M,M,M,M,M,M,53.60,KWYS 131640Z AUTO VRB06KT 10SM BKN065 BKN075 OVC095 12/07 A3019 RMK AO2,M
WYS,2023-09-13 17:40,51.80,51.80,100.00,300.00,4.00,0.00,30.17,M,10.00,M,M,M,M,M,M,M,M,M,M,M,M,M,M,M,M,51.80,KWYS 131740Z AUTO 30004KT 10SM 11/11 A3017 RMK AO2,M
WYS,2023-09-13 18:35,57.20,50.00,76.82,0.00,0.00,0.00,30.15,M,10.00,M,M,M,M,M,M,M,M,M,M,M,M,M,M,M,M,57.20,KWYS 131835Z AUTO 00000KT 10SM 14/10 A3015 RMK AO2,M
WYS,2023-09-13 19:55,64.40,42.80,45.32,210.00,12.00,0.00,30.10,M,10.00,M,M,M,M,M,M,M,M,M,M,M,M,M,M,M,M,64.40,KWYS 131955Z AUTO 21012KT 10SM 18/06 A3010 RMK AO2,M
WYS,2023-09-13 20:40,48.20,48.20,100.00,0.00,0.00,0.00,30.14,M,7.00,10.00,FEW,BKN,BKN,M,4300.00,5000.00,6500.00,M,M,M,M,M,M,M,M,48.20,KWYS 132040Z AUTO 00000G10KT 7SM FEW043 BKN050 BKN065 09/09 A3014 RMK AO2,M
WYS,2023-09-13 21:55,48.20,48.20,100.00,160.00,4.00,0.01,30.16,M,9.00,M,FEW,BKN,OVC,M,4900.00,6000.00,7000.00,M,M,M,M,M,M,M,M,46.34,KWYS 132155Z AUTO 16004KT 9SM FEW049 BKN060 OVC070 09/09 A3016 RMK AO2 P0001,M
WYS,2023-09-13 22:35,51.80,50.00,93.55,0.00,0.00,0.00,30.15,M,10.00,M,FEW,M,M,M,4800.00,M,M,M,M,M,M,M,M,M,M,51.80,KWYS 132235Z AUTO 00000KT 10SM FEW048 11/10 A3015 RMK AO2,M
WYS,2023-09-13 23:40,51.80,51.80,100.00,0.00,0.00,0.00,30.15,M,10.00,M,CLR,M,M,M,M,M,M,M,M,M,M,M,M,M,M,51.80,KWYS 132340Z AUTO 00000KT 10SM CLR 11/11 A3015 RMK AO2,M
WYS,2023-09-14 00:55,51.80,51.80,100.00,0.00,0.00,0.00,30.16,M,10.00,M,CLR,M,M,M,M,M,M,M,M,M,M,M,M,M,M,51.80,KWYS 140055Z AUTO 00000KT 10SM CLR 11/11 A3016 RMK AO2,M
WYS,2023-09-14 01:55,50.00,50.00,100.00,0.00,0.00,0.00,30.16,M,10.00,M,CLR,M,M,M,M,M,M,M,M,M,M,M,M,M,M,50.00,KWYS 140155Z AUTO 00000KT 10SM CLR 10/10 A3016 RMK AO2,M
WYS,2023-09-14 02:35,46.40,46.40,100.00,0.00,0.00,0.00,30.18,M,9.00,M,CLR,M,M,M,M,M,M,M,M,M,M,M,M,M,M,46.40,KWYS 140235Z AUTO 00000KT 9SM CLR 08/08 A3018 RMK AO2,M
WYS,2023-09-14 03:55,44.60,44.60,100.00,210.00,5.00,0.00,30.20,M,10.00,M,BKN,M,M,M,12000.00,M,M,M,M,M,M,M,M,M,M,41.36,KWYS 140355Z AUTO 21005KT 10SM BKN120 07/07 A3020 RMK AO2,M
WYS,2023-09-14 04:55,42.80,42.80,100.00,190.00,4.00,0.00,30.20,M,10.00,M,FEW,M,M,M,8500.00,M,M,M,M,M,M,M,M,M,M,40.03,KWYS 140455Z AUTO 19004KT 10SM FEW085 06/06 A3020 RMK AO2,M
WYS,2023-09-14 05:55,39.20,41.00,M,40.00,3.00,0.00,30.22,M,9.00,M,SCT,M,M,M,9000.00,M,M,M,M,M,M,M,M,M,M,M,KWYS 140555Z AUTO 04003KT 9SM SCT090 04/05 A3022 RMK AO2,M
WYS,2023-09-14 06:55,39.20,39.20,100.00,0.00,0.00,0.00,30.23,M,10.00,M,BKN,M,M,M,5500.00,M,M,M,M,M,M,M,M,M,M,39.20,KWYS 140655Z AUTO 00000KT 10SM BKN055 04/04 A3023 RMK AO2,M
WYS,2023-09-14 07:55,37.40,37.40,100.00,0.00,0.00,0.00,30.24,M,10.00,M,SCT,M,M,M,6000.00,M,M,M,M,M,M,M,M,M,M,37.40,KWYS 140755Z AUTO 00000KT 10SM SCT060 03/03 A3024 RMK AO2,M
WYS,2023-09-14 08:55,33.80,33.80,100.00,0.00,0.00,0.00,30.25,M,10.00,M,CLR,M,M,M,M,M,M,M,M,M,M,M,M,M,M,33.80,KWYS 140855Z AUTO 00000KT 10SM CLR 01/01 A3025 RMK AO2,M
WYS,2023-09-14 09:55,32.00,32.00,100.00,0.00,0.00,0.00,30.24,M,10.00,M,CLR,M,M,M,M,M,M,M,M,M,M,M,M,M,M,32.00,KWYS 140955Z AUTO 00000KT 10SM CLR 00/00 A3024 RMK AO2,M
WYS,2023-09-14 10:55,30.20,30.20,100.00,0.00,0.00,0.00,30.26,M,0.25,M,VV ,M,M,M,0.00,M,M,M,FZFG,M,M,M,M,M,M,30.20,KWYS 141055Z AUTO 00000KT M1/4SM FZFG VV000 M01/M01 A3026 RMK AO2,M
WYS,2023-09-14 11:55,32.00,32.00,100.00,0.00,0.00,0.00,30.27,M,9.00,M,OVC,M,M,M,200.00,M,M,M,M,M,M,M,M,M,M,32.00,KWYS 141155Z AUTO 00000KT 9SM OVC002 00/00 A3027 RMK AO2,M
WYS,2023-09-14 12:40,33.80,33.80,100.00,0.00,0.00,0.00,30.28,M,0.25,M,OVC,M,M,M,200.00,M,M,M,FG,M,M,M,M,M,M,33.80,KWYS 141240Z AUTO 00000KT M1/4SM FG OVC002 01/01 A3028 RMK AO2,M
WYS,2023-09-14 13:40,35.60,35.60,100.00,0.00,0.00,0.00,30.29,M,0.25,M,OVC,M,M,M,200.00,M,M,M,FG,M,M,M,M,M,M,35.60,KWYS 141340Z AUTO 00000KT M1/4SM FG OVC002 02/02 A3029 RMK AO2,M
WYS,2023-09-14 14:55,39.20,39.20,100.00,0.00,0.00,0.00,30.31,M,0.25,M,OVC,M,M,M,200.00,M,M,M,FG,M,M,M,M,M,M,39.20,KWYS 141455Z AUTO 00000KT M1/4SM FG OVC002 04/04 A3031 RMK AO2,M
WYS,2023-09-14 15:40,39.20,39.20,100.00,0.00,0.00,0.00,30.31,M,0.25,M,OVC,M,M,M,200.00,M,M,M,FG,M,M,M,M,M,M,39.20,KWYS 141540Z AUTO 00000KT M1/4SM FG OVC002 04/04 A3031 RMK AO2,M
WYS,2023-09-14 16:55,41.00,41.00,100.00,0.00,0.00,0.00,30.31,M,8.00,M,OVC,M,M,M,300.00,M,M,M,M,M,M,M,M,M,M,41.00,KWYS 141655Z AUTO 00000KT 8SM OVC003 05/05 A3031 RMK AO2,M
WYS,2023-09-14 17:55,46.40,46.40,100.00,0.00,0.00,0.00,30.31,M,10.00,M,M,M,M,M,M,M,M,M,M,M,M,M,M,M,M,46.40,KWYS 141755Z AUTO 00000KT 10SM 08/08 A3031 RMK AO2,M
WYS,2023-09-14 18:55,55.40,44.60,66.91,0.00,0.00,0.00,30.29,M,10.00,M,M,M,M,M,M,M,M,M,M,M,M,M,M,M,M,55.40,KWYS 141855Z AUTO 00000KT 10SM 13/07 A3029 RMK AO2,M
WYS,2023-09-14 19:55,59.00,33.80,38.56,0.00,0.00,0.00,30.27,M,10.00,M,CLR,M,M,M,M,M,M,M,M,M,M,M,M,M,M,59.00,KWYS 141955Z AUTO 00000KT 10SM CLR 15/01 A3027 RMK AO2,M
WYS,2023-09-14 20:55,62.60,28.40,27.27,0.00,0.00,0.00,30.26,M,10.00,M,CLR,M,M,M,M,M,M,M,M,M,M,M,M,M,M,62.60,KWYS 142055Z AUTO 00000KT 10SM CLR 17/M02 A3026 RMK AO2,M
WYS,2023-09-14 21:55,64.40,28.40,25.60,0.00,0.00,0.00,30.25,M,10.00,M,CLR,M,M,M,M,M,M,M,M,M,M,M,M,M,M,64.40,KWYS 142155Z AUTO 00000KT 10SM CLR 18/M02 A3025 RMK AO2,M
WYS,2023-09-14 22:55,64.40,30.20,27.55,100.00,6.00,0.00,30.24,M,10.00,M,CLR,M,M,M,M,M,M,M,M,M,M,M,M,M,M,64.40,KWYS 142255Z AUTO 10006KT 10SM CLR 18/M01 A3024 RMK AO2,M
WYS,2023-09-14 23:55,64.40,32.00,29.63,M,3.00,0.00,30.24,M,10.00,M,CLR,M,M,M,M,M,M,M,M,M,M,M,M,M,M,64.40,KWYS 142355Z AUTO VRB03KT 10SM CLR 18/00 A3024 RMK AO2,M
WYS,2023-09-15 00:55,60.80,35.60,38.85,30.00,4.00,0.00,30.24,M,10.00,M,CLR,M,M,M,M,M,M,M,M,M,M,M,M,M,M,60.80,KWYS 150055Z AUTO 03004KT 10SM CLR 16/02 A3024 RMK AO2,M
WYS,2023-09-15 01:55,53.60,37.40,54.07,360.00,5.00,0.00,30.26,M,10.00,M,FEW,M,M,M,7000.00,M,M,M,M,M,M,M,M,M,M,53.60,KWYS 150155Z AUTO 36005KT 10SM FEW070 12/03 A3026 RMK AO2,M
WYS,2023-09-15 02:55,48.20,41.00,76.01,0.00,0.00,0.00,30.29,M,10.00,M,FEW,M,M,M,7000.00,M,M,M,M,M,M,M,M,M,M,48.20,KWYS 150255Z AUTO 00000KT 10SM FEW070 09/05 A3029 RMK AO2,M
WYS,2023-09-15 03:55,44.60,41.00,87.09,0.00,0.00,0.00,30.30,M,10.00,M,CLR,M,M,M,M,M,M,M,M,M,M,M,M,M,M,44.60,KWYS 150355Z AUTO 00000KT 10SM CLR 07/05 A3030 RMK AO2,M
WYS,2023-09-15 04:55,41.00,41.00,100.00,0.00,0.00,0.00,30.31,M,10.00,M,CLR,M,M,M,M,M,M,M,M,M,M,M,M,M,M,41.00,KWYS 150455Z AUTO 00000KT 10SM CLR 05/05 A3031 RMK AO2,M
WYS,2023-09-15 05:55,39.20,39.20,100.00,180.00,3.00,0.00,30.32,M,10.00,M,CLR,M,M,M,M,M,M,M,M,M,M,M,M,M,M,36.92,KWYS 150555Z AUTO 18003KT 10SM CLR 04/04 A3032 RMK AO2,M
WYS,2023-09-15 06:55,35.60,35.60,100.00,0.00,0.00,0.00,30.32,M,10.00,M,CLR,M,M,M,M,M,M,M,M,M,M,M,M,M,M,35.60,KWYS 150655Z AUTO 00000KT 10SM CLR 02/02 A3032 RMK AO2,M
WYS,2023-09-15 07:55,33.80,33.80,100.00,0.00,0.00,0.00,30.33,M,10.00,M,CLR,M,M,M,M,M,M,M,M,M,M,M,M,M,M,33.80,KWYS 150755Z AUTO 00000KT 10SM CLR 01/01 A3033 RMK AO2,M
WYS,2023-09-15 08:35,32.00,32.00,100.00,0.00,0.00,0.00,30.33,M,10.00,M,CLR,M,M,M,M,M,M,M,M,M,M,M,M,M,M,32.00,KWYS 150835Z AUTO 00000KT 10SM CLR 00/00 A3033 RMK AO2,M
WYS,2023-09-15 09:55,30.20,30.20,100.00,0.00,0.00,0.00,30.33,M,10.00,M,CLR,M,M,M,M,M,M,M,M,M,M,M,M,M,M,30.20,KWYS 150955Z AUTO 00000KT 10SM CLR M01/M01 A3033 RMK AO2,M
WYS,2023-09-15 10:55,28.40,28.40,100.00,0.00,0.00,0.00,30.34,M,10.00,M,CLR,M,M,M,M,M,M,M,M,M,M,M,M,M,M,28.40,KWYS 151055Z AUTO 00000KT 10SM CLR M02/M02 A3034 RMK AO2,M
WYS,2023-09-15 11:55,28.40,28.40,100.00,0.00,0.00,0.00,30.34,M,10.00,M,CLR,M,M,M,M,M,M,M,M,M,M,M,M,M,M,28.40,KWYS 151155Z AUTO 00000KT 10SM CLR M02/M02 A3034 RMK AO2,M
WYS,2023-09-15 12:55,28.40,28.40,100.00,0.00,0.00,0.00,30.35,M,10.00,M,CLR,M,M,M,M,M,M,M,M,M,M,M,M,M,M,28.40,KWYS 151255Z AUTO 00000KT 10SM CLR M02/M02 A3035 RMK AO2,M
WYS,2023-09-15 13:55,32.00,32.00,100.00,0.00,0.00,0.00,30.36,M,10.00,M,CLR,M,M,M,M,M,M,M,M,M,M,M,M,M,M,32.00,KWYS 151355Z AUTO 00000KT 10SM CLR M00/M00 A3036 RMK AO2,M
WYS,2023-09-15 14:55,39.20,39.20,100.00,0.00,0.00,0.00,30.37,M,10.00,M,CLR,M,M,M,M,M,M,M,M,M,M,M,M,M,M,39.20,KWYS 151455Z AUTO 00000KT 10SM CLR 04/04 A3037 RMK AO2,M
WYS,2023-09-15 15:35,44.60,41.00,87.09,0.00,0.00,0.00,30.36,M,10.00,M,M,M,M,M,M,M,M,M,M,M,M,M,M,M,M,44.60,KWYS 151535Z AUTO 00000KT 10SM 07/05 A3036 RMK AO2,M
WYS,2023-09-15 16:40,50.00,39.20,66.27,0.00,0.00,0.00,30.36,M,10.00,M,M,M,M,M,M,M,M,M,M,M,M,M,M,M,M,50.00,KWYS 151640Z AUTO 00000KT 10SM 10/04 A3036 RMK AO2,M
WYS,2023-09-15 17:55,57.20,41.00,54.60,0.00,0.00,0.00,30.35,M,10.00,M,CLR,M,M,M,M,M,M,M,M,M,M,M,M,M,M,57.20,KWYS 151755Z AUTO 00000KT 10SM CLR 14/05 A3035 RMK AO2,M
WYS,2023-09-15 18:55,62.60,39.20,42.00,M,4.00,0.00,30.33,M,10.00,M,CLR,M,M,M,M,M,M,M,M,M,M,M,M,M,M,62.60,KWYS 151855Z AUTO VRB04KT 10SM CLR 17/04 A3033 RMK AO2,M
WYS,2023-09-15 19:40,66.20,35.60,32.14,160.00,6.00,0.00,30.32,M,10.00,M,CLR,M,M,M,M,M,M,M,M,M,M,M,M,M,M,66.20,KWYS 151940Z AUTO 16006KT 10SM CLR 19/02 A3032 RMK AO2,M
WYS,2023-09-15 20:55,66.20,30.20,25.88,M,5.00,0.00,30.30,M,10.00,M,CLR,M,M,M,M,M,M,M,M,M,M,M,M,M,M,66.20,KWYS 152055Z AUTO VRB05KT 10SM CLR 19/M01 A3030 RMK AO2,M
WYS,2023-09-15 21:55,68.00,30.20,24.32,M,6.00,0.00,30.28,M,10.00,M,CLR,M,M,M,M,M,M,M,M,M,M,M,M,M,M,68.00,KWYS 152155Z AUTO VRB06KT 10SM CLR 20/M01 A3028 RMK AO2,M
WYS,2023-09-15 22:35,68.00,26.60,20.98,220.00,7.00,0.00,30.27,M,10.00,M,CLR,M,M,M,M,M,M,M,M,M,M,M,M,M,M,68.00,KWYS 152235Z AUTO 22007KT 10SM CLR 20/M03 A3027 RMK AO2,M
WYS,2023-09-15 23:55,68.00,26.60,20.98,230.00,5.00,0.00,30.27,M,10.00,11.00,CLR,M,M,M,M,M,M,M,M,M,M,M,M,M,M,68.00,KWYS 152355Z AUTO 23005G11KT 10SM CLR 20/M03 A3027 RMK AO2,M
WYS,2023-09-16 00:55,64.40,32.00,29.63,220.00,6.00,0.00,30.26,M,10.00,M,CLR,M,M,M,M,M,M,M,M,M,M,M,M,M,M,64.40,KWYS 160055Z AUTO 22006KT 10SM CLR 18/M00 A3026 RMK AO2,M
WYS,2023-09-16 01:55,55.40,35.60,47.16,220.00,5.00,0.00,30.27,M,10.00,M,CLR,M,M,M,M,M,M,M,M,M,M,M,M,M,M,55.40,KWYS 160155Z AUTO 22005KT 10SM CLR 13/02 A3027 RMK AO2,M
WYS,2023-09-16 02:40,53.60,37.40,54.07,220.00,4.00,0.00,30.28,M,10.00,M,CLR,M,M,M,M,M,M,M,M,M,M,M,M,M,M,53.60,KWYS 160240Z AUTO 22004KT 10SM CLR 12/03 A3028 RMK AO2,M
WYS,2023-09-16 03:55,51.80,37.40,57.77,0.00,0.00,0.00,30.30,M,10.00,M,CLR,M,M,M,M,M,M,M,M,M,M,M,M,M,M,51.80,KWYS 160355Z AUTO 00000KT 10SM CLR 11/03 A3030 RMK AO2,M
WYS,2023-09-16 04:35,46.40,37.40,70.68,0.00,0.00,0.00,30.30,M,10.00,M,CLR,M,M,M,M,M,M,M,M,M,M,M,M,M,M,46.40,KWYS 160435Z AUTO 00000KT 10SM CLR 08/03 A3030 RMK AO2,M
WYS,2023-09-16 05:40,39.20,37.40,93.19,0.00,0.00,0.00,30.31,M,10.00,M,CLR,M,M,M,M,M,M,M,M,M,M,M,M,M,M,39.20,KWYS 160540Z AUTO 00000KT 10SM CLR 04/03 A3031 RMK AO2,M
WYS,2023-09-16 06:40,37.40,37.40,100.00,0.00,0.00,0.00,30.31,M,10.00,M,CLR,M,M,M,M,M,M,M,M,M,M,M,M,M,M,37.40,KWYS 160640Z AUTO 00000KT 10SM CLR 03/03 A3031 RMK AO2,M
WYS,2023-09-16 07:55,33.80,33.80,100.00,0.00,0.00,0.00,30.32,M,10.00,M,CLR,M,M,M,M,M,M,M,M,M,M,M,M,M,M,33.80,KWYS 160755Z AUTO 00000KT 10SM CLR 01/01 A3032 RMK AO2,M
WYS,2023-09-16 08:35,32.00,32.00,100.00,0.00,0.00,0.00,30.32,M,10.00,M,CLR,M,M,M,M,M,M,M,M,M,M,M,M,M,M,32.00,KWYS 160835Z AUTO 00000KT 10SM CLR 00/00 A3032 RMK AO2,M
WYS,2023-09-16 09:40,30.20,30.20,100.00,0.00,0.00,0.00,30.32,M,10.00,M,CLR,M,M,M,M,M,M,M,M,M,M,M,M,M,M,30.20,KWYS 160940Z AUTO 00000KT 10SM CLR M01/M01 A3032 RMK AO2,M
WYS,2023-09-16 10:40,28.40,28.40,100.00,0.00,0.00,0.00,30.33,M,10.00,M,CLR,M,M,M,M,M,M,M,M,M,M,M,M,M,M,28.40,KWYS 161040Z AUTO 00000KT 10SM CLR M02/M02 A3033 RMK AO2,M
WYS,2023-09-16 11:35,28.40,28.40,100.00,0.00,0.00,0.00,30.34,M,10.00,M,CLR,M,M,M,M,M,M,M,M,M,M,M,M,M,M,28.40,KWYS 161135Z AUTO 00000KT 10SM CLR M02/M02 A3034 RMK AO2,M
WYS,2023-09-16 12:40,28.40,28.40,100.00,0.00,0.00,0.00,30.34,M,10.00,M,CLR,M,M,M,M,M,M,M,M,M,M,M,M,M,M,28.40,KWYS 161240Z AUTO 00000KT 10SM CLR M02/M02 A3034 RMK AO2,M
WYS,2023-09-16 13:40,28.40,28.40,100.00,0.00,0.00,0.00,30.36,M,10.00,M,CLR,M,M,M,M,M,M,M,M,M,M,M,M,M,M,28.40,KWYS 161340Z AUTO 00000KT 10SM CLR M02/M02 A3036 RMK AO2,M
WYS,2023-09-16 14:40,37.40,37.40,100.00,0.00,0.00,0.00,30.36,M,10.00,M,CLR,M,M,M,M,M,M,M,M,M,M,M,M,M,M,37.40,KWYS 161440Z AUTO 00000KT 10SM CLR 03/03 A3036 RMK AO2,M
WYS,2023-09-16 15:55,44.60,39.20,81.20,0.00,0.00,0.00,30.36,M,10.00,M,CLR,M,M,M,M,M,M,M,M,M,M,M,M,M,M,44.60,KWYS 161555Z AUTO 00000KT 10SM CLR 07/04 A3036 RMK AO2,M
WYS,2023-09-16 16:40,50.00,37.40,61.76,0.00,0.00,0.00,30.36,M,10.00,M,CLR,M,M,M,M,M,M,M,M,M,M,M,M,M,M,50.00,KWYS 161640Z AUTO 00000KT 10SM CLR 10/03 A3036 RMK AO2,M
WYS,2023-09-16 17:40,59.00,37.40,44.47,0.00,0.00,0.00,30.35,M,10.00,M,CLR,M,M,M,M,M,M,M,M,M,M,M,M,M,M,59.00,KWYS 161740Z AUTO 00000KT 10SM CLR 15/03 A3035 RMK AO2,M
WYS,2023-09-16 18:55,68.00,28.40,22.59,220.00,12.00,0.00,30.32,M,10.00,M,CLR,M,M,M,M,M,M,M,M,M,M,M,M,M,M,68.00,KWYS 161855Z AUTO 22012KT 10SM CLR 20/M02 A3032 RMK AO2,M
WYS,2023-09-16 19:40,69.80,32.00,24.59,200.00,15.00,0.00,30.31,M,10.00,20.00,CLR,M,M,M,M,M,M,M,M,M,M,M,M,M,M,69.80,KWYS 161940Z AUTO 20015G20KT 10SM CLR 21/M00 A3031 RMK AO2,M
WYS,2023-09-16 20:40,69.80,28.40,21.24,230.00,10.00,0.00,30.30,M,10.00,20.00,CLR,M,M,M,M,M,M,M,M,M,M,M,M,M,M,69.80,KWYS 162040Z AUTO 23010G20KT 200V260 10SM CLR 21/M02 A3030 RMK AO2,M
WYS,2023-09-16 21:55,69.80,28.40,21.24,250.00,8.00,0.00,30.29,M,10.00,13.00,CLR,M,M,M,M,M,M,M,M,M,M,M,M,M,M,69.80,KWYS 162155Z AUTO 25008G13KT 210V280 10SM CLR 21/M02 A3029 RMK AO2,M
WYS,2023-09-16 22:40,69.80,28.40,21.24,210.00,10.00,0.00,30.28,M,10.00,16.00,CLR,M,M,M,M,M,M,M,M,M,M,M,M,M,M,69.80,KWYS 162240Z AUTO 21010G16KT 10SM CLR 21/M02 A3028 RMK AO2,M
WYS,2023-09-16 23:40,69.80,26.60,19.72,230.00,6.00,0.00,30.27,M,10.00,17.00,CLR,M,M,M,M,M,M,M,M,M,M,M,M,M,M,69.80,KWYS 162340Z AUTO 23006G17KT 10SM CLR 21/M03 A3027 RMK AO2,M
WYS,2023-09-17 00:40,68.00,28.40,22.59,220.00,6.00,0.00,30.27,M,10.00,M,CLR,M,M,M,M,M,M,M,M,M,M,M,M,M,M,68.00,KWYS 170040Z AUTO 22006KT 10SM CLR 20/M02 A3027 RMK AO2,M
WYS,2023-09-17 01:40,59.00,32.00,35.87,0.00,0.00,0.00,30.27,M,10.00,M,CLR,M,M,M,M,M,M,M,M,M,M,M,M,M,M,59.00,KWYS 170140Z AUTO 00000KT 10SM CLR 15/M00 A3027 RMK AO2,M
WYS,2023-09-17 02:55,50.00,35.60,57.52,0.00,0.00,0.00,30.29,M,10.00,M,CLR,M,M,M,M,M,M,M,M,M,M,M,M,M,M,50.00,KWYS 170255Z AUTO 00000KT 10SM CLR 10/02 A3029 RMK AO2,M
WYS,2023-09-17 03:55,46.40,35.60,65.83,0.00,0.00,0.00,30.29,M,10.00,M,CLR,M,M,M,M,M,M,M,M,M,M,M,M,M,M,46.40,KWYS 170355Z AUTO 00000KT 10SM CLR 08/02 A3029 RMK AO2,M
WYS,2023-09-17 04:55,41.00,35.60,80.93,0.00,0.00,0.00,30.29,M,10.00,M,CLR,M,M,M,M,M,M,M,M,M,M,M,M,M,M,41.00,KWYS 170455Z AUTO 00000KT 10SM CLR 05/02 A3029 RMK AO2,M
WYS,2023-09-17 05:40,37.40,35.60,93.14,0.00,0.00,0.00,30.29,M,10.00,M,CLR,M,M,M,M,M,M,M,M,M,M,M,M,M,M,37.40,KWYS 170540Z AUTO 00000KT 10SM CLR 03/02 A3029 RMK AO2,M
WYS,2023-09-17 06:40,35.60,33.80,93.08,0.00,0.00,0.00,30.29,M,10.00,M,CLR,M,M,M,M,M,M,M,M,M,M,M,M,M,M,35.60,KWYS 170640Z AUTO 00000KT 10SM CLR 02/01 A3029 RMK AO2,M
WYS,2023-09-17 07:40,32.00,32.00,100.00,0.00,0.00,0.00,30.29,M,10.00,M,CLR,M,M,M,M,M,M,M,M,M,M,M,M,M,M,32.00,KWYS 170740Z AUTO 00000KT 10SM CLR 00/00 A3029 RMK AO2,M
WYS,2023-09-17 08:40,30.20,32.00,M,0.00,0.00,0.00,30.29,M,10.00,M,CLR,M,M,M,M,M,M,M,M,M,M,M,M,M,M,M,KWYS 170840Z AUTO 00000KT 10SM CLR M01/M00 A3029 RMK AO2,M
WYS,2023-09-17 09:35,30.20,30.20,100.00,0.00,0.00,0.00,30.28,M,10.00,M,CLR,M,M,M,M,M,M,M,M,M,M,M,M,M,M,30.20,KWYS 170935Z AUTO 00000KT 10SM CLR M01/M01 A3028 RMK AO2,M
WYS,2023-09-17 10:40,28.40,28.40,100.00,0.00,0.00,0.00,30.28,M,10.00,M,CLR,M,M,M,M,M,M,M,M,M,M,M,M,M,M,28.40,KWYS 171040Z AUTO 00000KT 10SM CLR M02/M02 A3028 RMK AO2,M
WYS,2023-09-17 11:40,28.40,28.40,100.00,0.00,0.00,0.00,30.28,M,10.00,M,CLR,M,M,M,M,M,M,M,M,M,M,M,M,M,M,28.40,KWYS 171140Z AUTO 00000KT 10SM CLR M02/M02 A3028 RMK AO2,M
WYS,2023-09-17 12:40,28.40,28.40,100.00,0.00,0.00,0.00,30.28,M,10.00,M,CLR,M,M,M,M,M,M,M,M,M,M,M,M,M,M,28.40,KWYS 171240Z AUTO 00000KT 10SM CLR M02/M02 A3028 RMK AO2,M
WYS,2023-09-17 13:40,28.40,28.40,100.00,0.00,0.00,0.00,30.28,M,10.00,M,CLR,M,M,M,M,M,M,M,M,M,M,M,M,M,M,28.40,KWYS 171340Z AUTO 00000KT 10SM CLR M02/M02 A3028 RMK AO2,M
WYS,2023-09-17 14:40,37.40,35.60,93.14,0.00,0.00,0.00,30.29,M,10.00,M,CLR,M,M,M,M,M,M,M,M,M,M,M,M,M,M,37.40,KWYS 171440Z AUTO 00000KT 10SM CLR 03/02 A3029 RMK AO2,M
WYS,2023-09-17 15:40,44.60,35.60,70.48,0.00,0.00,0.00,30.29,M,10.00,M,CLR,M,M,M,M,M,M,M,M,M,M,M,M,M,M,44.60,KWYS 171540Z AUTO 00000KT 10SM CLR 07/02 A3029 RMK AO2,M
WYS,2023-09-17 16:40,51.80,35.60,53.81,0.00,0.00,0.00,30.28,M,10.00,M,CLR,M,M,M,M,M,M,M,M,M,M,M,M,M,M,51.80,KWYS 171640Z AUTO 00000KT 10SM CLR 11/02 A3028 RMK AO2,M
WYS,2023-09-17 17:40,60.80,37.40,41.71,0.00,0.00,0.00,30.26,M,10.00,M,CLR,M,M,M,M,M,M,M,M,M,M,M,M,M,M,60.80,KWYS 171740Z AUTO 00000KT 10SM CLR 16/03 A3026 RMK AO2,M
WYS,2023-09-17 18:40,68.00,33.80,28.11,210.00,13.00,0.00,30.24,M,10.00,M,CLR,M,M,M,M,M,M,M,M,M,M,M,M,M,M,68.00,KWYS 171840Z AUTO 21013KT 10SM CLR 20/01 A3024 RMK AO2,M
WYS,2023-09-17 19:40,69.80,30.20,22.86,230.00,7.00,0.00,30.22,M,10.00,16.00,CLR,M,M,M,M,M,M,M,M,M,M,M,M,M,M,69.80,KWYS 171940Z AUTO 23007G16KT 210V290 10SM CLR 21/M01 A3022 RMK AO2,M
WYS,2023-09-17 20:40,69.80,28.40,21.24,210.00,9.00,0.00,30.20,M,10.00,15.00,CLR,M,M,M,M,M,M,M,M,M,M,M,M,M,M,69.80,KWYS 172040Z AUTO 21009G15KT 10SM CLR 21/M02 A3020 RMK AO2,M
WYS,2023-09-17 21:40,71.60,28.40,19.98,260.00,8.00,0.00,30.18,M,10.00,19.00,SCT,M,M,M,11000.00,M,M,M,M,M,M,M,M,M,M,71.60,KWYS 172140Z AUTO 26008G19KT 10SM SCT110 22/M02 A3018 RMK AO2,M
WYS,2023-09-17 22:40,69.80,26.60,19.72,200.00,14.00,0.00,30.16,M,10.00,M,OVC,M,M,M,11000.00,M,M,M,M,M,M,M,M,M,M,69.80,KWYS 172240Z AUTO 20014KT 10SM OVC110 21/M03 A3016 RMK AO2,M
WYS,2023-09-17 23:40,71.60,24.80,17.22,210.00,16.00,0.00,30.15,M,10.00,21.00,FEW,M,M,M,10000.00,M,M,M,M,M,M,M,M,M,M,71.60,KWYS 172340Z AUTO 21016G21KT 10SM FEW100 22/M04 A3015 RMK AO2,M
WYS,2023-09-18 00:40,69.80,24.80,18.30,230.00,10.00,0.00,30.15,M,10.00,M,BKN,M,M,M,11000.00,M,M,M,M,M,M,M,M,M,M,69.80,KWYS 180040Z AUTO 23010KT 10SM BKN110 21/M04 A3015 RMK AO2,M
WYS,2023-09-18 01:40,60.80,30.20,31.28,200.00,6.00,0.00,30.15,M,10.00,M,CLR,M,M,M,M,M,M,M,M,M,M,M,M,M,M,60.80,KWYS 180140Z AUTO 20006KT 10SM CLR 16/M01 A3015 RMK AO2,M
WYS,2023-09-18 02:40,55.40,32.00,40.84,210.00,7.00,0.00,30.15,M,10.00,M,SCT,M,M,M,11000.00,M,M,M,M,M,M,M,M,M,M,55.40,KWYS 180240Z AUTO 21007KT 10SM SCT110 13/M00 A3015 RMK AO2,M
WYS,2023-09-18 03:40,53.60,32.00,43.61,0.00,0.00,0.00,30.15,M,10.00,M,OVC,M,M,M,11000.00,M,M,M,M,M,M,M,M,M,M,53.60,KWYS 180340Z AUTO 00000KT 10SM OVC110 12/M00 A3015 RMK AO2,M
WYS,2023-09-18 04:40,50.00,32.00,49.81,0.00,0.00,0.00,30.15,M,10.00,M,BKN,M,M,M,12000.00,M,M,M,M,M,M,M,M,M,M,50.00,KWYS 180440Z AUTO 00000KT 10SM BKN120 10/M00 A3015 RMK AO2,M
WYS,2023-09-18 05:40,46.40,32.00,57.00,0.00,0.00,0.00,30.14,M,10.00,M,SCT,M,M,M,11000.00,M,M,M,M,M,M,M,M,M,M,46.40,KWYS 180540Z AUTO 00000KT 10SM SCT110 08/M00 A3014 RMK AO2,M
WYS,2023-09-18 06:40,42.80,32.00,65.38,M,3.00,0.00,30.14,M,10.00,11.00,BKN,M,M,M,11000.00,M,M,M,M,M,M,M,M,M,M,41.03,KWYS 180640Z AUTO VRB03G11KT 10SM BKN110 06/00 A3014 RMK AO2,M
WYS,2023-09-18 07:40,39.20,33.80,80.79,0.00,0.00,0.00,30.15,M,10.00,M,BKN,M,M,M,11000.00,M,M,M,M,M,M,M,M,M,M,39.20,KWYS 180740Z AUTO 00000KT 10SM BKN110 04/01 A3015 RMK AO2,M
WYS,2023-09-18 08:40,37.40,33.80,86.69,0.00,0.00,0.00,30.14,M,10.00,M,CLR,M,M,M,M,M,M,M,M,M,M,M,M,M,M,37.40,KWYS 180840Z AUTO 00000KT 10SM CLR 03/01 A3014 RMK AO2,M
WYS,2023-09-18 09:40,35.60,33.80,93.08,0.00,0.00,0.00,30.14,M,10.00,M,OVC,M,M,M,11000.00,M,M,M,M,M,M,M,M,M,M,35.60,KWYS 180940Z AUTO 00000KT 10SM OVC110 02/01 A3014 RMK AO2,M
WYS,2023-09-18 10:40,32.00,32.00,100.00,0.00,0.00,0.00,30.14,M,10.00,M,FEW,M,M,M,11000.00,M,M,M,M,M,M,M,M,M,M,32.00,KWYS 181040Z AUTO 00000KT 10SM FEW110 00/00 A3014 RMK AO2,M
WYS,2023-09-18 11:40,30.20,30.20,100.00,0.00,0.00,0.00,30.15,M,10.00,M,FEW,M,M,M,10000.00,M,M,M,M,M,M,M,M,M,M,30.20,KWYS 181140Z AUTO 00000KT 10SM FEW100 M01/M01 A3015 RMK AO2,M
WYS,2023-09-18 12:40,30.20,30.20,100.00,0.00,0.00,0.00,30.15,M,10.00,M,FEW,M,M,M,10000.00,M,M,M,M,M,M,M,M,M,M,30.20,KWYS 181240Z AUTO 00000KT 10SM FEW100 M01/M01 A3015 RMK AO2,M
WYS,2023-09-18 13:40,28.40,28.40,100.00,0.00,0.00,0.00,30.16,M,10.00,M,CLR,M,M,M,M,M,M,M,M,M,M,M,M,M,M,28.40,KWYS 181340Z AUTO 00000KT 10SM CLR M02/M02 A3016 RMK AO2,M
WYS,2023-09-18 14:40,39.20,35.60,86.79,0.00,0.00,0.00,30.15,M,10.00,M,CLR,M,M,M,M,M,M,M,M,M,M,M,M,M,M,39.20,KWYS 181440Z AUTO 00000KT 10SM CLR 04/02 A3015 RMK AO2,M
WYS,2023-09-18 15:35,48.20,33.80,57.26,M,3.00,0.00,30.15,M,10.00,M,CLR,M,M,M,M,M,M,M,M,M,M,M,M,M,M,47.21,KWYS 181535Z AUTO VRB03KT 10SM CLR 09/01 A3015 RMK AO2,M
WYS,2023-09-18 16:40,55.40,35.60,47.16,0.00,0.00,0.00,30.14,M,10.00,M,FEW,M,M,M,8500.00,M,M,M,M,M,M,M,M,M,M,55.40,KWYS 181640Z AUTO 00000KT 10SM FEW085 13/02 A3014 RMK AO2,M
WYS,2023-09-18 17:40,64.40,35.60,34.22,M,4.00,0.00,30.12,M,10.00,M,CLR,M,M,M,M,M,M,M,M,M,M,M,M,M,M,64.40,KWYS 181740Z AUTO VRB04KT 10SM CLR 18/02 A3012 RMK AO2,M
WYS,2023-09-18 18:55,69.80,33.80,26.43,M,5.00,0.00,30.08,M,10.00,17.00,FEW,M,M,M,9000.00,M,M,M,M,M,M,M,M,M,M,69.80,KWYS 181855Z AUTO VRB05G17KT 10SM FEW090 21/01 A3008 RMK AO2,M
WYS,2023-09-18 19:40,69.80,33.80,26.43,230.00,10.00,0.00,30.06,M,10.00,20.00,SCT,BKN,M,M,8500.00,12000.00,M,M,M,M,M,M,M,M,M,69.80,KWYS 181940Z AUTO 23010G20KT 210V280 10SM SCT085 BKN120 21/01 A3006 RMK AO2,M
WYS,2023-09-18 20:40,50.00,44.60,81.61,20.00,5.00,0.00,30.12,M,2.50,21.00,SCT,SCT,BKN,M,3100.00,4100.00,4900.00,M,RA,M,M,M,M,M,M,50.00,KWYS 182040Z AUTO 02005G21KT 2 1/2SM RA SCT031 SCT041 BKN049 10/07 A3012 RMK AO2,M
WYS,2023-09-18 21:40,55.40,46.40,71.64,40.00,6.00,0.00,30.09,M,10.00,M,OVC,M,M,M,8500.00,M,M,M,M,M,M,M,M,M,M,55.40,KWYS 182140Z AUTO 04006KT 10SM OVC085 13/08 A3009 RMK AO2,M
WYS,2023-09-18 22:40,55.40,51.80,87.65,0.00,0.00,0.00,30.12,M,10.00,M,FEW,FEW,FEW,M,5000.00,5500.00,7000.00,M,M,M,M,M,M,M,M,55.40,KWYS 182240Z AUTO 00000KT 10SM FEW050 FEW055 FEW070 13/11 A3012 RMK AO2,M
WYS,2023-09-18 23:40,55.40,46.40,71.64,120.00,6.00,0.00,30.08,M,10.00,M,SCT,M,M,M,9500.00,M,M,M,M,M,M,M,M,M,M,55.40,KWYS 182340Z AUTO 12006KT 10SM SCT095 13/08 A3008 RMK AO2,M
WYS,2023-09-19 00:40,57.20,46.40,67.12,0.00,0.00,0.00,30.06,M,10.00,M,SCT,M,M,M,11000.00,M,M,M,M,M,M,M,M,M,M,57.20,KWYS 190040Z AUTO 00000KT 10SM SCT110 14/08 A3006 RMK AO2,M
WYS,2023-09-19 01:40,50.00,50.00,100.00,0.00,0.00,0.00,30.05,M,10.00,M,M,M,M,M,M,M,M,M,M,M,M,M,M,M,M,50.00,KWYS 190140Z AUTO 00000KT 10SM 10/10 A3005 RMK AO2,M
WYS,2023-09-19 02:55,46.40,46.40,100.00,0.00,0.00,0.00,30.07,M,10.00,M,CLR,M,M,M,M,M,M,M,M,M,M,M,M,M,M,46.40,KWYS 190255Z AUTO 00000KT 10SM CLR 08/08 A3007 RMK AO2,M
WYS,2023-09-19 03:40,42.80,42.80,100.00,0.00,0.00,0.00,30.07,M,10.00,M,FEW,M,M,M,11000.00,M,M,M,M,M,M,M,M,M,M,42.80,KWYS 190340Z AUTO 00000KT 10SM FEW110 06/06 A3007 RMK AO2,M
WYS,2023-09-19 04:40,41.00,41.00,100.00,0.00,0.00,0.00,30.07,M,10.00,M,BKN,M,M,M,11000.00,M,M,M,M,M,M,M,M,M,M,41.00,KWYS 190440Z AUTO 00000KT 10SM BKN110 05/05 A3007 RMK AO2,M
WYS,2023-09-19 05:40,39.20,39.20,100.00,0.00,0.00,0.00,30.07,M,10.00,M,CLR,M,M,M,M,M,M,M,M,M,M,M,M,M,M,39.20,KWYS 190540Z AUTO 00000KT 10SM CLR 04/04 A3007 RMK AO2,M
WYS,2023-09-19 06:40,37.40,37.40,100.00,0.00,0.00,0.00,30.07,M,10.00,M,SCT,M,M,M,12000.00,M,M,M,M,M,M,M,M,M,M,37.40,KWYS 190640Z AUTO 00000KT 10SM SCT120 03/03 A3007 RMK AO2,M
WYS,2023-09-19 07:40,35.60,35.60,100.00,0.00,0.00,0.00,30.07,M,10.00,M,CLR,M,M,M,M,M,M,M,M,M,M,M,M,M,M,35.60,KWYS 190740Z AUTO 00000KT 10SM CLR 02/02 A3007 RMK AO2,M
WYS,2023-09-19 08:40,33.80,33.80,100.00,0.00,0.00,0.00,30.08,M,10.00,M,CLR,M,M,M,M,M,M,M,M,M,M,M,M,M,M,33.80,KWYS 190840Z AUTO 00000KT 10SM CLR 01/01 A3008 RMK AO2,M
WYS,2023-09-19 09:40,33.80,33.80,100.00,0.00,0.00,0.00,30.07,M,10.00,M,CLR,M,M,M,M,M,M,M,M,M,M,M,M,M,M,33.80,KWYS 190940Z AUTO 00000KT 10SM CLR 01/01 A3007 RMK AO2,M
WYS,2023-09-19 10:40,32.00,32.00,100.00,0.00,0.00,0.00,30.07,M,10.00,M,CLR,M,M,M,M,M,M,M,M,M,M,M,M,M,M,32.00,KWYS 191040Z AUTO 00000KT 10SM CLR M00/M00 A3007 RMK AO2,M
WYS,2023-09-19 11:40,30.20,30.20,100.00,0.00,0.00,0.00,30.08,M,10.00,M,CLR,M,M,M,M,M,M,M,M,M,M,M,M,M,M,30.20,KWYS 191140Z AUTO 00000KT 10SM CLR M01/M01 A3008 RMK AO2,M
WYS,2023-09-19 12:40,30.20,30.20,100.00,0.00,0.00,0.00,30.08,M,10.00,M,CLR,M,M,M,M,M,M,M,M,M,M,M,M,M,M,30.20,KWYS 191240Z AUTO 00000KT 10SM CLR M01/M01 A3008 RMK AO2,M
WYS,2023-09-19 13:40,30.20,30.20,100.00,0.00,0.00,0.00,30.08,M,9.00,M,CLR,M,M,M,M,M,M,M,M,M,M,M,M,M,M,30.20,KWYS 191340Z AUTO 00000KT 9SM CLR M01/M01 A3008 RMK AO2,M
WYS,2023-09-19 14:40,33.80,33.80,100.00,0.00,0.00,0.00,30.08,M,0.25,M,OVC,M,M,M,200.00,M,M,M,FG,M,M,M,M,M,M,33.80,KWYS 191440Z AUTO 00000KT M1/4SM FG OVC002 01/01 A3008 RMK AO2,M
WYS,2023-09-19 15:40,41.00,41.00,100.00,0.00,0.00,0.00,30.09,M,10.00,M,CLR,M,M,M,M,M,M,M,M,M,M,M,M,M,M,41.00,KWYS 191540Z AUTO 00000KT 10SM CLR 05/05 A3009 RMK AO2,M
WYS,2023-09-19 16:40,51.80,44.60,76.34,0.00,0.00,0.00,30.08,M,10.00,M,CLR,M,M,M,M,M,M,M,M,M,M,M,M,M,M,51.80,KWYS 191640Z AUTO 00000KT 10SM CLR 11/07 A3008 RMK AO2,M
WYS,2023-09-19 17:40,60.80,39.20,44.76,200.00,12.00,0.00,30.06,M,10.00,18.00,M,M,M,M,M,M,M,M,M,M,M,M,M,M,M,60.80,KWYS 191740Z AUTO 20012G18KT 10SM 16/04 A3006 RMK AO2,M
WYS,2023-09-19 18:40,62.60,37.40,39.14,210.00,11.00,0.00,30.05,M,10.00,18.00,CLR,M,M,M,M,M,M,M,M,M,M,M,M,M,M,62.60,KWYS 191840Z AUTO 21011G18KT 180V240 10SM CLR 17/03 A3005 RMK AO2,M
WYS,2023-09-19 19:40,64.40,33.80,31.85,200.00,16.00,0.00,30.02,M,10.00,22.00,CLR,M,M,M,M,M,M,M,M,M,M,M,M,M,M,64.40,KWYS 191940Z AUTO 20016G22KT 10SM CLR 18/01 A3002 RMK AO2,M
WYS,2023-09-19 20:40,66.20,28.40,24.04,220.00,16.00,0.00,30.01,M,10.00,24.00,CLR,M,M,M,M,M,M,M,M,M,M,M,M,M,M,66.20,KWYS 192040Z AUTO 22016G24KT 10SM CLR 19/M02 A3001 RMK AO2,M
WYS,2023-09-19 21:55,66.20,23.00,19.22,220.00,17.00,0.00,29.99,M,10.00,24.00,CLR,M,M,M,M,M,M,M,M,M,M,M,M,M,M,66.20,KWYS 192155Z AUTO 22017G24KT 10SM CLR 19/M05 A2999 RMK AO2,M
WYS,2023-09-19 22:55,68.00,17.60,14.35,240.00,15.00,0.00,29.97,M,10.00,23.00,CLR,M,M,M,M,M,M,M,M,M,M,M,M,M,M,68.00,KWYS 192255Z AUTO 24015G23KT 10SM CLR 20/M08 A2997 RMK AO2,M
WYS,2023-09-19 23:55,64.40,35.60,34.22,220.00,16.00,0.00,29.97,M,10.00,25.00,FEW,M,M,M,10000.00,M,M,M,M,M,M,M,M,M,M,64.40,KWYS 192355Z AUTO 22016G25KT 10SM FEW100 18/02 A2997 RMK AO2,M
WYS,2023-09-20 00:55,55.40,39.20,54.34,230.00,5.00,0.00,29.98,M,10.00,M,FEW,SCT,BKN,M,4500.00,7500.00,10000.00,M,M,M,M,M,M,M,M,55.40,KWYS 200055Z AUTO 23005KT 10SM FEW045 SCT075 BKN100 13/04 A2998 RMK AO2,M
WYS,2023-09-20 01:55,53.60,41.00,62.23,190.00,6.00,0.00,29.97,M,10.00,M,CLR,M,M,M,M,M,M,M,M,M,M,M,M,M,M,53.60,KWYS 200155Z AUTO 19006KT 10SM CLR 12/05 A2997 RMK AO2,M
WYS,2023-09-20 02:55,55.40,37.40,50.64,210.00,12.00,0.00,29.96,M,10.00,M,FEW,M,M,M,10000.00,M,M,M,M,M,M,M,M,M,M,55.40,KWYS 200255Z AUTO 21012KT 10SM FEW100 13/03 A2996 RMK AO2,M
WYS,2023-09-20 03:55,55.40,35.60,47.16,260.00,5.00,0.00,29.98,M,10.00,M,BKN,BKN,M,M,10000.00,11000.00,M,M,M,M,M,M,M,M,M,55.40,KWYS 200355Z AUTO 26005KT 10SM BKN100 BKN110 13/02 A2998 RMK AO2,M
WYS,2023-09-20 04:55,53.60,35.60,50.36,0.00,0.00,0.00,29.98,M,10.00,M,OVC,M,M,M,10000.00,M,M,M,M,M,M,M,M,M,M,53.60,KWYS 200455Z AUTO 00000KT 10SM OVC100 12/02 A2998 RMK AO2,M
WYS,2023-09-20 05:55,51.80,33.80,50.08,210.00,11.00,0.00,29.97,M,10.00,M,BKN,M,M,M,10000.00,M,M,M,M,M,M,M,M,M,M,51.80,KWYS 200555Z AUTO 21011KT 10SM BKN100 11/01 A2997 RMK AO2,M
WYS,2023-09-20 06:55,50.00,33.80,53.54,210.00,11.00,0.00,29.97,M,10.00,17.00,BKN,M,M,M,11000.00,M,M,M,M,M,M,M,M,M,M,50.00,KWYS 200655Z AUTO 21011G17KT 10SM BKN110 10/01 A2997 RMK AO2,M
WYS,2023-09-20 07:55,48.20,30.20,49.53,240.00,7.00,0.00,29.98,M,10.00,12.00,CLR,M,M,M,M,M,M,M,M,M,M,M,M,M,M,44.53,KWYS 200755Z AUTO 24007G12KT 210V280 10SM CLR 09/M01 A2998 RMK AO2,M
WYS,2023-09-20 08:55,48.20,26.60,42.73,M,6.00,0.00,29.99,M,10.00,12.00,CLR,M,M,M,M,M,M,M,M,M,M,M,M,M,M,45.04,KWYS 200855Z AUTO VRB06G12KT 10SM CLR 09/M03 A2999 RMK AO2,M
WYS,2023-09-20 09:55,48.20,26.60,42.73,230.00,5.00,0.00,30.00,M,10.00,11.00,CLR,M,M,M,M,M,M,M,M,M,M,M,M,M,M,45.63,KWYS 200955Z AUTO 23005G11KT 10SM CLR 09/M03 A3000 RMK AO2,M
WYS,2023-09-20 10:55,42.80,24.80,48.67,0.00,0.00,0.00,30.00,M,10.00,M,CLR,M,M,M,M,M,M,M,M,M,M,M,M,M,M,42.80,KWYS 201055Z AUTO 00000KT 10SM CLR 06/M04 A3000 RMK AO2,M
WYS,2023-09-20 11:55,39.20,26.60,60.29,0.00,0.00,0.00,30.01,M,10.00,M,CLR,M,M,M,M,M,M,M,M,M,M,M,M,M,M,39.20,KWYS 201155Z AUTO 00000KT 10SM CLR 04/M03 A3001 RMK AO2,M
WYS,2023-09-20 12:55,33.80,28.40,80.36,0.00,0.00,0.00,30.00,M,10.00,M,CLR,M,M,M,M,M,M,M,M,M,M,M,M,M,M,33.80,KWYS 201255Z AUTO 00000KT 10SM CLR 01/M02 A3000 RMK AO2,M
WYS,2023-09-20 13:55,32.00,30.20,92.97,0.00,0.00,0.00,30.00,M,10.00,M,CLR,M,M,M,M,M,M,M,M,M,M,M,M,M,M,32.00,KWYS 201355Z AUTO 00000KT 10SM CLR 00/M01 A3000 RMK AO2,M
WYS,2023-09-20 14:55,41.00,30.20,65.16,0.00,0.00,0.00,30.01,M,10.00,M,CLR,M,M,M,M,M,M,M,M,M,M,M,M,M,M,41.00,KWYS 201455Z AUTO 00000KT 10SM CLR 05/M01 A3001 RMK AO2,M
WYS,2023-09-20 15:55,50.00,28.40,43.03,0.00,0.00,0.00,30.00,M,10.00,M,M,M,M,M,M,M,M,M,M,M,M,M,M,M,M,50.00,KWYS 201555Z AUTO 00000KT 10SM 10/M02 A3000 RMK AO2,M
WYS,2023-09-20 16:55,55.40,26.60,32.76,210.00,11.00,0.00,29.99,M,10.00,17.00,M,M,M,M,M,M,M,M,M,M,M,M,M,M,M,55.40,KWYS 201655Z AUTO 21011G17KT 10SM 13/M03 A2999 RMK AO2,M
WYS,2023-09-20 17:55,55.40,26.60,32.76,220.00,10.00,0.00,29.98,M,10.00,M,CLR,M,M,M,M,M,M,M,M,M,M,M,M,M,M,55.40,KWYS 201755Z AUTO 22010KT 10SM CLR 13/M03 A2998 RMK AO2,M
WYS,2023-09-20 18:55,60.80,26.60,26.98,210.00,17.00,0.00,29.96,M,10.00,M,CLR,M,M,M,M,M,M,M,M,M,M,M,M,M,M,60.80,KWYS 201855Z AUTO 21017KT 10SM CLR 16/M03 A2996 RMK AO2,M
WYS,2023-09-20 19:55,60.80,28.40,29.06,220.00,15.00,0.00,29.95,M,10.00,21.00,FEW,M,M,M,7000.00,M,M,M,M,M,M,M,M,M,M,60.80,KWYS 201955Z AUTO 22015G21KT 10SM FEW070 16/M02 A2995 RMK AO2,M
WYS,2023-09-20 20:55,62.60,26.60,25.32,230.00,11.00,0.00,29.93,M,10.00,19.00,CLR,M,M,M,M,M,M,M,M,M,M,M,M,M,M,62.60,KWYS 202055Z AUTO 23011G19KT 200V260 10SM CLR 17/M03 A2993 RMK AO2,M
WYS,2023-09-20 21:55,62.60,24.80,23.50,230.00,9.00,0.00,29.91,M,10.00,15.00,CLR,M,M,M,M,M,M,M,M,M,M,M,M,M,M,62.60,KWYS 202155Z AUTO 23009G15KT 10SM CLR 17/M04 A2991 RMK AO2,M
WYS,2023-09-20 22:55,62.60,23.00,21.79,220.00,8.00,0.00,29.88,M,10.00,16.00,BKN,M,M,M,10000.00,M,M,M,M,M,M,M,M,M,M,62.60,KWYS 202255Z AUTO 22008G16KT 10SM BKN100 17/M05 A2988 RMK AO2,M
WYS,2023-09-20 23:55,60.80,26.60,26.98,200.00,8.00,0.00,29.89,M,10.00,M,SCT,M,M,M,11000.00,M,M,M,M,M,M,M,M,M,M,60.80,KWYS 202355Z AUTO 20008KT 10SM SCT110 16/M03 A2989 RMK AO2,M
WYS,2023-09-21 00:55,59.00,32.00,35.87,170.00,4.00,0.00,29.89,M,10.00,M,FEW,SCT,BKN,M,6000.00,7500.00,9000.00,M,M,M,M,M,M,M,M,59.00,KWYS 210055Z AUTO 17004KT 10SM FEW060 SCT075 BKN090 15/00 A2989 RMK AO2,M
WYS,2023-09-21 01:55,48.20,46.40,93.45,200.00,10.00,0.01,29.96,M,10.00,M,OVC,M,M,M,4600.00,M,M,M,M,M,M,M,M,M,M,43.28,KWYS 210155Z AUTO 20010KT 10SM OVC046 09/08 A2996 RMK AO2 P0001,M
WYS,2023-09-21 02:55,48.20,44.60,87.28,120.00,4.00,0.00,29.99,M,8.00,M,OVC,M,M,M,3800.00,M,M,M,M,M,M,M,M,M,M,46.34,KWYS 210255Z AUTO 12004KT 8SM OVC038 09/07 A2999 RMK AO2,M
WYS,2023-09-21 03:55,44.60,46.40,M,M,5.00,0.00,29.99,M,10.00,M,SCT,BKN,OVC,M,4400.00,5500.00,10000.00,M,M,M,M,M,M,M,M,M,KWYS 210355Z AUTO VRB05KT 10SM SCT044 BKN055 OVC100 07/08 A2999 RMK AO2,M
WYS,2023-09-21 04:55,44.60,44.60,100.00,60.00,7.00,0.00,29.97,M,6.00,M,BKN,OVC,M,M,3900.00,4600.00,M,M,-RA,M,M,M,M,M,M,40.14,KWYS 210455Z AUTO 06007KT 6SM -RA BKN039 OVC046 07/07 A2997 RMK AO2,M
WYS,2023-09-21 05:55,44.60,44.60,100.00,340.00,5.00,0.00,29.97,M,10.00,M,SCT,BKN,OVC,M,2000.00,6500.00,10000.00,M,M,M,M,M,M,M,M,41.36,KWYS 210555Z AUTO 34005KT 10SM SCT020 BKN065 OVC100 07/07 A2997 RMK AO2,M
WYS,2023-09-21 06:55,44.60,44.60,100.00,60.00,5.00,0.00,29.99,M,10.00,11.00,FEW,SCT,BKN,M,2100.00,6000.00,7000.00,M,M,M,M,M,M,M,M,41.36,KWYS 210655Z AUTO 06005G11KT 10SM FEW021 SCT060 BKN070 07/07 A2999 RMK AO2,M
WYS,2023-09-21 07:55,44.60,44.60,100.00,90.00,6.00,0.00,29.98,M,10.00,M,SCT,OVC,M,M,3700.00,4500.00,M,M,M,M,M,M,M,M,M,40.71,KWYS 210755Z AUTO 09006KT 10SM SCT037 OVC045 07/07 A2998 RMK AO2,M
WYS,2023-09-21 08:55,44.60,44.60,100.00,80.00,4.00,0.00,30.00,M,8.00,M,BKN,BKN,OVC,M,3500.00,4600.00,5500.00,M,-RA,M,M,M,M,M,M,42.13,KWYS 210855Z AUTO 08004KT 8SM -RA BKN035 BKN046 OVC055 07/07 A3000 RMK AO2,M
WYS,2023-09-21 09:55,42.80,42.80,100.00,110.00,5.00,0.00,29.99,M,5.00,M,OVC,M,M,M,3600.00,M,M,M,-RA,M,M,M,M,M,M,39.22,KWYS 210955Z AUTO 11005KT 5SM -RA OVC036 06/06 A2999 RMK AO2,M
WYS,2023-09-21 10:55,42.80,42.80,100.00,100.00,6.00,0.00,29.97,M,10.00,M,FEW,SCT,BKN,M,3700.00,4500.00,5500.00,M,M,M,M,M,M,M,M,38.54,KWYS 211055Z AUTO 10006KT 10SM FEW037 SCT045 BKN055 06/06 A2997 RMK AO2,M
WYS,2023-09-21 11:55,41.00,41.00,100.00,320.00,3.00,0.00,29.98,M,10.00,M,FEW,OVC,M,M,5000.00,6500.00,M,M,M,M,M,M,M,M,M,38.98,KWYS 211155Z AUTO 32003KT 10SM FEW050 OVC065 05/05 A2998 RMK AO2,M
WYS,2023-09-21 12:55,42.80,42.80,100.00,50.00,7.00,0.00,29.96,M,10.00,M,OVC,M,M,M,3400.00,M,M,M,M,M,M,M,M,M,M,37.94,KWYS 211255Z AUTO 05007KT 10SM OVC034 06/06 A2996 RMK AO2,M
WYS,2023-09-21 13:55,42.80,42.80,100.00,50.00,4.00,0.00,29.98,M,8.00,M,BKN,BKN,BKN,M,2400.00,4300.00,4900.00,M,-UP,M,M,M,M,M,M,40.03,KWYS 211355Z AUTO 05004KT 8SM -UP BKN024 BKN043 BKN049 06/06 A2998 RMK AO2,M
WYS,2023-09-21 14:55,44.60,44.60,100.00,50.00,5.00,0.00,29.97,M,10.00,M,BKN,OVC,M,M,3800.00,5000.00,M,M,M,M,M,M,M,M,M,41.36,KWYS 211455Z AUTO 05005KT 10SM BKN038 OVC050 07/07 A2997 RMK AO2,M
WYS,2023-09-21 15:55,44.60,44.60,100.00,0.00,0.00,0.00,29.99,M,10.00,M,OVC,M,M,M,3600.00,M,M,M,M,M,M,M,M,M,M,44.60,KWYS 211555Z AUTO 00000KT 10SM OVC036 07/07 A2999 RMK AO2,M
WYS,2023-09-21 16:35,44.60,44.60,100.00,220.00,7.00,0.00,30.01,M,10.00,M,FEW,SCT,BKN,M,900.00,1900.00,3000.00,M,M,M,M,M,M,M,M,40.14,KWYS 211635Z AUTO 22007KT 10SM FEW009 SCT019 BKN030 07/07 A3001 RMK AO2,M
WYS,2023-09-21 17:55,44.60,44.60,100.00,240.00,9.00,0.00,30.02,M,9.00,M,OVC,M,M,M,1900.00,M,M,M,M,M,M,M,M,M,M,39.18,KWYS 211755Z AUTO 24009KT 9SM OVC019 07/07 A3002 RMK AO2,M
WYS,2023-09-21 18:55,44.60,44.60,100.00,220.00,11.00,0.00,30.03,M,10.00,M,SCT,BKN,OVC,M,1300.00,2900.00,3500.00,M,M,M,M,M,M,M,M,38.39,KWYS 211855Z AUTO 22011KT 10SM SCT013 BKN029 OVC035 07/07 A3003 RMK AO2,M
WYS,2023-09-21 19:55,41.00,41.00,100.00,190.00,5.00,0.00,30.05,M,4.00,M,FEW,BKN,M,M,2800.00,3900.00,M,M,-RA,M,M,M,M,M,M,37.08,KWYS 211955Z AUTO 19005KT 4SM -RA FEW028 BKN039 05/05 A3005 RMK AO2,M
WYS,2023-09-21 20:55,41.00,41.00,100.00,210.00,6.00,0.00,30.07,M,4.00,M,FEW,BKN,SCT,M,2500.00,3400.00,4100.00,M,-RA,M,M,M,M,M,M,36.37,KWYS 212055Z AUTO 21006KT 4SM -RA FEW025 BKN034 SCT041 05/05 A3007 RMK AO2,M
WYS,2023-09-21 21:55,44.60,46.40,M,M,5.00,0.00,30.07,M,10.00,M,BKN,OVC,M,M,1100.00,1800.00,M,M,M,M,M,M,M,M,M,M,KWYS 212155Z AUTO VRB05KT 10SM BKN011 OVC018 07/08 A3007 RMK AO2,M
WYS,2023-09-21 22:55,46.40,44.60,93.40,90.00,4.00,0.00,30.07,M,10.00,M,FEW,SCT,BKN,M,1300.00,3100.00,5500.00,M,M,M,M,M,M,M,M,44.24,KWYS 212255Z AUTO 09004KT 10SM FEW013 SCT031 BKN055 08/07 A3007 RMK AO2,M
WYS,2023-09-21 23:55,46.40,42.80,87.19,0.00,0.00,0.00,30.07,M,10.00,M,OVC,M,M,M,3400.00,M,M,M,M,M,M,M,M,M,M,46.40,KWYS 212355Z AUTO 00000KT 10SM OVC034 08/06 A3007 RMK AO2,M
WYS,2023-09-22 00:55,46.40,46.40,100.00,0.00,0.00,0.00,30.07,M,10.00,M,FEW,BKN,BKN,M,3200.00,6000.00,10000.00,M,M,M,M,M,M,M,M,46.40,KWYS 220055Z AUTO 00000KT 10SM FEW032 BKN060 BKN100 08/08 A3007 RMK AO2,M
WYS,2023-09-22 01:55,44.60,44.60,100.00,0.00,0.00,0.00,30.07,M,10.00,M,FEW,OVC,M,M,2100.00,6000.00,M,M,M,M,M,M,M,M,M,44.60,KWYS 220155Z AUTO 00000KT 10SM FEW021 OVC060 07/07 A3007 RMK AO2,M
WYS,2023-09-22 02:55,44.60,44.60,100.00,0.00,0.00,0.00,30.10,M,4.00,M,OVC,M,M,M,3300.00,M,M,M,RA,M,M,M,M,M,M,44.60,KWYS 220255Z AUTO 00000KT 4SM RA OVC033 07/07 A3010 RMK AO2,M
WYS,2023-09-22 03:55,42.80,42.80,100.00,0.00,0.00,0.01,30.08,M,10.00,M,SCT,BKN,OVC,M,800.00,1500.00,9000.00,M,M,M,M,M,M,M,M,42.80,KWYS 220355Z AUTO 00000KT 10SM SCT008 BKN015 OVC090 06/06 A3008 RMK AO2 P0001,M
WYS,2023-09-22 04:55,39.20,39.20,100.00,30.00,3.00,0.00,30.07,M,10.00,M,FEW,M,M,M,1300.00,M,M,M,M,M,M,M,M,M,M,36.92,KWYS 220455Z AUTO 03003KT 10SM FEW013 04/04 A3007 RMK AO2,M
WYS,2023-09-22 05:55,39.20,39.20,100.00,0.00,0.00,0.00,30.07,M,10.00,M,CLR,M,M,M,M,M,M,M,M,M,M,M,M,M,M,39.20,KWYS 220555Z AUTO 00000KT 10SM CLR 04/04 A3007 RMK AO2,M
WYS,2023-09-22 06:55,37.40,37.40,100.00,0.00,0.00,0.00,30.07,M,10.00,M,BKN,M,M,M,2500.00,M,M,M,M,M,M,M,M,M,M,37.40,KWYS 220655Z AUTO 00000KT 10SM BKN025 03/03 A3007 RMK AO2,M
WYS,2023-09-22 07:55,35.60,35.60,100.00,0.00,0.00,0.00,30.05,M,10.00,M,SCT,SCT,SCT,M,1600.00,4700.00,12000.00,M,M,M,M,M,M,M,M,35.60,KWYS 220755Z AUTO 00000KT 10SM SCT016 SCT047 SCT120 02/02 A3005 RMK AO2,M
WYS,2023-09-22 08:55,33.80,33.80,100.00,0.00,0.00,0.00,30.04,M,10.00,M,FEW,OVC,M,M,2000.00,2600.00,M,M,M,M,M,M,M,M,M,33.80,KWYS 220855Z AUTO 00000KT 10SM FEW020 OVC026 01/01 A3004 RMK AO2,M
WYS,2023-09-22 09:55,35.60,35.60,100.00,0.00,0.00,0.00,30.03,M,10.00,M,FEW,FEW,OVC,M,2100.00,2700.00,5500.00,M,M,M,M,M,M,M,M,35.60,KWYS 220955Z AUTO 00000KT 10SM FEW021 FEW027 OVC055 02/02 A3003 RMK AO2,M
WYS,2023-09-22 10:55,35.60,35.60,100.00,0.00,0.00,0.00,30.03,M,10.00,M,SCT,OVC,M,M,1900.00,4800.00,M,M,M,M,M,M,M,M,M,35.60,KWYS 221055Z AUTO 00000KT 10SM SCT019 OVC048 02/02 A3003 RMK AO2,M
WYS,2023-09-22 11:55,37.40,37.40,100.00,0.00,0.00,0.00,30.03,M,10.00,M,OVC,M,M,M,2900.00,M,M,M,M,M,M,M,M,M,M,37.40,KWYS 221155Z AUTO 00000KT 10SM OVC029 03/03 A3003 RMK AO2,M
WYS,2023-09-22 12:55,37.40,37.40,100.00,170.00,4.00,0.00,30.03,M,10.00,M,OVC,M,M,M,2600.00,M,M,M,M,M,M,M,M,M,M,33.73,KWYS 221255Z AUTO 17004KT 10SM OVC026 03/03 A3003 RMK AO2,M
WYS,2023-09-22 13:55,37.40,37.40,100.00,0.00,0.00,0.00,30.02,M,10.00,M,OVC,M,M,M,6000.00,M,M,M,M,M,M,M,M,M,M,37.40,KWYS 221355Z AUTO 00000KT 10SM OVC060 03/03 A3002 RMK AO2,M
WYS,2023-09-22 14:55,39.20,39.20,100.00,0.00,0.00,0.00,30.01,M,10.00,M,BKN,BKN,OVC,M,2200.00,6000.00,8000.00,M,M,M,M,M,M,M,M,39.20,KWYS 221455Z AUTO 00000KT 10SM BKN022 BKN060 OVC080 04/04 A3001 RMK AO2,M
WYS,2023-09-22 15:55,41.00,41.00,100.00,0.00,0.00,0.00,30.01,M,10.00,M,BKN,BKN,M,M,500.00,6000.00,M,M,M,M,M,M,M,M,M,41.00,KWYS 221555Z AUTO 00000KT 10SM BKN005 BKN060 05/05 A3001 RMK AO2,M
WYS,2023-09-22 16:55,42.80,42.80,100.00,0.00,0.00,0.00,30.00,M,10.00,M,M,M,M,M,M,M,M,M,M,M,M,M,M,M,M,42.80,KWYS 221655Z AUTO 00000KT 10SM 06/06 A3000 RMK AO2,M
WYS,2023-09-22 17:55,44.60,44.60,100.00,240.00,4.00,0.00,30.00,M,10.00,M,SCT,BKN,OVC,M,1300.00,4200.00,5000.00,M,M,M,M,M,M,M,M,42.13,KWYS 221755Z AUTO 24004KT 10SM SCT013 BKN042 OVC050 07/07 A3000 RMK AO2,M
WYS,2023-09-22 18:55,39.20,39.20,100.00,230.00,11.00,0.02,30.02,M,9.00,M,SCT,SCT,BKN,M,1000.00,1300.00,4000.00,M,M,M,M,M,M,M,M,31.57,KWYS 221855Z AUTO 23011KT 9SM SCT010 SCT013 BKN040 04/04 A3002 RMK AO2 P0002,M
WYS,2023-09-22 19:55,39.20,39.20,100.00,230.00,11.00,0.00,30.03,M,10.00,17.00,SCT,SCT,BKN,M,1200.00,3300.00,4300.00,M,M,M,M,M,M,M,M,31.57,KWYS 221955Z AUTO 23011G17KT 200V280 10SM SCT012 SCT033 BKN043 04/04 A3003 RMK AO2,M
WYS,2023-09-22 20:55,37.40,37.40,100.00,220.00,9.00,0.00,30.06,M,10.00,M,BKN,OVC,M,M,1200.00,1700.00,M,M,M,M,M,M,M,M,M,30.23,KWYS 222055Z AUTO 22009KT 10SM BKN012 OVC017 03/03 A3006 RMK AO2,M
WYS,2023-09-22 21:55,37.40,37.40,100.00,210.00,12.00,0.00,30.07,M,9.00,M,OVC,M,M,M,700.00,M,M,M,M,M,M,M,M,M,M,28.87,KWYS 222155Z AUTO 21012KT 9SM OVC007 03/03 A3007 RMK AO2,M
WYS,2023-09-22 22:55,37.40,39.20,M,220.00,8.00,0.00,30.08,M,2.50,M,SCT,OVC,M,M,1000.00,1400.00,M,M,BR,M,M,M,M,M,M,M,KWYS 222255Z AUTO 22008KT 2 1/2SM BR SCT010 OVC014 03/04 A3008 RMK AO2,M
WYS,2023-09-22 23:40,37.40,37.40,100.00,210.00,12.00,0.00,30.08,M,6.00,M,FEW,SCT,BKN,M,1600.00,2000.00,2500.00,M,BR,M,M,M,M,M,M,28.87,KWYS 222340Z AUTO 21012KT 6SM BR FEW016 SCT020 BKN025 03/03 A3008 RMK AO2,M
WYS,2023-09-23 00:40,37.40,39.20,M,210.00,9.00,0.00,30.08,M,10.00,15.00,FEW,SCT,OVC,M,1200.00,2600.00,3200.00,M,M,M,M,M,M,M,M,M,KWYS 230040Z AUTO 21009G15KT 10SM FEW012 SCT026 OVC032 03/04 A3008 RMK AO2,M
WYS,2023-09-23 01:40,37.40,37.40,100.00,210.00,9.00,0.00,30.09,M,10.00,M,FEW,SCT,BKN,M,1300.00,3600.00,6000.00,M,M,M,M,M,M,M,M,30.23,KWYS 230140Z AUTO 21009KT 10SM FEW013 SCT036 BKN060 03/03 A3009 RMK AO2,M
WYS,2023-09-23 02:40,37.40,37.40,100.00,230.00,5.00,0.00,30.10,M,10.00,M,OVC,M,M,M,3400.00,M,M,M,M,M,M,M,M,M,M,32.81,KWYS 230240Z AUTO 23005KT 10SM OVC034 03/03 A3010 RMK AO2,M
WYS,2023-09-23 03:40,37.40,37.40,100.00,240.00,7.00,0.00,30.11,M,10.00,12.00,SCT,SCT,BKN,M,2600.00,5500.00,9500.00,M,M,M,M,M,M,M,M,31.36,KWYS 230340Z AUTO 24007G12KT 10SM SCT026 SCT055 BKN095 03/03 A3011 RMK AO2,M
WYS,2023-09-23 04:40,39.20,39.20,100.00,220.00,7.00,0.00,30.11,M,10.00,M,BKN,BKN,OVC,M,1500.00,2400.00,7500.00,M,M,M,M,M,M,M,M,33.56,KWYS 230440Z AUTO 22007KT 10SM BKN015 BKN024 OVC075 04/04 A3011 RMK AO2,M
WYS,2023-09-23 05:40,37.40,39.20,M,230.00,7.00,0.00,30.12,M,10.00,M,SCT,OVC,M,M,1400.00,3200.00,M,M,M,M,M,M,M,M,M,M,KWYS 230540Z AUTO 23007KT 10SM SCT014 OVC032 03/04 A3012 RMK AO2,M
WYS,2023-09-23 06:40,37.40,37.40,100.00,220.00,8.00,0.00,30.13,M,10.00,M,OVC,M,M,M,3000.00,M,M,M,M,M,M,M,M,M,M,30.76,KWYS 230640Z AUTO 22008KT 10SM OVC030 03/03 A3013 RMK AO2,M
WYS,2023-09-23 07:40,37.40,37.40,100.00,230.00,11.00,0.00,30.13,M,10.00,M,OVC,M,M,M,2400.00,M,M,M,M,M,M,M,M,M,M,29.29,KWYS 230740Z AUTO 23011KT 10SM OVC024 03/03 A3013 RMK AO2,M
WYS,2023-09-23 08:40,37.40,37.40,100.00,220.00,12.00,0.00,30.13,M,10.00,17.00,SCT,SCT,OVC,M,900.00,1400.00,2300.00,M,M,M,M,M,M,M,M,28.87,KWYS 230840Z AUTO 22012G17KT 10SM SCT009 SCT014 OVC023 03/03 A3013 RMK AO2,M
WYS,2023-09-23 09:40,37.40,37.40,100.00,220.00,9.00,0.00,30.13,M,10.00,15.00,OVC,M,M,M,500.00,M,M,M,M,M,M,M,M,M,M,30.23,KWYS 230940Z AUTO 22009G15KT 10SM OVC005 03/03 A3013 RMK AO2,M
WYS,2023-09-23 10:40,37.40,37.40,100.00,220.00,15.00,0.00,30.13,M,7.00,M,OVC,M,M,M,500.00,M,M,M,M,M,M,M,M,M,M,27.78,KWYS 231040Z AUTO 22015KT 7SM OVC005 03/03 A3013 RMK AO2,M
WYS,2023-09-23 11:40,37.40,37.40,100.00,210.00,11.00,0.00,30.14,M,8.00,M,OVC,M,M,M,500.00,M,M,M,M,M,M,M,M,M,M,29.29,KWYS 231140Z AUTO 21011KT 8SM OVC005 03/03 A3014 RMK AO2,M
WYS,2023-09-23 12:40,37.40,37.40,100.00,210.00,12.00,0.00,30.15,M,10.00,19.00,SCT,SCT,OVC,M,700.00,1000.00,3400.00,M,M,M,M,M,M,M,M,28.87,KWYS 231240Z AUTO 21012G19KT 10SM SCT007 SCT010 OVC034 03/03 A3015 RMK AO2,M
WYS,2023-09-23 13:40,37.40,37.40,100.00,210.00,13.00,0.00,30.16,M,10.00,M,OVC,M,M,M,3100.00,M,M,M,M,M,M,M,M,M,M,28.49,KWYS 231340Z AUTO 21013KT 10SM OVC031 03/03 A3016 RMK AO2,M
WYS,2023-09-23 14:40,39.20,39.20,100.00,220.00,9.00,0.00,30.18,M,10.00,M,BKN,BKN,OVC,M,700.00,1100.00,3900.00,M,M,M,M,M,M,M,M,32.47,KWYS 231440Z AUTO 22009KT 10SM BKN007 BKN011 OVC039 04/04 A3018 RMK AO2,M
WYS,2023-09-23 15:40,39.20,39.20,100.00,220.00,11.00,0.00,30.19,M,10.00,17.00,FEW,OVC,M,M,800.00,3800.00,M,M,M,M,M,M,M,M,M,31.57,KWYS 231540Z AUTO 22011G17KT 10SM FEW008 OVC038 04/04 A3019 RMK AO2,M
WYS,2023-09-23 16:40,42.80,41.00,93.30,210.00,15.00,0.00,30.20,M,10.00,M,FEW,BKN,OVC,M,1300.00,4300.00,4800.00,M,M,M,M,M,M,M,M,34.78,KWYS 231640Z AUTO 21015KT 10SM FEW013 BKN043 OVC048 06/05 A3020 RMK AO2,M
WYS,2023-09-23 17:40,44.60,39.20,81.20,230.00,13.00,0.00,30.20,M,10.00,21.00,BKN,M,M,M,1300.00,M,M,M,M,M,M,M,M,M,M,37.71,KWYS 231740Z AUTO 23013G21KT 10SM BKN013 07/04 A3020 RMK AO2,M
WYS,2023-09-23 18:40,46.40,39.20,75.84,210.00,14.00,0.00,30.20,M,10.00,M,BKN,M,M,M,1800.00,M,M,M,M,M,M,M,M,M,M,39.72,KWYS 231840Z AUTO 21014KT 10SM BKN018 08/04 A3020 RMK AO2,M
WYS,2023-09-23 19:40,48.20,37.40,66.05,200.00,15.00,0.00,30.20,M,10.00,22.00,FEW,BKN,M,M,2100.00,4100.00,M,M,M,M,M,M,M,M,M,41.78,KWYS 231940Z AUTO 20015G22KT 10SM FEW021 BKN041 09/03 A3020 RMK AO2,M
WYS,2023-09-23 20:40,50.00,37.40,61.76,200.00,18.00,0.00,30.19,M,10.00,M,BKN,M,M,M,4100.00,M,M,M,M,M,M,M,M,M,M,50.00,KWYS 232040Z AUTO 20018KT 10SM BKN041 10/03 A3019 RMK AO2,M
WYS,2023-09-23 21:40,50.00,37.40,61.76,200.00,15.00,0.00,30.19,M,10.00,M,FEW,FEW,M,M,2600.00,3100.00,M,M,M,M,M,M,M,M,M,50.00,KWYS 232140Z AUTO 20015KT 10SM FEW026 FEW031 10/03 A3019 RMK AO2,M
WYS,2023-09-23 22:40,51.80,37.40,57.77,220.00,14.00,0.00,30.19,M,10.00,M,CLR,M,M,M,M,M,M,M,M,M,M,M,M,M,M,51.80,KWYS 232240Z AUTO 22014KT 10SM CLR 11/03 A3019 RMK AO2,M
WYS,2023-09-23 23:40,51.80,37.40,57.77,210.00,12.00,0.00,30.18,M,10.00,M,CLR,M,M,M,M,M,M,M,M,M,M,M,M,M,M,51.80,KWYS 232340Z AUTO 21012KT 10SM CLR 11/03 A3018 RMK AO2,M
WYS,2023-09-24 00:35,50.00,39.20,66.27,210.00,8.00,0.00,30.19,M,10.00,M,CLR,M,M,M,M,M,M,M,M,M,M,M,M,M,M,50.00,KWYS 240035Z AUTO 21008KT 10SM CLR 10/04 A3019 RMK AO2,M
WYS,2023-09-24 01:40,42.80,41.00,93.30,200.00,4.00,0.00,30.18,M,10.00,M,CLR,M,M,M,M,M,M,M,M,M,M,M,M,M,M,40.03,KWYS 240140Z AUTO 20004KT 10SM CLR 06/05 A3018 RMK AO2,M
WYS,2023-09-24 02:40,39.20,39.20,100.00,170.00,4.00,0.00,30.19,M,10.00,M,CLR,M,M,M,M,M,M,M,M,M,M,M,M,M,M,35.83,KWYS 240240Z AUTO 17004KT 10SM CLR 04/04 A3019 RMK AO2,M
WYS,2023-09-24 03:40,37.40,37.40,100.00,0.00,0.00,0.00,30.20,M,10.00,M,CLR,M,M,M,M,M,M,M,M,M,M,M,M,M,M,37.40,KWYS 240340Z AUTO 00000KT 10SM CLR 03/03 A3020 RMK AO2,M
WYS,2023-09-24 04:40,33.80,33.80,100.00,0.00,0.00,0.00,30.20,M,10.00,M,CLR,M,M,M,M,M,M,M,M,M,M,M,M,M,M,33.80,KWYS 240440Z AUTO 00000KT 10SM CLR 01/01 A3020 RMK AO2,M
WYS,2023-09-24 05:40,30.20,32.00,M,0.00,0.00,0.00,30.21,M,10.00,M,CLR,M,M,M,M,M,M,M,M,M,M,M,M,M,M,M,KWYS 240540Z AUTO 00000KT 10SM CLR M01/M00 A3021 RMK AO2,M
WYS,2023-09-24 06:40,28.40,28.40,100.00,0.00,0.00,0.00,30.20,M,10.00,M,CLR,M,M,M,M,M,M,M,M,M,M,M,M,M,M,28.40,KWYS 240640Z AUTO 00000KT 10SM CLR M02/M02 A3020 RMK AO2,M
WYS,2023-09-24 07:40,28.40,28.40,100.00,0.00,0.00,0.00,30.21,M,10.00,M,CLR,M,M,M,M,M,M,M,M,M,M,M,M,M,M,28.40,KWYS 240740Z AUTO 00000KT 10SM CLR M02/M02 A3021 RMK AO2,M
WYS,2023-09-24 08:40,26.60,26.60,100.00,0.00,0.00,0.00,30.22,M,10.00,M,CLR,M,M,M,M,M,M,M,M,M,M,M,M,M,M,26.60,KWYS 240840Z AUTO 00000KT 10SM CLR M03/M03 A3022 RMK AO2,M
WYS,2023-09-24 09:40,26.60,26.60,100.00,0.00,0.00,0.00,30.21,M,10.00,M,CLR,M,M,M,M,M,M,M,M,M,M,M,M,M,M,26.60,KWYS 240940Z AUTO 00000KT 10SM CLR M03/M03 A3021 RMK AO2,M
WYS,2023-09-24 10:40,26.60,26.60,100.00,0.00,0.00,0.00,30.21,M,9.00,M,OVC,M,M,M,300.00,M,M,M,M,M,M,M,M,M,M,26.60,KWYS 241040Z AUTO 00000KT 9SM OVC003 M03/M03 A3021 RMK AO2,M
WYS,2023-09-24 11:40,30.20,30.20,100.00,0.00,0.00,0.00,30.22,M,0.25,M,OVC,M,M,M,200.00,M,M,M,FZFG,M,M,M,M,M,M,30.20,KWYS 241140Z AUTO 00000KT M1/4SM FZFG OVC002 M01/M01 A3022 RMK AO2,M
WYS,2023-09-24 12:35,30.20,30.20,100.00,0.00,0.00,0.00,30.23,M,0.25,M,OVC,M,M,M,200.00,M,M,M,FZFG,M,M,M,M,M,M,30.20,KWYS 241235Z AUTO 00000KT M1/4SM FZFG OVC002 M01/M01 A3023 RMK AO2,M
WYS,2023-09-24 13:40,30.20,30.20,100.00,0.00,0.00,0.00,30.24,M,0.25,M,OVC,M,M,M,200.00,M,M,M,FZFG,M,M,M,M,M,M,30.20,KWYS 241340Z AUTO 00000KT M1/4SM FZFG OVC002 M01/M01 A3024 RMK AO2,M
WYS,2023-09-24 14:40,30.20,30.20,100.00,0.00,0.00,0.00,30.24,M,0.25,M,OVC,M,M,M,200.00,M,M,M,FZFG,M,M,M,M,M,M,30.20,KWYS 241440Z AUTO 00000KT M1/4SM FZFG OVC002 M01/M01 A3024 RMK AO2,M
WYS,2023-09-24 15:40,32.00,32.00,100.00,0.00,0.00,0.00,30.25,M,0.25,M,OVC,M,M,M,200.00,M,M,M,FG,M,M,M,M,M,M,32.00,KWYS 241540Z AUTO 00000KT M1/4SM FG OVC002 00/00 A3025 RMK AO2,M
WYS,2023-09-24 16:40,33.80,33.80,100.00,0.00,0.00,0.00,30.26,M,7.00,M,OVC,M,M,M,300.00,M,M,M,M,M,M,M,M,M,M,33.80,KWYS 241640Z AUTO 00000KT 7SM OVC003 01/01 A3026 RMK AO2,M
WYS,2023-09-24 17:40,39.20,39.20,100.00,0.00,0.00,0.00,30.24,M,10.00,M,M,M,M,M,M,M,M,M,M,M,M,M,M,M,M,39.20,KWYS 241740Z AUTO 00000KT 10SM 04/04 A3024 RMK AO2,M
WYS,2023-09-24 18:40,51.80,39.20,61.99,0.00,0.00,0.00,30.23,M,10.00,M,M,M,M,M,M,M,M,M,M,M,M,M,M,M,M,51.80,KWYS 241840Z AUTO 00000KT 10SM 11/04 A3023 RMK AO2,M
WYS,2023-09-24 19:40,59.00,28.40,30.98,210.00,13.00,0.00,30.22,M,10.00,M,CLR,M,M,M,M,M,M,M,M,M,M,M,M,M,M,59.00,KWYS 241940Z AUTO 21013KT 10SM CLR 15/M02 A3022 RMK AO2,M
WYS,2023-09-24 20:40,60.80,28.40,29.06,220.00,13.00,0.00,30.20,M,10.00,19.00,CLR,M,M,M,M,M,M,M,M,M,M,M,M,M,M,60.80,KWYS 242040Z AUTO 22013G19KT 10SM CLR 16/M02 A3020 RMK AO2,M
WYS,2023-09-24 21:40,60.80,30.20,31.28,230.00,13.00,0.00,30.20,M,10.00,20.00,CLR,M,M,M,M,M,M,M,M,M,M,M,M,M,M,60.80,KWYS 242140Z AUTO 23013G20KT 10SM CLR 16/M01 A3020 RMK AO2,M
WYS,2023-09-24 22:40,62.60,30.20,29.35,210.00,16.00,0.00,30.20,M,10.00,23.00,CLR,M,M,M,M,M,M,M,M,M,M,M,M,M,M,62.60,KWYS 242240Z AUTO 21016G23KT 10SM CLR 17/M01 A3020 RMK AO2,M
WYS,2023-09-24 23:40,59.00,30.20,33.35,210.00,12.00,0.00,30.22,M,10.00,19.00,CLR,M,M,M,M,M,M,M,M,M,M,M,M,M,M,59.00,KWYS 242340Z AUTO 21012G19KT 10SM CLR 15/M01 A3022 RMK AO2,M
WYS,2023-09-25 00:40,57.20,33.80,41.13,210.00,5.00,0.00,30.23,M,10.00,M,CLR,M,M,M,M,M,M,M,M,M,M,M,M,M,M,57.20,KWYS 250040Z AUTO 21005KT 10SM CLR 14/01 A3023 RMK AO2,M
WYS,2023-09-25 01:40,50.00,35.60,57.52,220.00,5.00,0.00,30.23,M,10.00,M,CLR,M,M,M,M,M,M,M,M,M,M,M,M,M,M,50.00,KWYS 250140Z AUTO 22005KT 10SM CLR 10/02 A3023 RMK AO2,M
WYS,2023-09-25 02:40,42.80,39.20,86.99,180.00,5.00,0.00,30.24,M,10.00,M,CLR,M,M,M,M,M,M,M,M,M,M,M,M,M,M,39.22,KWYS 250240Z AUTO 18005KT 10SM CLR 06/04 A3024 RMK AO2,M
WYS,2023-09-25 03:40,42.80,39.20,86.99,180.00,5.00,0.00,30.25,M,10.00,M,CLR,M,M,M,M,M,M,M,M,M,M,M,M,M,M,39.22,KWYS 250340Z AUTO 18005KT 10SM CLR 06/04 A3025 RMK AO2,M
WYS,2023-09-25 04:40,37.40,37.40,100.00,190.00,5.00,0.00,30.26,M,10.00,M,CLR,M,M,M,M,M,M,M,M,M,M,M,M,M,M,32.81,KWYS 250440Z AUTO 19005KT 10SM CLR 03/03 A3026 RMK AO2,M
WYS,2023-09-25 05:40,35.60,35.60,100.00,0.00,0.00,0.00,30.27,M,10.00,M,CLR,M,M,M,M,M,M,M,M,M,M,M,M,M,M,35.60,KWYS 250540Z AUTO 00000KT 10SM CLR 02/02 A3027 RMK AO2,M
WYS,2023-09-25 06:40,33.80,33.80,100.00,0.00,0.00,0.00,30.28,M,10.00,M,CLR,M,M,M,M,M,M,M,M,M,M,M,M,M,M,33.80,KWYS 250640Z AUTO 00000KT 10SM CLR 01/01 A3028 RMK AO2,M
WYS,2023-09-25 07:40,32.00,32.00,100.00,0.00,0.00,0.00,30.28,M,10.00,M,CLR,M,M,M,M,M,M,M,M,M,M,M,M,M,M,32.00,KWYS 250740Z AUTO 00000KT 10SM CLR M00/M00 A3028 RMK AO2,M
WYS,2023-09-25 08:40,30.20,30.20,100.00,0.00,0.00,0.00,30.28,M,10.00,M,CLR,M,M,M,M,M,M,M,M,M,M,M,M,M,M,30.20,KWYS 250840Z AUTO 00000KT 10SM CLR M01/M01 A3028 RMK AO2,M
WYS,2023-09-25 09:40,28.40,28.40,100.00,0.00,0.00,0.00,30.28,M,10.00,M,CLR,M,M,M,M,M,M,M,M,M,M,M,M,M,M,28.40,KWYS 250940Z AUTO 00000KT 10SM CLR M02/M02 A3028 RMK AO2,M
WYS,2023-09-25 10:40,28.40,28.40,100.00,0.00,0.00,0.00,30.30,M,10.00,M,CLR,M,M,M,M,M,M,M,M,M,M,M,M,M,M,28.40,KWYS 251040Z AUTO 00000KT 10SM CLR M02/M02 A3030 RMK AO2,M
WYS,2023-09-25 11:40,26.60,26.60,100.00,0.00,0.00,0.00,30.30,M,10.00,M,CLR,M,M,M,M,M,M,M,M,M,M,M,M,M,M,26.60,KWYS 251140Z AUTO 00000KT 10SM CLR M03/M03 A3030 RMK AO2,M
WYS,2023-09-25 12:40,28.40,28.40,100.00,0.00,0.00,0.00,30.31,M,10.00,M,CLR,M,M,M,M,M,M,M,M,M,M,M,M,M,M,28.40,KWYS 251240Z AUTO 00000KT 10SM CLR M02/M02 A3031 RMK AO2,M
WYS,2023-09-25 13:40,28.40,28.40,100.00,0.00,0.00,0.00,30.32,M,10.00,M,CLR,M,M,M,M,M,M,M,M,M,M,M,M,M,M,28.40,KWYS 251340Z AUTO 00000KT 10SM CLR M02/M02 A3032 RMK AO2,M
WYS,2023-09-25 14:40,33.80,33.80,100.00,0.00,0.00,0.00,30.32,M,10.00,M,CLR,M,M,M,M,M,M,M,M,M,M,M,M,M,M,33.80,KWYS 251440Z AUTO 00000KT 10SM CLR 01/01 A3032 RMK AO2,M
WYS,2023-09-25 15:40,41.00,37.40,86.89,0.00,0.00,0.00,30.33,M,10.00,M,CLR,M,M,M,M,M,M,M,M,M,M,M,M,M,M,41.00,KWYS 251540Z AUTO 00000KT 10SM CLR 05/03 A3033 RMK AO2,M
WYS,2023-09-25 16:40,48.20,37.40,66.05,0.00,0.00,0.00,30.33,M,10.00,M,CLR,M,M,M,M,M,M,M,M,M,M,M,M,M,M,48.20,KWYS 251640Z AUTO 00000KT 10SM CLR 09/03 A3033 RMK AO2,M
WYS,2023-09-25 17:40,55.40,37.40,50.64,0.00,0.00,0.00,30.32,M,10.00,M,M,M,M,M,M,M,M,M,M,M,M,M,M,M,M,55.40,KWYS 251740Z AUTO 00000KT 10SM 13/03 A3032 RMK AO2,M
WYS,2023-09-25 18:40,62.60,37.40,39.14,0.00,0.00,0.00,30.31,M,10.00,M,CLR,M,M,M,M,M,M,M,M,M,M,M,M,M,M,62.60,KWYS 251840Z AUTO 00000KT 10SM CLR 17/03 A3031 RMK AO2,M
WYS,2023-09-25 19:40,68.00,32.00,26.15,190.00,12.00,0.00,30.28,M,10.00,20.00,CLR,M,M,M,M,M,M,M,M,M,M,M,M,M,M,68.00,KWYS 251940Z AUTO 19012G20KT 10SM CLR 20/M00 A3028 RMK AO2,M
WYS,2023-09-25 20:40,68.00,30.20,24.32,200.00,7.00,0.00,30.27,M,10.00,15.00,CLR,M,M,M,M,M,M,M,M,M,M,M,M,M,M,68.00,KWYS 252040Z AUTO 20007G15KT 170V230 10SM CLR 20/M01 A3027 RMK AO2,M
WYS,2023-09-25 21:40,69.80,28.40,21.24,220.00,11.00,0.00,30.25,M,10.00,17.00,CLR,M,M,M,M,M,M,M,M,M,M,M,M,M,M,69.80,KWYS 252140Z AUTO 22011G17KT 10SM CLR 21/M02 A3025 RMK AO2,M
WYS,2023-09-25 22:40,69.80,28.40,21.24,220.00,11.00,0.00,30.24,M,10.00,M,CLR,M,M,M,M,M,M,M,M,M,M,M,M,M,M,69.80,KWYS 252240Z AUTO 22011KT 10SM CLR 21/M02 A3024 RMK AO2,M
WYS,2023-09-25 23:40,68.00,32.00,26.15,230.00,9.00,0.00,30.24,M,10.00,14.00,CLR,M,M,M,M,M,M,M,M,M,M,M,M,M,M,68.00,KWYS 252340Z AUTO 23009G14KT 10SM CLR 20/M00 A3024 RMK AO2,M
WYS,2023-09-26 00:40,66.20,33.80,29.92,210.00,7.00,0.00,30.24,M,10.00,M,CLR,M,M,M,M,M,M,M,M,M,M,M,M,M,M,66.20,KWYS 260040Z AUTO 21007KT 10SM CLR 19/01 A3024 RMK AO2,M
WYS,2023-09-26 01:40,53.60,37.40,54.07,0.00,0.00,0.00,30.24,M,10.00,M,CLR,M,M,M,M,M,M,M,M,M,M,M,M,M,M,53.60,KWYS 260140Z AUTO 00000KT 10SM CLR 12/03 A3024 RMK AO2,M
WYS,2023-09-26 02:40,48.20,39.20,70.88,0.00,0.00,0.00,30.25,M,10.00,M,CLR,M,M,M,M,M,M,M,M,M,M,M,M,M,M,48.20,KWYS 260240Z AUTO 00000KT 10SM CLR 09/04 A3025 RMK AO2,M
WYS,2023-09-26 03:40,46.40,37.40,70.68,190.00,4.00,0.00,30.25,M,10.00,M,CLR,M,M,M,M,M,M,M,M,M,M,M,M,M,M,44.24,KWYS 260340Z AUTO 19004KT 10SM CLR 08/03 A3025 RMK AO2,M
WYS,2023-09-26 04:40,42.80,37.40,81.07,180.00,4.00,0.00,30.25,M,10.00,M,CLR,M,M,M,M,M,M,M,M,M,M,M,M,M,M,40.03,KWYS 260440Z AUTO 18004KT 10SM CLR 06/03 A3025 RMK AO2,M
WYS,2023-09-26 05:40,41.00,35.60,80.93,0.00,0.00,0.00,30.26,M,10.00,M,CLR,M,M,M,M,M,M,M,M,M,M,M,M,M,M,41.00,KWYS 260540Z AUTO 00000KT 10SM CLR 05/02 A3026 RMK AO2,M
WYS,2023-09-26 06:40,35.60,35.60,100.00,0.00,0.00,0.00,30.26,M,10.00,M,CLR,M,M,M,M,M,M,M,M,M,M,M,M,M,M,35.60,KWYS 260640Z AUTO 00000KT 10SM CLR 02/02 A3026 RMK AO2,M
WYS,2023-09-26 07:40,32.00,32.00,100.00,0.00,0.00,0.00,30.26,M,10.00,M,CLR,M,M,M,M,M,M,M,M,M,M,M,M,M,M,32.00,KWYS 260740Z AUTO 00000KT 10SM CLR 00/00 A3026 RMK AO2,M
WYS,2023-09-26 08:40,30.20,30.20,100.00,0.00,0.00,0.00,30.25,M,10.00,M,CLR,M,M,M,M,M,M,M,M,M,M,M,M,M,M,30.20,KWYS 260840Z AUTO 00000KT 10SM CLR M01/M01 A3025 RMK AO2,M
WYS,2023-09-26 09:40,28.40,28.40,100.00,0.00,0.00,0.00,30.25,M,10.00,M,CLR,M,M,M,M,M,M,M,M,M,M,M,M,M,M,28.40,KWYS 260940Z AUTO 00000KT 10SM CLR M02/M02 A3025 RMK AO2,M
WYS,2023-09-26 10:40,26.60,26.60,100.00,0.00,0.00,0.00,30.24,M,10.00,M,CLR,M,M,M,M,M,M,M,M,M,M,M,M,M,M,26.60,KWYS 261040Z AUTO 00000KT 10SM CLR M03/M03 A3024 RMK AO2,M
WYS,2023-09-26 11:40,26.60,28.40,M,0.00,0.00,0.00,30.25,M,10.00,M,CLR,M,M,M,M,M,M,M,M,M,M,M,M,M,M,M,KWYS 261140Z AUTO 00000KT 10SM CLR M03/M02 A3025 RMK AO2,M
WYS,2023-09-26 12:40,26.60,26.60,100.00,0.00,0.00,0.00,30.25,M,10.00,M,CLR,M,M,M,M,M,M,M,M,M,M,M,M,M,M,26.60,KWYS 261240Z AUTO 00000KT 10SM CLR M03/M03 A3025 RMK AO2,M
WYS,2023-09-26 13:35,26.60,26.60,100.00,0.00,0.00,0.00,30.25,M,10.00,M,CLR,M,M,M,M,M,M,M,M,M,M,M,M,M,M,26.60,KWYS 261335Z AUTO 00000KT 10SM CLR M03/M03 A3025 RMK AO2,M
WYS,2023-09-26 14:40,33.80,33.80,100.00,0.00,0.00,0.00,30.24,M,10.00,M,CLR,M,M,M,M,M,M,M,M,M,M,M,M,M,M,33.80,KWYS 261440Z AUTO 00000KT 10SM CLR 01/01 A3024 RMK AO2,M
WYS,2023-09-26 15:40,42.80,35.60,75.50,0.00,0.00,0.00,30.24,M,10.00,M,CLR,M,M,M,M,M,M,M,M,M,M,M,M,M,M,42.80,KWYS 261540Z AUTO 00000KT 10SM CLR 06/02 A3024 RMK AO2,M
WYS,2023-09-26 16:40,50.00,35.60,57.52,0.00,0.00,0.00,30.24,M,10.00,M,CLR,M,M,M,M,M,M,M,M,M,M,M,M,M,M,50.00,KWYS 261640Z AUTO 00000KT 10SM CLR 10/02 A3024 RMK AO2,M
WYS,2023-09-26 17:40,62.60,33.80,33.93,190.00,8.00,0.00,30.22,M,10.00,M,M,M,M,M,M,M,M,M,M,M,M,M,M,M,M,62.60,KWYS 261740Z AUTO 19008KT 10SM 17/01 A3022 RMK AO2,M
WYS,2023-09-26 18:40,66.20,32.00,27.83,220.00,16.00,0.00,30.20,M,10.00,23.00,CLR,M,M,M,M,M,M,M,M,M,M,M,M,M,M,66.20,KWYS 261840Z AUTO 22016G23KT 10SM CLR 19/M00 A3020 RMK AO2,M
WYS,2023-09-26 19:40,68.00,32.00,26.15,210.00,16.00,0.00,30.19,M,10.00,25.00,CLR,M,M,M,M,M,M,M,M,M,M,M,M,M,M,68.00,KWYS 261940Z AUTO 21016G25KT 10SM CLR 20/M00 A3019 RMK AO2,M
WYS,2023-09-26 20:40,69.80,30.20,22.86,200.00,21.00,0.00,30.17,M,10.00,M,CLR,M,M,M,M,M,M,M,M,M,M,M,M,M,M,69.80,KWYS 262040Z AUTO 20021KT 10SM CLR 21/M01 A3017 RMK AO2,M
WYS,2023-09-26 21:40,69.80,30.20,22.86,200.00,17.00,0.00,30.16,M,10.00,26.00,CLR,M,M,M,M,M,M,M,M,M,M,M,M,M,M,69.80,KWYS 262140Z AUTO 20017G26KT 180V240 10SM CLR 21/M01 A3016 RMK AO2,M
WYS,2023-09-26 22:40,69.80,30.20,22.86,240.00,15.00,0.00,30.16,M,10.00,24.00,CLR,M,M,M,M,M,M,M,M,M,M,M,M,M,M,69.80,KWYS 262240Z AUTO 24015G24KT 10SM CLR 21/M01 A3016 RMK AO2,M
WYS,2023-09-26 23:40,68.00,28.40,22.59,220.00,15.00,0.00,30.15,M,10.00,22.00,CLR,M,M,M,M,M,M,M,M,M,M,M,M,M,M,68.00,KWYS 262340Z AUTO 22015G22KT 10SM CLR 20/M02 A3015 RMK AO2,M
WYS,2023-09-27 00:40,64.40,26.60,23.77,220.00,6.00,0.00,30.16,M,10.00,M,CLR,M,M,M,M,M,M,M,M,M,M,M,M,M,M,64.40,KWYS 270040Z AUTO 22006KT 10SM CLR 18/M03 A3016 RMK AO2,M
WYS,2023-09-27 01:40,55.40,32.00,40.84,0.00,0.00,0.00,30.16,M,10.00,M,CLR,M,M,M,M,M,M,M,M,M,M,M,M,M,M,55.40,KWYS 270140Z AUTO 00000KT 10SM CLR 13/M00 A3016 RMK AO2,M
WYS,2023-09-27 02:40,57.20,30.20,35.57,150.00,5.00,0.00,30.16,M,10.00,M,CLR,M,M,M,M,M,M,M,M,M,M,M,M,M,M,57.20,KWYS 270240Z AUTO 15005KT 10SM CLR 14/M01 A3016 RMK AO2,M
WYS,2023-09-27 03:40,50.00,32.00,49.81,0.00,0.00,0.00,30.16,M,10.00,M,CLR,M,M,M,M,M,M,M,M,M,M,M,M,M,M,50.00,KWYS 270340Z AUTO 00000KT 10SM CLR 10/00 A3016 RMK AO2,M
WYS,2023-09-27 04:40,50.00,32.00,49.81,170.00,5.00,0.00,30.17,M,10.00,M,CLR,M,M,M,M,M,M,M,M,M,M,M,M,M,M,50.00,KWYS 270440Z AUTO 17005KT 10SM CLR 10/M00 A3017 RMK AO2,M
WYS,2023-09-27 05:40,53.60,30.20,40.54,170.00,7.00,0.00,30.17,M,10.00,M,CLR,M,M,M,M,M,M,M,M,M,M,M,M,M,M,53.60,KWYS 270540Z AUTO 17007KT 10SM CLR 12/M01 A3017 RMK AO2,M
WYS,2023-09-27 06:40,51.80,32.00,46.59,M,3.00,0.00,30.16,M,10.00,11.00,CLR,M,M,M,M,M,M,M,M,M,M,M,M,M,M,51.80,KWYS 270640Z AUTO VRB03G11KT 10SM CLR 11/M00 A3016 RMK AO2,M
WYS,2023-09-27 07:40,44.60,32.00,61.03,0.00,0.00,0.00,30.16,M,10.00,M,CLR,M,M,M,M,M,M,M,M,M,M,M,M,M,M,44.60,KWYS 270740Z AUTO 00000KT 10SM CLR 07/M00 A3016 RMK AO2,M
WYS,2023-09-27 08:40,39.20,32.00,75.16,170.00,6.00,0.00,30.15,M,10.00,M,CLR,M,M,M,M,M,M,M,M,M,M,M,M,M,M,34.20,KWYS 270840Z AUTO 17006KT 10SM CLR 04/M00 A3015 RMK AO2,M
WYS,2023-09-27 09:40,33.80,32.00,93.03,0.00,0.00,0.00,30.15,M,10.00,M,CLR,M,M,M,M,M,M,M,M,M,M,M,M,M,M,33.80,KWYS 270940Z AUTO 00000KT 10SM CLR 01/00 A3015 RMK AO2,M
WYS,2023-09-27 10:40,32.00,32.00,100.00,0.00,0.00,0.00,30.15,M,10.00,M,CLR,M,M,M,M,M,M,M,M,M,M,M,M,M,M,32.00,KWYS 271040Z AUTO 00000KT 10SM CLR M00/M00 A3015 RMK AO2,M
WYS,2023-09-27 11:40,30.20,30.20,100.00,320.00,3.00,0.00,30.15,M,10.00,M,CLR,M,M,M,M,M,M,M,M,M,M,M,M,M,M,26.63,KWYS 271140Z AUTO 32003KT 10SM CLR M01/M01 A3015 RMK AO2,M
WYS,2023-09-27 12:40,26.60,28.40,M,0.00,0.00,0.00,30.14,M,10.00,M,CLR,M,M,M,M,M,M,M,M,M,M,M,M,M,M,M,KWYS 271240Z AUTO 00000KT 10SM CLR M03/M02 A3014 RMK AO2,M
WYS,2023-09-27 13:40,26.60,28.40,M,0.00,0.00,0.00,30.15,M,10.00,M,CLR,M,M,M,M,M,M,M,M,M,M,M,M,M,M,M,KWYS 271340Z AUTO 00000KT 10SM CLR M03/M02 A3015 RMK AO2,M
WYS,2023-09-27 14:40,35.60,33.80,93.08,0.00,0.00,0.00,30.14,M,10.00,M,CLR,M,M,M,M,M,M,M,M,M,M,M,M,M,M,35.60,KWYS 271440Z AUTO 00000KT 10SM CLR 02/01 A3014 RMK AO2,M
WYS,2023-09-27 15:40,46.40,33.80,61.28,0.00,0.00,0.00,30.12,M,10.00,M,CLR,M,M,M,M,M,M,M,M,M,M,M,M,M,M,46.40,KWYS 271540Z AUTO 00000KT 10SM CLR 08/01 A3012 RMK AO2,M
WYS,2023-09-27 16:40,57.20,28.40,33.05,M,5.00,0.00,30.10,M,10.00,M,M,M,M,M,M,M,M,M,M,M,M,M,M,M,M,57.20,KWYS 271640Z AUTO VRB05KT 10SM 14/M02 A3010 RMK AO2,M
WYS,2023-09-27 17:40,62.60,28.40,27.27,230.00,12.00,0.00,30.07,M,10.00,M,CLR,M,M,M,M,M,M,M,M,M,M,M,M,M,M,62.60,KWYS 271740Z AUTO 23012KT 10SM CLR 17/M02 A3007 RMK AO2,M
WYS,2023-09-27 18:40,64.40,28.40,25.60,200.00,14.00,0.00,30.05,M,10.00,26.00,CLR,M,M,M,M,M,M,M,M,M,M,M,M,M,M,64.40,KWYS 271840Z AUTO 20014G26KT 10SM CLR 18/M02 A3005 RMK AO2,M
WYS,2023-09-27 19:40,66.20,26.60,22.33,210.00,24.00,0.00,30.02,M,10.00,32.00,CLR,M,M,M,M,M,M,M,M,M,M,M,M,M,M,66.20,KWYS 271940Z AUTO 21024G32KT 10SM CLR 19/M03 A3002 RMK AO2,M
WYS,2023-09-27 20:40,64.40,28.40,25.60,210.00,21.00,0.00,30.01,M,10.00,28.00,CLR,M,M,M,M,M,M,M,M,M,M,M,M,M,M,64.40,KWYS 272040Z AUTO 21021G28KT 10SM CLR 18/M02 A3001 RMK AO2,M
WYS,2023-09-27 21:40,62.60,28.40,27.27,220.00,20.00,0.00,30.01,M,10.00,27.00,CLR,M,M,M,M,M,M,M,M,M,M,M,M,M,M,62.60,KWYS 272140Z AUTO 22020G27KT 10SM CLR 17/M02 A3001 RMK AO2,M
WYS,2023-09-27 22:40,59.00,30.20,33.35,220.00,23.00,0.00,30.01,M,10.00,30.00,CLR,M,M,M,M,M,M,M,M,M,M,M,M,M,M,59.00,KWYS 272240Z AUTO 22023G30KT 10SM CLR 15/M01 A3001 RMK AO2,M
WYS,2023-09-27 23:40,59.00,32.00,35.87,220.00,22.00,0.00,30.02,M,10.00,28.00,CLR,M,M,M,M,M,M,M,M,M,M,M,M,M,M,59.00,KWYS 272340Z AUTO 22022G28KT 10SM CLR 15/M00 A3002 RMK AO2,M
WYS,2023-09-28 00:40,59.00,32.00,35.87,210.00,14.00,0.00,30.02,M,10.00,M,CLR,M,M,M,M,M,M,M,M,M,M,M,M,M,M,59.00,KWYS 280040Z AUTO 21014KT 10SM CLR 15/M00 A3002 RMK AO2,M
WYS,2023-09-28 01:40,53.60,26.60,34.98,200.00,18.00,0.00,30.01,M,10.00,24.00,CLR,M,M,M,M,M,M,M,M,M,M,M,M,M,M,53.60,KWYS 280140Z AUTO 20018G24KT 10SM CLR 12/M03 A3001 RMK AO2,M
WYS,2023-09-28 02:55,51.80,28.40,40.25,200.00,13.00,0.00,30.03,M,10.00,M,CLR,M,M,M,M,M,M,M,M,M,M,M,M,M,M,51.80,KWYS 280255Z AUTO 20013KT 10SM CLR 11/M02 A3003 RMK AO2,M
WYS,2023-09-28 03:40,50.00,28.40,43.03,0.00,0.00,0.00,30.06,M,10.00,M,CLR,M,M,M,M,M,M,M,M,M,M,M,M,M,M,50.00,KWYS 280340Z AUTO 00000KT 10SM CLR 10/M02 A3006 RMK AO2,M
WYS,2023-09-28 04:40,46.40,28.40,49.24,0.00,0.00,0.00,30.06,M,10.00,M,CLR,M,M,M,M,M,M,M,M,M,M,M,M,M,M,46.40,KWYS 280440Z AUTO 00000KT 10SM CLR 08/M02 A3006 RMK AO2,M
WYS,2023-09-28 05:40,44.60,30.20,56.74,250.00,5.00,0.00,30.07,M,10.00,M,CLR,M,M,M,M,M,M,M,M,M,M,M,M,M,M,41.36,KWYS 280540Z AUTO 25005KT 10SM CLR 07/M01 A3007 RMK AO2,M
WYS,2023-09-28 06:40,42.80,32.00,65.38,210.00,6.00,0.00,30.07,M,10.00,M,CLR,M,M,M,M,M,M,M,M,M,M,M,M,M,M,38.54,KWYS 280640Z AUTO 21006KT 10SM CLR 06/M00 A3007 RMK AO2,M
WYS,2023-09-28 07:40,39.20,32.00,75.16,0.00,0.00,0.00,30.08,M,10.00,M,CLR,M,M,M,M,M,M,M,M,M,M,M,M,M,M,39.20,KWYS 280740Z AUTO 00000KT 10SM CLR 04/00 A3008 RMK AO2,M
WYS,2023-09-28 08:40,35.60,33.80,93.08,220.00,4.00,0.00,30.08,M,10.00,M,CLR,M,M,M,M,M,M,M,M,M,M,M,M,M,M,31.62,KWYS 280840Z AUTO 22004KT 10SM CLR 02/01 A3008 RMK AO2,M
WYS,2023-09-28 09:40,33.80,33.80,100.00,0.00,0.00,0.00,30.08,M,10.00,M,CLR,M,M,M,M,M,M,M,M,M,M,M,M,M,M,33.80,KWYS 280940Z AUTO 00000KT 10SM CLR 01/01 A3008 RMK AO2,M
WYS,2023-09-28 10:35,30.20,30.20,100.00,0.00,0.00,0.00,30.08,M,10.00,M,CLR,M,M,M,M,M,M,M,M,M,M,M,M,M,M,30.20,KWYS 281035Z AUTO 00000KT 10SM CLR M01/M01 A3008 RMK AO2,M
WYS,2023-09-28 11:40,28.40,28.40,100.00,0.00,0.00,0.00,30.09,M,10.00,M,CLR,M,M,M,M,M,M,M,M,M,M,M,M,M,M,28.40,KWYS 281140Z AUTO 00000KT 10SM CLR M02/M02 A3009 RMK AO2,M
WYS,2023-09-28 12:40,26.60,26.60,100.00,0.00,0.00,0.00,30.09,M,10.00,M,CLR,M,M,M,M,M,M,M,M,M,M,M,M,M,M,26.60,KWYS 281240Z AUTO 00000KT 10SM CLR M03/M03 A3009 RMK AO2,M
WYS,2023-09-28 13:40,26.60,26.60,100.00,0.00,0.00,0.00,30.10,M,10.00,M,CLR,M,M,M,M,M,M,M,M,M,M,M,M,M,M,26.60,KWYS 281340Z AUTO 00000KT 10SM CLR M03/M03 A3010 RMK AO2,M
WYS,2023-09-28 14:40,33.80,33.80,100.00,0.00,0.00,0.00,30.11,M,10.00,M,CLR,M,M,M,M,M,M,M,M,M,M,M,M,M,M,33.80,KWYS 281440Z AUTO 00000KT 10SM CLR 01/01 A3011 RMK AO2,M
WYS,2023-09-28 15:40,39.20,33.80,80.79,0.00,0.00,0.00,30.10,M,10.00,M,M,M,M,M,M,M,M,M,M,M,M,M,M,M,M,39.20,KWYS 281540Z AUTO 00000KT 10SM 04/01 A3010 RMK AO2,M
WYS,2023-09-28 16:40,46.40,33.80,61.28,0.00,0.00,0.00,30.08,M,10.00,M,M,M,M,M,M,M,M,M,M,M,M,M,M,M,M,46.40,KWYS 281640Z AUTO 00000KT 10SM 08/01 A3008 RMK AO2,M
WYS,2023-09-28 17:40,51.80,32.00,46.59,200.00,9.00,0.00,30.06,M,10.00,M,M,M,M,M,M,M,M,M,M,M,M,M,M,M,M,51.80,KWYS 281740Z AUTO 20009KT 10SM 11/M00 A3006 RMK AO2,M
WYS,2023-09-28 18:40,53.60,32.00,43.61,240.00,12.00,0.00,30.05,M,10.00,17.00,FEW,M,M,M,4400.00,M,M,M,M,M,M,M,M,M,M,53.60,KWYS 281840Z AUTO 24012G17KT 10SM FEW044 12/M00 A3005 RMK AO2,M
WYS,2023-09-28 19:40,53.60,30.20,40.54,180.00,14.00,0.00,30.03,M,10.00,M,CLR,M,M,M,M,M,M,M,M,M,M,M,M,M,M,53.60,KWYS 281940Z AUTO 18014KT 10SM CLR 12/M01 A3003 RMK AO2,M
WYS,2023-09-28 20:40,57.20,23.00,26.42,210.00,14.00,0.00,30.01,M,10.00,20.00,M,M,M,M,M,M,M,M,M,M,M,M,M,M,M,57.20,KWYS 282040Z AUTO 21014G20KT 10SM 14/M05 A3001 RMK AO2,M
WYS,2023-09-28 21:40,55.40,21.20,26.13,220.00,14.00,0.00,30.00,M,10.00,20.00,M,M,M,M,M,M,M,M,M,M,M,M,M,M,M,55.40,KWYS 282140Z AUTO 22014G20KT 10SM 13/M06 A3000 RMK AO2,M
WYS,2023-09-28 22:40,55.40,19.40,24.21,210.00,8.00,0.00,30.00,M,10.00,15.00,M,M,M,M,M,M,M,M,M,M,M,M,M,M,M,55.40,KWYS 282240Z AUTO 21008G15KT 10SM 13/M07 A3000 RMK AO2,M
WYS,2023-09-28 23:40,55.40,19.40,24.21,210.00,14.00,0.00,29.99,M,10.00,M,CLR,M,M,M,M,M,M,M,M,M,M,M,M,M,M,55.40,KWYS 282340Z AUTO 21014KT 10SM CLR 13/M07 A2999 RMK AO2,M
WYS,2023-09-29 00:40,51.80,23.00,32.17,210.00,10.00,0.00,30.00,M,10.00,M,SCT,M,M,M,11000.00,M,M,M,M,M,M,M,M,M,M,51.80,KWYS 290040Z AUTO 21010KT 10SM SCT110 11/M05 A3000 RMK AO2,M
WYS,2023-09-29 01:40,48.20,24.80,39.66,210.00,10.00,0.00,30.01,M,10.00,M,CLR,M,M,M,M,M,M,M,M,M,M,M,M,M,M,43.28,KWYS 290140Z AUTO 21010KT 10SM CLR 09/M04 A3001 RMK AO2,M
WYS,2023-09-29 02:40,42.80,24.80,48.67,0.00,0.00,0.00,30.02,M,10.00,M,CLR,M,M,M,M,M,M,M,M,M,M,M,M,M,M,42.80,KWYS 290240Z AUTO 00000KT 10SM CLR 06/M04 A3002 RMK AO2,M
WYS,2023-09-29 03:40,39.20,24.80,55.95,0.00,0.00,0.00,30.02,M,10.00,M,CLR,M,M,M,M,M,M,M,M,M,M,M,M,M,M,39.20,KWYS 290340Z AUTO 00000KT 10SM CLR 04/M04 A3002 RMK AO2,M
WYS,2023-09-29 04:40,33.80,26.60,74.63,0.00,0.00,0.00,30.01,M,10.00,M,CLR,M,M,M,M,M,M,M,M,M,M,M,M,M,M,33.80,KWYS 290440Z AUTO 00000KT 10SM CLR 01/M03 A3001 RMK AO2,M
WYS,2023-09-29 05:40,28.40,24.80,86.18,210.00,3.00,0.00,30.01,M,10.00,M,CLR,M,M,M,M,M,M,M,M,M,M,M,M,M,M,24.57,KWYS 290540Z AUTO 21003KT 10SM CLR M02/M04 A3001 RMK AO2,M
WYS,2023-09-29 06:40,28.40,24.80,86.18,0.00,0.00,0.00,30.01,M,10.00,M,CLR,M,M,M,M,M,M,M,M,M,M,M,M,M,M,28.40,KWYS 290640Z AUTO 00000KT 10SM CLR M02/M04 A3001 RMK AO2,M
WYS,2023-09-29 07:40,26.60,24.80,92.80,0.00,0.00,0.00,30.00,M,10.00,M,CLR,M,M,M,M,M,M,M,M,M,M,M,M,M,M,26.60,KWYS 290740Z AUTO 00000KT 10SM CLR M03/M04 A3000 RMK AO2,M
WYS,2023-09-29 08:40,26.60,26.60,100.00,0.00,0.00,0.00,30.00,M,10.00,M,CLR,M,M,M,M,M,M,M,M,M,M,M,M,M,M,26.60,KWYS 290840Z AUTO 00000KT 10SM CLR M03/M03 A3000 RMK AO2,M
WYS,2023-09-29 09:40,24.80,24.80,100.00,210.00,5.00,0.00,30.00,M,10.00,M,CLR,M,M,M,M,M,M,M,M,M,M,M,M,M,M,17.84,KWYS 290940Z AUTO 21005KT 10SM CLR M04/M04 A3000 RMK AO2,M
WYS,2023-09-29 10:40,26.60,26.60,100.00,0.00,0.00,0.00,30.00,M,10.00,M,CLR,M,M,M,M,M,M,M,M,M,M,M,M,M,M,26.60,KWYS 291040Z AUTO 00000KT 10SM CLR M03/M03 A3000 RMK AO2,M
WYS,2023-09-29 11:40,24.80,26.60,M,0.00,0.00,0.00,30.01,M,10.00,M,CLR,M,M,M,M,M,M,M,M,M,M,M,M,M,M,M,KWYS 291140Z AUTO 00000KT 10SM CLR M04/M03 A3001 RMK AO2,M
WYS,2023-09-29 12:35,24.80,24.80,100.00,0.00,0.00,0.00,30.02,M,10.00,M,CLR,M,M,M,M,M,M,M,M,M,M,M,M,M,M,24.80,KWYS 291235Z AUTO 00000KT 10SM CLR M04/M04 A3002 RMK AO2,M
WYS,2023-09-29 13:40,23.00,23.00,100.00,0.00,0.00,0.00,30.03,M,10.00,M,CLR,M,M,M,M,M,M,M,M,M,M,M,M,M,M,23.00,KWYS 291340Z AUTO 00000KT 10SM CLR M05/M05 A3003 RMK AO2,M
WYS,2023-09-29 14:40,32.00,32.00,100.00,0.00,0.00,0.00,30.03,M,10.00,M,CLR,M,M,M,M,M,M,M,M,M,M,M,M,M,M,32.00,KWYS 291440Z AUTO 00000KT 10SM CLR M00/M00 A3003 RMK AO2,M
WYS,2023-09-29 15:40,39.20,32.00,75.16,M,4.00,0.00,30.03,M,10.00,M,CLR,M,M,M,M,M,M,M,M,M,M,M,M,M,M,35.83,KWYS 291540Z AUTO VRB04KT 10SM CLR 04/M00 A3003 RMK AO2,M
WYS,2023-09-29 16:40,46.40,28.40,49.24,0.00,0.00,0.00,30.02,M,10.00,M,CLR,M,M,M,M,M,M,M,M,M,M,M,M,M,M,46.40,KWYS 291640Z AUTO 00000KT 10SM CLR 08/M02 A3002 RMK AO2,M
WYS,2023-09-29 17:40,53.60,23.00,30.11,200.00,14.00,0.00,30.01,M,10.00,M,CLR,M,M,M,M,M,M,M,M,M,M,M,M,M,M,53.60,KWYS 291740Z AUTO 20014KT 10SM CLR 12/M05 A3001 RMK AO2,M
WYS,2023-09-29 18:40,55.40,24.80,30.40,220.00,14.00,0.00,29.99,M,10.00,20.00,CLR,M,M,M,M,M,M,M,M,M,M,M,M,M,M,55.40,KWYS 291840Z AUTO 22014G20KT 10SM CLR 13/M04 A2999 RMK AO2,M
WYS,2023-09-29 19:40,57.20,24.80,28.48,200.00,17.00,0.00,29.98,M,10.00,M,CLR,M,M,M,M,M,M,M,M,M,M,M,M,M,M,57.20,KWYS 291940Z AUTO 20017KT 10SM CLR 14/M04 A2998 RMK AO2,M
WYS,2023-09-29 20:40,59.00,23.00,24.76,200.00,17.00,0.00,29.97,M,10.00,24.00,CLR,M,M,M,M,M,M,M,M,M,M,M,M,M,M,59.00,KWYS 292040Z AUTO 20017G24KT 10SM CLR 15/M05 A2997 RMK AO2,M
WYS,2023-09-29 21:40,59.00,24.80,26.70,230.00,14.00,0.00,29.96,M,10.00,M,CLR,M,M,M,M,M,M,M,M,M,M,M,M,M,M,59.00,KWYS 292140Z AUTO 23014KT 10SM CLR 15/M04 A2996 RMK AO2,M
WYS,2023-09-29 22:40,57.20,24.80,28.48,240.00,7.00,0.00,29.94,M,10.00,13.00,CLR,M,M,M,M,M,M,M,M,M,M,M,M,M,M,57.20,KWYS 292240Z AUTO 24007G13KT 10SM CLR 14/M04 A2994 RMK AO2,M
WYS,2023-09-29 23:35,57.20,26.60,30.69,M,5.00,0.00,29.93,M,10.00,11.00,CLR,M,M,M,M,M,M,M,M,M,M,M,M,M,M,57.20,KWYS 292335Z AUTO VRB05G11KT 10SM CLR 14/M03 A2993 RMK AO2,M
WYS,2023-09-30 00:35,55.40,30.20,37.97,0.00,0.00,0.00,29.93,M,10.00,M,CLR,M,M,M,M,M,M,M,M,M,M,M,M,M,M,55.40,KWYS 300035Z AUTO 00000KT 10SM CLR 13/M01 A2993 RMK AO2,M
WYS,2023-09-30 01:40,50.00,33.80,53.54,0.00,0.00,0.00,29.93,M,10.00,M,CLR,M,M,M,M,M,M,M,M,M,M,M,M,M,M,50.00,KWYS 300140Z AUTO 00000KT 10SM CLR 10/01 A2993 RMK AO2,M
WYS,2023-09-30 02:40,46.40,32.00,57.00,0.00,0.00,0.00,29.94,M,10.00,M,BKN,M,M,M,9000.00,M,M,M,M,M,M,M,M,M,M,46.40,KWYS 300240Z AUTO 00000KT 10SM BKN090 08/00 A2994 RMK AO2,M
WYS,2023-09-30 03:40,44.60,33.80,65.61,0.00,0.00,0.00,29.93,M,10.00,M,FEW,OVC,M,M,8000.00,11000.00,M,M,M,M,M,M,M,M,M,44.60,KWYS 300340Z AUTO 00000KT 10SM FEW080 OVC110 07/01 A2993 RMK AO2,M
WYS,2023-09-30 04:40,41.00,33.80,75.33,M,3.00,0.00,29.92,M,10.00,M,FEW,OVC,M,M,7500.00,10000.00,M,M,M,M,M,M,M,M,M,38.98,KWYS 300440Z AUTO VRB03KT 10SM FEW075 OVC100 05/01 A2992 RMK AO2,M
WYS,2023-09-30 05:40,37.40,33.80,86.69,0.00,0.00,0.00,29.92,M,10.00,M,SCT,M,M,M,12000.00,M,M,M,M,M,M,M,M,M,M,37.40,KWYS 300540Z AUTO 00000KT 10SM SCT120 03/01 A2992 RMK AO2,M
WYS,2023-09-30 06:40,37.40,33.80,86.69,310.00,4.00,0.00,29.89,M,10.00,M,FEW,SCT,BKN,M,5000.00,8000.00,9500.00,M,M,M,M,M,M,M,M,33.73,KWYS 300640Z AUTO 31004KT 10SM FEW050 SCT080 BKN095 03/01 A2989 RMK AO2,M
WYS,2023-09-30 07:40,37.40,35.60,93.14,0.00,0.00,0.00,29.89,M,10.00,M,FEW,BKN,OVC,M,6500.00,9000.00,11000.00,M,M,M,M,M,M,M,M,37.40,KWYS 300740Z AUTO 00000KT 10SM FEW065 BKN090 OVC110 03/02 A2989 RMK AO2,M
WYS,2023-09-30 08:40,37.40,35.60,93.14,280.00,3.00,0.00,29.88,M,10.00,M,BKN,BKN,M,M,10000.00,12000.00,M,M,M,M,M,M,M,M,M,34.86,KWYS 300840Z AUTO 28003KT 10SM BKN100 BKN120 03/02 A2988 RMK AO2,M
WYS,2023-09-30 09:40,37.40,35.60,93.14,0.00,0.00,0.00,29.87,M,10.00,M,OVC,M,M,M,9000.00,M,M,M,M,M,M,M,M,M,M,37.40,KWYS 300940Z AUTO 00000KT 10SM OVC090 03/02 A2987 RMK AO2,M
WYS,2023-09-30 10:40,35.60,35.60,100.00,0.00,0.00,0.00,29.86,M,10.00,M,SCT,BKN,OVC,M,8000.00,9500.00,11000.00,M,M,M,M,M,M,M,M,35.60,KWYS 301040Z AUTO 00000KT 10SM SCT080 BKN095 OVC110 02/02 A2986 RMK AO2,M
WYS,2023-09-30 11:40,32.00,32.00,100.00,0.00,0.00,0.00,29.86,M,10.00,M,FEW,M,M,M,11000.00,M,M,M,M,M,M,M,M,M,M,32.00,KWYS 301140Z AUTO 00000KT 10SM FEW110 00/00 A2986 RMK AO2,M
WYS,2023-09-30 12:55,28.40,28.40,100.00,0.00,0.00,0.00,29.88,M,10.00,M,CLR,M,M,M,M,M,M,M,M,M,M,M,M,M,M,28.40,KWYS 301255Z AUTO 00000KT 10SM CLR M02/M02 A2988 RMK AO2,M
WYS,2023-09-30 13:40,28.40,28.40,100.00,210.00,5.00,0.00,29.89,M,10.00,M,CLR,M,M,M,M,M,M,M,M,M,M,M,M,M,M,22.12,KWYS 301340Z AUTO 21005KT 10SM CLR M02/M02 A2989 RMK AO2,M
WYS,2023-09-30 14:40,37.40,37.40,100.00,0.00,0.00,0.00,29.89,M,10.00,M,CLR,M,M,M,M,M,M,M,M,M,M,M,M,M,M,37.40,KWYS 301440Z AUTO 00000KT 10SM CLR 03/03 A2989 RMK AO2,M
WYS,2023-09-30 15:40,44.60,35.60,70.48,0.00,0.00,0.00,29.88,M,10.00,M,FEW,M,M,M,8500.00,M,M,M,M,M,M,M,M,M,M,44.60,KWYS 301540Z AUTO 00000KT 10SM FEW085 07/02 A2988 RMK AO2,M
WYS,2023-09-30 16:40,50.00,37.40,61.76,0.00,0.00,0.00,29.88,M,10.00,M,CLR,M,M,M,M,M,M,M,M,M,M,M,M,M,M,50.00,KWYS 301640Z AUTO 00000KT 10SM CLR 10/03 A2988 RMK AO2,M
WYS,2023-09-30 17:40,57.20,37.40,47.44,0.00,0.00,0.00,29.87,M,10.00,M,CLR,M,M,M,M,M,M,M,M,M,M,M,M,M,M,57.20,KWYS 301740Z AUTO 00000KT 10SM CLR 14/03 A2987 RMK AO2,M
WYS,2023-09-30 18:40,66.20,33.80,29.92,210.00,15.00,0.00,29.85,M,10.00,22.00,FEW,M,M,M,10000.00,M,M,M,M,M,M,M,M,M,M,66.20,KWYS 301840Z AUTO 21015G22KT 10SM FEW100 19/01 A2985 RMK AO2,M
WYS,2023-09-30 19:40,66.20,33.80,29.92,210.00,11.00,0.00,29.85,M,10.00,17.00,CLR,M,M,M,M,M,M,M,M,M,M,M,M,M,M,66.20,KWYS 301940Z AUTO 21011G17KT 180V250 10SM CLR 19/01 A2985 RMK AO2,M
WYS,2023-09-30 20:40,64.40,33.80,31.85,230.00,10.00,0.00,29.85,M,10.00,16.00,CLR,M,M,M,M,M,M,M,M,M,M,M,M,M,M,64.40,KWYS 302040Z AUTO 23010G16KT 10SM CLR 18/01 A2985 RMK AO2,M
WYS,2023-09-30 21:40,64.40,33.80,31.85,210.00,10.00,0.00,29.85,M,10.00,18.00,CLR,M,M,M,M,M,M,M,M,M,M,M,M,M,M,64.40,KWYS 302140Z AUTO 21010G18KT 10SM CLR 18/01 A2985 RMK AO2,M
WYS,2023-09-30 22:40,62.60,33.80,33.93,220.00,10.00,0.00,29.86,M,10.00,18.00,CLR,M,M,M,M,M,M,M,M,M,M,M,M,M,M,62.60,KWYS 302240Z AUTO 22010G18KT 10SM CLR 17/01 A2986 RMK AO2,M
WYS,2023-09-30 23:40,62.60,33.80,33.93,230.00,6.00,0.00,29.86,M,10.00,M,CLR,M,M,M,M,M,M,M,M,M,M,M,M,M,M,62.60,KWYS 302340Z AUTO 23006KT 10SM CLR 17/01 A2986 RMK AO2,M
WYS,2023-10-01 00:40,59.00,37.40,44.47,0.00,0.00,0.00,29.87,M,10.00,M,CLR,M,M,M,M,M,M,M,M,M,M,M,M,M,M,59.00,KWYS 010040Z AUTO 00000KT 10SM CLR 15/03 A2987 RMK AO2,M
WYS,2023-10-01 01:40,51.80,37.40,57.77,0.00,0.00,0.00,29.88,M,10.00,M,CLR,M,M,M,M,M,M,M,M,M,M,M,M,M,M,51.80,KWYS 010140Z AUTO 00000KT 10SM CLR 11/03 A2988 RMK AO2,M
WYS,2023-10-01 02:40,48.20,39.20,70.88,0.00,0.00,0.00,29.89,M,10.00,M,CLR,M,M,M,M,M,M,M,M,M,M,M,M,M,M,48.20,KWYS 010240Z AUTO 00000KT 10SM CLR 09/04 A2989 RMK AO2,M
WYS,2023-10-01 03:40,51.80,37.40,57.77,230.00,4.00,0.00,29.92,M,10.00,11.00,SCT,BKN,OVC,M,6500.00,7500.00,9500.00,M,M,M,M,M,M,M,M,51.80,KWYS 010340Z AUTO 23004G11KT 10SM SCT065 BKN075 OVC095 11/03 A2992 RMK AO2,M
WYS,2023-10-01 04:40,53.60,35.60,50.36,0.00,0.00,0.00,29.92,M,10.00,M,FEW,OVC,M,M,7500.00,9000.00,M,M,M,M,M,M,M,M,M,53.60,KWYS 010440Z AUTO 00000KT 10SM FEW075 OVC090 12/02 A2992 RMK AO2,M
WYS,2023-10-01 05:40,50.00,37.40,61.76,60.00,4.00,0.00,29.91,M,10.00,M,OVC,M,M,M,11000.00,M,M,M,M,M,M,M,M,M,M,50.00,KWYS 010540Z AUTO 06004KT 10SM OVC110 10/03 A2991 RMK AO2,M
WYS,2023-10-01 06:40,44.60,37.40,75.68,0.00,0.00,0.00,29.90,M,10.00,M,FEW,M,M,M,10000.00,M,M,M,M,M,M,M,M,M,M,44.60,KWYS 010640Z AUTO 00000KT 10SM FEW100 07/03 A2990 RMK AO2,M
WYS,2023-10-01 07:40,46.40,37.40,70.68,0.00,0.00,0.00,29.91,M,10.00,M,FEW,BKN,SCT,M,6000.00,7000.00,9000.00,M,M,M,M,M,M,M,M,46.40,KWYS 010740Z AUTO 00000KT 10SM FEW060 BKN070 SCT090 08/03 A2991 RMK AO2,M
WYS,2023-10-01 08:40,44.60,37.40,75.68,0.00,0.00,0.00,29.90,M,10.00,M,SCT,M,M,M,11000.00,M,M,M,M,M,M,M,M,M,M,44.60,KWYS 010840Z AUTO 00000KT 10SM SCT110 07/03 A2990 RMK AO2,M
WYS,2023-10-01 09:40,41.00,37.40,86.89,0.00,0.00,0.00,29.90,M,10.00,M,CLR,M,M,M,M,M,M,M,M,M,M,M,M,M,M,41.00,KWYS 010940Z AUTO 00000KT 10SM CLR 05/03 A2990 RMK AO2,M
WYS,2023-10-01 10:40,39.20,39.20,100.00,300.00,4.00,0.00,29.89,M,10.00,M,OVC,M,M,M,11000.00,M,M,M,M,M,M,M,M,M,M,35.83,KWYS 011040Z AUTO 30004KT 10SM OVC110 04/04 A2989 RMK AO2,M
WYS,2023-10-01 11:35,39.20,39.20,100.00,0.00,0.00,0.00,29.88,M,10.00,M,BKN,M,M,M,12000.00,M,M,M,M,M,M,M,M,M,M,39.20,KWYS 011135Z AUTO 00000KT 10SM BKN120 04/04 A2988 RMK AO2,M
WYS,2023-10-01 12:40,39.20,39.20,100.00,0.00,0.00,0.00,29.89,M,10.00,M,BKN,M,M,M,11000.00,M,M,M,M,M,M,M,M,M,M,39.20,KWYS 011240Z AUTO 00000KT 10SM BKN110 04/04 A2989 RMK AO2,M
WYS,2023-10-01 13:40,41.00,41.00,100.00,0.00,0.00,0.00,29.88,M,10.00,M,FEW,BKN,OVC,M,7000.00,10000.00,12000.00,M,M,M,M,M,M,M,M,41.00,KWYS 011340Z AUTO 00000KT 10SM FEW070 BKN100 OVC120 05/05 A2988 RMK AO2,M
WYS,2023-10-01 14:40,44.60,41.00,87.09,0.00,0.00,0.00,29.90,M,10.00,M,FEW,M,M,M,11000.00,M,M,M,M,M,M,M,M,M,M,44.60,KWYS 011440Z AUTO 00000KT 10SM FEW110 07/05 A2990 RMK AO2,M
WYS,2023-10-01 15:40,48.20,42.80,81.47,20.00,7.00,0.00,29.89,M,10.00,M,FEW,SCT,BKN,M,4400.00,5000.00,9500.00,M,M,M,M,M,M,M,M,44.53,KWYS 011540Z AUTO 02007KT 10SM FEW044 SCT050 BKN095 09/06 A2989 RMK AO2,M
WYS,2023-10-01 16:40,53.60,39.20,58.02,50.00,5.00,0.00,29.93,M,10.00,M,SCT,SCT,M,M,10000.00,12000.00,M,M,M,M,M,M,M,M,M,53.60,KWYS 011640Z AUTO 05005KT 10SM SCT100 SCT120 12/04 A2993 RMK AO2,M
WYS,2023-10-01 17:40,55.40,39.20,54.34,M,3.00,0.00,29.92,M,10.00,M,M,M,M,M,M,M,M,M,M,M,M,M,M,M,M,55.40,KWYS 011740Z AUTO VRB03KT 10SM 13/04 A2992 RMK AO2,M
WYS,2023-10-01 18:40,50.00,41.00,71.07,220.00,10.00,0.00,29.95,M,10.00,17.00,M,M,M,M,M,M,M,M,M,M,M,M,M,M,M,50.00,KWYS 011840Z AUTO 22010G17KT 10SM 10/05 A2995 RMK AO2,M
WYS,2023-10-01 19:40,48.20,44.60,87.28,200.00,9.00,0.00,29.97,M,10.00,16.00,BKN,BKN,OVC,M,4800.00,6000.00,7500.00,M,M,M,M,M,M,M,M,43.66,KWYS 011940Z AUTO 20009G16KT 10SM BKN048 BKN060 OVC075 09/07 A2997 RMK AO2,M
WYS,2023-10-01 20:35,50.00,41.00,71.07,0.00,0.00,0.00,29.95,M,10.00,M,M,M,M,M,M,M,M,M,M,M,M,M,M,M,M,50.00,KWYS 012035Z AUTO 00000KT 10SM 10/05 A2995 RMK AO2,M
WYS,2023-10-01 21:40,53.60,39.20,58.02,220.00,8.00,0.00,29.96,M,10.00,M,M,M,M,M,M,M,M,M,M,M,M,M,M,M,M,53.60,KWYS 012140Z AUTO 22008KT 10SM 12/04 A2996 RMK AO2,M
WYS,2023-10-01 22:40,55.40,37.40,50.64,210.00,9.00,0.00,29.97,M,10.00,17.00,M,M,M,M,M,M,M,M,M,M,M,M,M,M,M,55.40,KWYS 012240Z AUTO 21009G17KT 10SM 13/03 A2997 RMK AO2,M
WYS,2023-10-01 23:40,41.00,41.00,100.00,230.00,14.00,0.00,30.04,M,2.00,33.00,M,M,M,M,M,M,M,M,-RA,M,M,M,M,M,M,32.76,KWYS 012340Z AUTO 23014G33KT 2SM -RA 05/05 A3004 RMK AO2,M
WYS,2023-10-02 00:40,41.00,41.00,100.00,180.00,6.00,0.00,30.08,M,10.00,M,FEW,SCT,M,M,2600.00,12000.00,M,M,M,M,M,M,M,M,M,36.37,KWYS 020040Z AUTO 18006KT 10SM FEW026 SCT120 05/05 A3008 RMK AO2,M
WYS,2023-10-02 01:40,37.40,37.40,100.00,0.00,0.00,0.00,30.08,M,10.00,M,CLR,M,M,M,M,M,M,M,M,M,M,M,M,M,M,37.40,KWYS 020140Z AUTO 00000KT 10SM CLR 03/03 A3008 RMK AO2,M
WYS,2023-10-02 02:40,33.80,33.80,100.00,0.00,0.00,0.00,30.10,M,10.00,M,CLR,M,M,M,M,M,M,M,M,M,M,M,M,M,M,33.80,KWYS 020240Z AUTO 00000KT 10SM CLR 01/01 A3010 RMK AO2,M
WYS,2023-10-02 03:40,32.00,32.00,100.00,0.00,0.00,0.00,30.09,M,10.00,M,FEW,M,M,M,4900.00,M,M,M,M,M,M,M,M,M,M,32.00,KWYS 020340Z AUTO 00000KT 10SM FEW049 M00/00 A3009 RMK AO2,M
WYS,2023-10-02 04:40,30.20,30.20,100.00,0.00,0.00,0.00,30.10,M,10.00,M,CLR,M,M,M,M,M,M,M,M,M,M,M,M,M,M,30.20,KWYS 020440Z AUTO 00000KT 10SM CLR M01/M01 A3010 RMK AO2,M
WYS,2023-10-02 05:40,30.20,30.20,100.00,0.00,0.00,0.00,30.10,M,10.00,M,CLR,M,M,M,M,M,M,M,M,M,M,M,M,M,M,30.20,KWYS 020540Z AUTO 00000KT 10SM CLR M01/M01 A3010 RMK AO2,M
WYS,2023-10-02 06:40,28.40,28.40,100.00,0.00,0.00,0.00,30.09,M,10.00,M,CLR,M,M,M,M,M,M,M,M,M,M,M,M,M,M,28.40,KWYS 020640Z AUTO 00000KT 10SM CLR M02/M02 A3009 RMK AO2,M
WYS,2023-10-02 07:40,26.60,26.60,100.00,0.00,0.00,0.00,30.09,M,10.00,M,OVC,M,M,M,300.00,M,M,M,M,M,M,M,M,M,M,26.60,KWYS 020740Z AUTO 00000KT 10SM OVC003 M03/M03 A3009 RMK AO2,M
WYS,2023-10-02 08:55,30.20,30.20,100.00,0.00,0.00,0.00,30.08,M,0.25,M,OVC,M,M,M,200.00,M,M,M,FZFG,M,M,M,M,M,M,30.20,KWYS 020855Z AUTO 00000KT M1/4SM FZFG OVC002 M01/M01 A3008 RMK AO2,M
WYS,2023-10-02 09:35,30.20,32.00,M,0.00,0.00,0.00,30.07,M,0.25,M,OVC,M,M,M,200.00,M,M,M,FZFG,M,M,M,M,M,M,M,KWYS 020935Z AUTO 00000KT M1/4SM FZFG OVC002 M01/M00 A3007 RMK AO2,M
WYS,2023-10-02 10:55,32.00,32.00,100.00,0.00,0.00,0.00,30.06,M,0.25,M,OVC,M,M,M,200.00,M,M,M,FZFG,M,M,M,M,M,M,32.00,KWYS 021055Z AUTO 00000KT 1/4SM FZFG OVC002 M00/M00 A3006 RMK AO2,M
WYS,2023-10-02 11:55,30.20,30.20,100.00,120.00,3.00,0.00,30.05,M,0.25,M,OVC,M,M,M,200.00,M,M,M,FZFG,M,M,M,M,M,M,26.63,KWYS 021155Z AUTO 12003KT M1/4SM FZFG OVC002 M01/M01 A3005 RMK AO2,M
WYS,2023-10-02 12:55,30.20,32.00,M,110.00,4.00,0.00,30.05,M,0.25,M,OVC,M,M,M,200.00,M,M,M,FZFG,M,M,M,M,M,M,M,KWYS 021255Z AUTO 11004KT M1/4SM FZFG OVC002 M01/M00 A3005 RMK AO2,M
WYS,2023-10-02 13:35,32.00,32.00,100.00,0.00,0.00,0.00,30.04,M,0.25,M,OVC,M,M,M,200.00,M,M,M,FZFG,M,M,M,M,M,M,32.00,KWYS 021335Z AUTO 00000KT M1/4SM FZFG OVC002 M00/M00 A3004 RMK AO2,M
WYS,2023-10-02 14:55,32.00,32.00,100.00,100.00,3.00,0.00,30.04,M,0.25,M,OVC,M,M,M,200.00,M,M,M,FG,M,M,M,M,M,M,28.69,KWYS 021455Z AUTO 10003KT M1/4SM FG OVC002 00/00 A3004 RMK AO2,M
WYS,2023-10-02 15:55,32.00,32.00,100.00,0.00,0.00,0.00,30.04,M,9.00,M,OVC,M,M,M,300.00,M,M,M,M,M,M,M,M,M,M,32.00,KWYS 021555Z AUTO 00000KT 9SM OVC003 00/00 A3004 RMK AO2,M
WYS,2023-10-02 16:55,33.80,33.80,100.00,0.00,0.00,0.00,30.03,M,10.00,M,OVC,M,M,M,300.00,M,M,M,M,M,M,M,M,M,M,33.80,KWYS 021655Z AUTO 00000KT 10SM OVC003 01/01 A3003 RMK AO2,M
WYS,2023-10-02 17:55,35.60,35.60,100.00,0.00,0.00,0.00,30.01,M,10.00,M,M,M,M,M,M,M,M,M,M,M,M,M,M,M,M,35.60,KWYS 021755Z AUTO 00000KT 10SM 02/02 A3001 RMK AO2,M
WYS,2023-10-02 18:55,39.20,39.20,100.00,0.00,0.00,0.00,29.96,M,7.00,M,FEW,M,M,M,700.00,M,M,M,-UP,M,M,M,M,M,M,39.20,KWYS 021855Z AUTO 00000KT 7SM -UP FEW007 04/04 A2996 RMK AO2,M
WYS,2023-10-02 19:55,41.00,41.00,100.00,230.00,5.00,0.00,29.94,M,9.00,M,SCT,BKN,M,M,500.00,3700.00,M,M,M,M,M,M,M,M,M,37.08,KWYS 021955Z AUTO 23005KT 9SM SCT005 BKN037 05/05 A2994 RMK AO2,M
WYS,2023-10-02 20:55,42.80,42.80,100.00,210.00,6.00,0.01,29.93,M,6.00,M,OVC,M,M,M,2900.00,M,M,M,BR,M,M,M,M,M,M,38.54,KWYS 022055Z AUTO 21006KT 6SM BR OVC029 06/06 A2993 RMK AO2 P0001,M
WYS,2023-10-02 21:55,41.00,41.00,100.00,220.00,11.00,0.00,29.94,M,6.00,18.00,SCT,BKN,BKN,M,2100.00,2700.00,3200.00,M,BR,M,M,M,M,M,M,33.84,KWYS 022155Z AUTO 22011G18KT 6SM BR SCT021 BKN027 BKN032 05/05 A2994 RMK AO2,M
WYS,2023-10-02 22:55,41.00,41.00,100.00,230.00,8.00,0.00,29.96,M,10.00,M,FEW,OVC,M,M,1000.00,2800.00,M,M,M,M,M,M,M,M,M,35.20,KWYS 022255Z AUTO 23008KT 10SM FEW010 OVC028 05/05 A2996 RMK AO2,M
WYS,2023-10-02 23:55,39.20,39.20,100.00,220.00,9.00,0.00,29.97,M,5.00,M,FEW,OVC,M,M,800.00,2600.00,M,M,BR,M,M,M,M,M,M,32.47,KWYS 022355Z AUTO 22009KT 5SM BR FEW008 OVC026 04/04 A2997 RMK AO2,M
WYS,2023-10-03 00:40,37.40,37.40,100.00,220.00,8.00,0.00,29.97,M,4.00,M,FEW,M,M,M,3000.00,M,M,M,-RA,M,M,M,M,M,M,30.76,KWYS 030040Z AUTO 22008KT 4SM -RA FEW030 03/03 A2997 RMK AO2,M
WYS,2023-10-03 01:55,37.40,37.40,100.00,220.00,10.00,0.00,29.97,M,10.00,M,SCT,BKN,OVC,M,4200.00,5500.00,6500.00,M,M,M,M,M,M,M,M,29.74,KWYS 030155Z AUTO 22010KT 10SM SCT042 BKN055 OVC065 03/03 A2997 RMK AO2,M
WYS,2023-10-03 02:40,39.20,39.20,100.00,250.00,8.00,0.00,29.98,M,10.00,M,FEW,SCT,BKN,M,800.00,4600.00,5500.00,M,M,M,M,M,M,M,M,32.98,KWYS 030240Z AUTO 25008KT 10SM FEW008 SCT046 BKN055 04/04 A2998 RMK AO2,M
WYS,2023-10-03 03:55,39.20,39.20,100.00,210.00,7.00,0.00,29.99,M,8.00,M,FEW,SCT,BKN,M,1600.00,2600.00,3100.00,M,-RA,M,M,M,M,M,M,33.56,KWYS 030355Z AUTO 21007KT 8SM -RA FEW016 SCT026 BKN031 04/04 A2999 RMK AO2,M
WYS,2023-10-03 04:35,37.40,37.40,100.00,190.00,8.00,0.00,29.98,M,10.00,M,OVC,M,M,M,2900.00,M,M,M,M,M,M,M,M,M,M,30.76,KWYS 030435Z AUTO 19008KT 10SM OVC029 03/03 A2998 RMK AO2,M
WYS,2023-10-03 05:40,37.40,37.40,100.00,200.00,6.00,0.00,29.96,M,10.00,M,BKN,BKN,OVC,M,1400.00,1800.00,3500.00,M,M,M,M,M,M,M,M,32.03,KWYS 030540Z AUTO 20006KT 10SM BKN014 BKN018 OVC035 03/03 A2996 RMK AO2,M
WYS,2023-10-03 06:55,37.40,37.40,100.00,220.00,5.00,0.00,29.94,M,8.00,M,BKN,OVC,M,M,1500.00,3400.00,M,M,-RA,M,M,M,M,M,M,32.81,KWYS 030655Z AUTO 22005KT 8SM -RA BKN015 OVC034 03/03 A2994 RMK AO2,M
WYS,2023-10-03 07:55,39.20,39.20,100.00,190.00,8.00,0.00,29.94,M,10.00,M,SCT,OVC,M,M,3300.00,4200.00,M,M,M,M,M,M,M,M,M,32.98,KWYS 030755Z AUTO 19008KT 10SM SCT033 OVC042 04/04 A2994 RMK AO2,M
WYS,2023-10-03 08:55,37.40,37.40,100.00,260.00,3.00,0.00,29.94,M,10.00,10.00,BKN,BKN,OVC,M,4900.00,6000.00,7500.00,M,M,M,M,M,M,M,M,34.86,KWYS 030855Z AUTO 26003G10KT 10SM BKN049 BKN060 OVC075 03/03 A2994 RMK AO2,M
WYS,2023-10-03 09:40,37.40,37.40,100.00,210.00,4.00,0.00,29.94,M,10.00,M,M,M,M,M,M,M,M,M,M,M,M,M,M,M,M,33.73,KWYS 030940Z AUTO 21004KT 10SM 03/03 A2994 RMK AO2,M
WYS,2023-10-03 10:55,37.40,37.40,100.00,0.00,0.00,0.00,29.93,M,10.00,M,FEW,SCT,OVC,M,1500.00,1900.00,4600.00,M,M,M,M,M,M,M,M,37.40,KWYS 031055Z AUTO 00000KT 10SM FEW015 SCT019 OVC046 03/03 A2993 RMK AO2,M
WYS,2023-10-03 11:40,37.40,37.40,100.00,0.00,0.00,0.00,29.94,M,10.00,M,BKN,BKN,OVC,M,1800.00,3400.00,6000.00,M,M,M,M,M,M,M,M,37.40,KWYS 031140Z AUTO 00000KT 10SM BKN018 BKN034 OVC060 03/03 A2994 RMK AO2,M
WYS,2023-10-03 12:55,37.40,37.40,100.00,0.00,0.00,0.00,29.94,M,7.00,M,BKN,BKN,M,M,2900.00,3700.00,M,M,M,M,M,M,M,M,M,37.40,KWYS 031255Z AUTO 00000KT 7SM BKN029 BKN037 03/03 A2994 RMK AO2,M
WYS,2023-10-03 13:55,37.40,37.40,100.00,200.00,4.00,0.00,29.95,M,9.00,M,FEW,SCT,BKN,M,1800.00,4400.00,10000.00,M,M,M,M,M,M,M,M,33.73,KWYS 031355Z AUTO 20004KT 9SM FEW018 SCT044 BKN100 03/03 A2995 RMK AO2,M
WYS,2023-10-03 14:35,37.40,37.40,100.00,0.00,0.00,0.00,29.97,M,10.00,M,FEW,SCT,BKN,M,1800.00,2500.00,9000.00,M,M,M,M,M,M,M,M,37.40,KWYS 031435Z AUTO 00000KT 10SM FEW018 SCT025 BKN090 03/03 A2997 RMK AO2,M
WYS,2023-10-03 15:55,39.20,41.00,M,0.00,0.00,0.00,30.00,M,10.00,M,OVC,M,M,M,4300.00,M,M,M,M,M,M,M,M,M,M,M,KWYS 031555Z AUTO 00000KT 10SM OVC043 04/05 A3000 RMK AO2,M
WYS,2023-10-03 16:55,41.00,41.00,100.00,200.00,4.00,0.00,30.01,M,10.00,M,OVC,M,M,M,4600.00,M,M,M,M,M,M,M,M,M,M,37.93,KWYS 031655Z AUTO 20004KT 10SM OVC046 05/05 A3001 RMK AO2,M
WYS,2023-10-03 17:40,42.80,41.00,93.30,230.00,5.00,0.00,30.02,M,10.00,M,BKN,OVC,M,M,1600.00,2400.00,M,M,M,M,M,M,M,M,M,39.22,KWYS 031740Z AUTO 23005KT 10SM BKN016 OVC024 06/05 A3002 RMK AO2,M
WYS,2023-10-03 18:55,44.60,39.20,81.20,230.00,5.00,0.00,30.04,M,10.00,M,FEW,OVC,M,M,4000.00,5000.00,M,M,M,M,M,M,M,M,M,41.36,KWYS 031855Z AUTO 23005KT 10SM FEW040 OVC050 07/04 A3004 RMK AO2,M
WYS,2023-10-03 19:55,44.60,37.40,75.68,0.00,0.00,0.00,30.05,M,10.00,M,FEW,SCT,BKN,M,3800.00,4600.00,5500.00,M,M,M,M,M,M,M,M,44.60,KWYS 031955Z AUTO 00000KT 10SM FEW038 SCT046 BKN055 07/03 A3005 RMK AO2,M
WYS,2023-10-03 20:40,42.80,41.00,93.30,220.00,5.00,0.00,30.05,M,10.00,M,FEW,BKN,M,M,2500.00,6500.00,M,M,M,M,M,M,M,M,M,39.22,KWYS 032040Z AUTO 22005KT 10SM FEW025 BKN065 06/05 A3005 RMK AO2,M
WYS,2023-10-03 21:40,46.40,42.80,87.19,220.00,6.00,0.00,30.06,M,10.00,M,SCT,BKN,M,M,6000.00,7000.00,M,M,M,M,M,M,M,M,M,42.87,KWYS 032140Z AUTO 22006KT 10SM SCT060 BKN070 08/06 A3006 RMK AO2,M
WYS,2023-10-03 22:40,44.60,39.20,81.20,50.00,9.00,0.00,30.07,M,10.00,M,SCT,BKN,OVC,M,3000.00,4200.00,4900.00,M,M,M,M,M,M,M,M,39.18,KWYS 032240Z AUTO 05009KT 10SM SCT030 BKN042 OVC049 07/04 A3007 RMK AO2,M
WYS,2023-10-03 23:40,44.60,41.00,87.09,180.00,7.00,0.00,30.08,M,10.00,M,FEW,FEW,M,M,7500.00,12000.00,M,M,M,M,M,M,M,M,M,40.14,KWYS 032340Z AUTO 18007KT 10SM FEW075 FEW120 07/05 A3008 RMK AO2,M
WYS,2023-10-04 00:40,42.80,42.80,100.00,200.00,5.00,0.00,30.08,M,10.00,M,OVC,M,M,M,8500.00,M,M,M,M,M,M,M,M,M,M,39.22,KWYS 040040Z AUTO 20005KT 10SM OVC085 06/06 A3008 RMK AO2,M
WYS,2023-10-04 01:40,41.00,41.00,100.00,0.00,0.00,0.00,30.09,M,6.00,M,BKN,BKN,OVC,M,3100.00,4100.00,9500.00,M,-RA,M,M,M,M,M,M,41.00,KWYS 040140Z AUTO 00000KT 6SM -RA BKN031 BKN041 OVC095 05/05 A3009 RMK AO2,M
WYS,2023-10-04 02:40,39.20,41.00,M,220.00,3.00,0.00,30.10,M,10.00,M,OVC,M,M,M,6500.00,M,M,M,M,M,M,M,M,M,M,M,KWYS 040240Z AUTO 22003KT 10SM OVC065 04/05 A3010 RMK AO2,M
WYS,2023-10-04 03:40,41.00,41.00,100.00,0.00,0.00,0.00,30.12,M,9.00,M,SCT,SCT,BKN,M,1900.00,2500.00,3200.00,M,-RA,M,M,M,M,M,M,41.00,KWYS 040340Z AUTO 00000KT 9SM -RA SCT019 SCT025 BKN032 05/05 A3012 RMK AO2,M
WYS,2023-10-04 04:40,39.20,39.20,100.00,220.00,4.00,0.00,30.13,M,10.00,M,FEW,OVC,M,M,2700.00,4300.00,M,M,M,M,M,M,M,M,M,35.83,KWYS 040440Z AUTO 22004KT 10SM FEW027 OVC043 04/04 A3013 RMK AO2,M
WYS,2023-10-04 05:40,39.20,39.20,100.00,220.00,6.00,0.00,30.13,M,10.00,M,BKN,OVC,M,M,3700.00,5000.00,M,M,M,M,M,M,M,M,M,34.20,KWYS 040540Z AUTO 22006KT 10SM BKN037 OVC050 04/04 A3013 RMK AO2,M
WYS,2023-10-04 06:40,37.40,39.20,M,200.00,6.00,0.00,30.13,M,10.00,M,SCT,BKN,OVC,M,800.00,3300.00,6000.00,M,M,M,M,M,M,M,M,M,KWYS 040640Z AUTO 20006KT 10SM SCT008 BKN033 OVC060 03/04 A3013 RMK AO2,M
WYS,2023-10-04 07:40,37.40,37.40,100.00,210.00,8.00,0.00,30.13,M,10.00,M,FEW,SCT,BKN,M,400.00,5500.00,7500.00,M,M,M,M,M,M,M,M,30.76,KWYS 040740Z AUTO 21008KT 10SM FEW004 SCT055 BKN075 03/03 A3013 RMK AO2,M
WYS,2023-10-04 08:40,37.40,37.40,100.00,230.00,7.00,0.00,30.13,M,10.00,12.00,FEW,FEW,OVC,M,600.00,1700.00,6000.00,M,M,M,M,M,M,M,M,31.36,KWYS 040840Z AUTO 23007G12KT 10SM FEW006 FEW017 OVC060 03/03 A3013 RMK AO2,M
WYS,2023-10-04 09:40,37.40,37.40,100.00,220.00,11.00,0.00,30.14,M,10.00,16.00,FEW,SCT,BKN,M,2600.00,3300.00,3900.00,M,M,M,M,M,M,M,M,29.29,KWYS 040940Z AUTO 22011G16KT 10SM FEW026 SCT033 BKN039 03/03 A3014 RMK AO2,M
WYS,2023-10-04 10:40,37.40,37.40,100.00,210.00,10.00,0.00,30.14,M,10.00,15.00,FEW,FEW,OVC,M,800.00,2600.00,5000.00,M,M,M,M,M,M,M,M,29.74,KWYS 041040Z AUTO 21010G15KT 10SM FEW008 FEW026 OVC050 03/03 A3014 RMK AO2,M
WYS,2023-10-04 11:40,37.40,37.40,100.00,210.00,10.00,0.00,30.15,M,10.00,M,FEW,SCT,OVC,M,500.00,4000.00,5000.00,M,M,M,M,M,M,M,M,29.74,KWYS 041140Z AUTO 21010KT 10SM FEW005 SCT040 OVC050 03/03 A3015 RMK AO2,M
WYS,2023-10-04 12:40,37.40,37.40,100.00,220.00,9.00,0.00,30.15,M,10.00,M,FEW,FEW,OVC,M,3500.00,4200.00,4800.00,M,M,M,M,M,M,M,M,30.23,KWYS 041240Z AUTO 22009KT 10SM FEW035 FEW042 OVC048 03/03 A3015 RMK AO2,M
WYS,2023-10-04 13:40,37.40,37.40,100.00,210.00,5.00,0.00,30.16,M,10.00,M,OVC,M,M,M,4000.00,M,M,M,M,M,M,M,M,M,M,32.81,KWYS 041340Z AUTO 21005KT 10SM OVC040 03/03 A3016 RMK AO2,M
WYS,2023-10-04 14:40,39.20,39.20,100.00,210.00,9.00,0.00,30.17,M,10.00,M,OVC,M,M,M,4400.00,M,M,M,M,M,M,M,M,M,M,32.47,KWYS 041440Z AUTO 21009KT 10SM OVC044 04/04 A3017 RMK AO2,M
WYS,2023-10-04 15:40,39.20,39.20,100.00,220.00,11.00,0.00,30.19,M,10.00,M,OVC,M,M,M,3700.00,M,M,M,M,M,M,M,M,M,M,31.57,KWYS 041540Z AUTO 22011KT 10SM OVC037 04/04 A3019 RMK AO2,M
WYS,2023-10-04 16:35,41.00,41.00,100.00,190.00,8.00,0.00,30.21,M,10.00,M,OVC,M,M,M,4800.00,M,M,M,M,M,M,M,M,M,M,35.20,KWYS 041635Z AUTO 19008KT 10SM OVC048 05/05 A3021 RMK AO2,M
WYS,2023-10-04 17:40,44.60,42.80,93.35,210.00,8.00,0.00,30.22,M,10.00,M,OVC,M,M,M,4900.00,M,M,M,M,M,M,M,M,M,M,39.63,KWYS 041740Z AUTO 21008KT 10SM OVC049 07/06 A3022 RMK AO2,M
WYS,2023-10-04 18:40,44.60,41.00,87.09,220.00,12.00,0.00,30.22,M,10.00,17.00,OVC,M,M,M,5000.00,M,M,M,M,M,M,M,M,M,M,38.04,KWYS 041840Z AUTO 22012G17KT 10SM OVC050 07/05 A3022 RMK AO2,M
WYS,2023-10-04 19:40,44.60,42.80,93.35,220.00,15.00,0.00,30.23,M,10.00,20.00,M,M,M,M,M,M,M,M,M,M,M,M,M,M,M,37.11,KWYS 041940Z AUTO 22015G20KT 10SM 07/06 A3023 RMK AO2,M
WYS,2023-10-04 20:40,44.60,44.60,100.00,210.00,13.00,0.00,30.23,M,10.00,18.00,FEW,SCT,BKN,M,2600.00,3100.00,5000.00,M,M,M,M,M,M,M,M,37.71,KWYS 042040Z AUTO 21013G18KT 10SM FEW026 SCT031 BKN050 07/07 A3023 RMK AO2,M
WYS,2023-10-04 21:40,44.60,44.60,100.00,200.00,15.00,0.00,30.23,M,10.00,M,FEW,BKN,OVC,M,2200.00,4700.00,5500.00,M,M,M,M,M,M,M,M,37.11,KWYS 042140Z AUTO 20015KT 10SM FEW022 BKN047 OVC055 07/07 A3023 RMK AO2,M
WYS,2023-10-04 22:40,44.60,44.60,100.00,210.00,14.00,0.00,30.23,M,10.00,M,BKN,OVC,M,M,4700.00,5500.00,M,M,M,M,M,M,M,M,M,37.40,KWYS 042240Z AUTO 21014KT 10SM BKN047 OVC055 07/07 A3023 RMK AO2,M
WYS,2023-10-04 23:40,44.60,44.60,100.00,210.00,14.00,0.00,30.24,M,10.00,M,BKN,OVC,M,M,4500.00,5000.00,M,M,M,M,M,M,M,M,M,37.40,KWYS 042340Z AUTO 21014KT 10SM BKN045 OVC050 07/07 A3024 RMK AO2,M
WYS,2023-10-05 00:40,44.60,44.60,100.00,200.00,8.00,0.00,30.25,M,10.00,M,OVC,M,M,M,5500.00,M,M,M,M,M,M,M,M,M,M,39.63,KWYS 050040Z AUTO 20008KT 10SM OVC055 07/07 A3025 RMK AO2,M
WYS,2023-10-05 01:40,46.40,42.80,87.19,220.00,9.00,0.00,30.26,M,10.00,M,OVC,M,M,M,5500.00,M,M,M,M,M,M,M,M,M,M,41.42,KWYS 050140Z AUTO 22009KT 10SM OVC055 08/06 A3026 RMK AO2,M
WYS,2023-10-05 02:40,46.40,42.80,87.19,210.00,6.00,0.00,30.27,M,10.00,M,OVC,M,M,M,6000.00,M,M,M,M,M,M,M,M,M,M,42.87,KWYS 050240Z AUTO 21006KT 10SM OVC060 08/06 A3027 RMK AO2,M
WYS,2023-10-05 03:40,46.40,44.60,93.40,220.00,9.00,0.00,30.28,M,10.00,15.00,OVC,M,M,M,5500.00,M,M,M,M,M,M,M,M,M,M,41.42,KWYS 050340Z AUTO 22009G15KT 10SM OVC055 08/07 A3028 RMK AO2,M
WYS,2023-10-05 04:40,44.60,44.60,100.00,210.00,9.00,0.00,30.30,M,10.00,M,OVC,M,M,M,5500.00,M,M,M,M,M,M,M,M,M,M,39.18,KWYS 050440Z AUTO 21009KT 10SM OVC055 07/07 A3030 RMK AO2,M
WYS,2023-10-05 05:40,44.60,44.60,100.00,220.00,9.00,0.00,30.31,M,10.00,M,FEW,SCT,OVC,M,3400.00,5000.00,6000.00,M,M,M,M,M,M,M,M,39.18,KWYS 050540Z AUTO 22009KT 10SM FEW034 SCT050 OVC060 07/07 A3031 RMK AO2,M
WYS,2023-10-05 06:40,44.60,44.60,100.00,220.00,6.00,0.00,30.33,M,10.00,M,BKN,OVC,M,M,4400.00,5000.00,M,M,M,M,M,M,M,M,M,40.71,KWYS 050640Z AUTO 22006KT 10SM BKN044 OVC050 07/07 A3033 RMK AO2,M
WYS,2023-10-05 07:40,41.00,41.00,100.00,0.00,0.00,0.00,30.34,M,10.00,M,SCT,M,M,M,6000.00,M,M,M,M,M,M,M,M,M,M,41.00,KWYS 050740Z AUTO 00000KT 10SM SCT060 05/05 A3034 RMK AO2,M
WYS,2023-10-05 08:35,37.40,37.40,100.00,0.00,0.00,0.00,30.36,M,10.00,M,FEW,M,M,M,5000.00,M,M,M,M,M,M,M,M,M,M,37.40,KWYS 050835Z AUTO 00000KT 10SM FEW050 03/03 A3036 RMK AO2,M
WYS,2023-10-05 09:40,37.40,37.40,100.00,250.00,4.00,0.00,30.36,M,10.00,M,CLR,M,M,M,M,M,M,M,M,M,M,M,M,M,M,33.73,KWYS 050940Z AUTO 25004KT 10SM CLR 03/03 A3036 RMK AO2,M
WYS,2023-10-05 10:40,30.20,30.20,100.00,0.00,0.00,0.00,30.37,M,9.00,M,CLR,M,M,M,M,M,M,M,M,M,M,M,M,M,M,30.20,KWYS 051040Z AUTO 00000KT 9SM CLR M01/M01 A3037 RMK AO2,M
WYS,2023-10-05 11:40,30.20,30.20,100.00,0.00,0.00,0.00,30.39,M,10.00,M,FEW,M,M,M,5500.00,M,M,M,M,M,M,M,M,M,M,30.20,KWYS 051140Z AUTO 00000KT 10SM FEW055 M01/M01 A3039 RMK AO2,M
WYS,2023-10-05 12:40,28.40,28.40,100.00,210.00,3.00,0.00,30.39,M,10.00,M,CLR,M,M,M,M,M,M,M,M,M,M,M,M,M,M,24.57,KWYS 051240Z AUTO 21003KT 10SM CLR M02/M02 A3039 RMK AO2,M
WYS,2023-10-05 13:40,28.40,28.40,100.00,30.00,4.00,0.00,30.42,M,10.00,M,FEW,SCT,M,M,200.00,4700.00,M,M,M,M,M,M,M,M,M,23.22,KWYS 051340Z AUTO 03004KT 10SM FEW002 SCT047 M02/M02 A3042 RMK AO2,M
WYS,2023-10-05 14:40,32.00,32.00,100.00,0.00,0.00,0.00,30.42,M,10.00,M,CLR,M,M,M,M,M,M,M,M,M,M,M,M,M,M,32.00,KWYS 051440Z AUTO 00000KT 10SM CLR 00/00 A3042 RMK AO2,M
WYS,2023-10-05 15:40,37.40,37.40,100.00,0.00,0.00,0.00,30.42,M,9.00,M,FEW,SCT,M,M,300.00,4900.00,M,M,M,M,M,M,M,M,M,37.40,KWYS 051540Z AUTO 00000KT 9SM FEW003 SCT049 03/03 A3042 RMK AO2,M
WYS,2023-10-05 16:40,44.60,41.00,87.09,0.00,0.00,0.00,30.42,M,10.00,M,M,M,M,M,M,M,M,M,M,M,M,M,M,M,M,44.60,KWYS 051640Z AUTO 00000KT 10SM 07/05 A3042 RMK AO2,M
WYS,2023-10-05 17:35,50.00,37.40,61.76,210.00,5.00,0.00,30.41,M,10.00,M,M,M,M,M,M,M,M,M,M,M,M,M,M,M,M,50.00,KWYS 051735Z AUTO 21005KT 10SM 10/03 A3041 RMK AO2,M
WYS,2023-10-05 18:40,51.80,35.60,53.81,M,4.00,0.00,30.40,M,10.00,M,M,M,M,M,M,M,M,M,M,M,M,M,M,M,M,51.80,KWYS 051840Z AUTO VRB04KT 10SM 11/02 A3040 RMK AO2,M
WYS,2023-10-05 19:40,51.80,35.60,53.81,270.00,7.00,0.00,30.40,M,10.00,16.00,M,M,M,M,M,M,M,M,M,M,M,M,M,M,M,51.80,KWYS 051940Z AUTO 27007G16KT 230V290 10SM 11/02 A3040 RMK AO2,M
WYS,2023-10-05 20:40,51.80,37.40,57.77,230.00,5.00,0.00,30.39,M,10.00,M,M,M,M,M,M,M,M,M,M,M,M,M,M,M,M,51.80,KWYS 052040Z AUTO 23005KT 10SM 11/03 A3039 RMK AO2,M
WYS,2023-10-05 21:40,53.60,37.40,54.07,230.00,10.00,0.00,30.39,M,10.00,M,M,M,M,M,M,M,M,M,M,M,M,M,M,M,M,53.60,KWYS 052140Z AUTO 23010KT 10SM 12/03 A3039 RMK AO2,M
WYS,2023-10-05 22:40,55.40,37.40,50.64,220.00,11.00,0.00,30.38,M,10.00,M,M,M,M,M,M,M,M,M,M,M,M,M,M,M,M,55.40,KWYS 052240Z AUTO 22011KT 10SM 13/03 A3038 RMK AO2,M
WYS,2023-10-05 23:40,51.80,41.00,66.48,220.00,12.00,0.00,30.38,M,10.00,M,M,M,M,M,M,M,M,M,M,M,M,M,M,M,M,51.80,KWYS 052340Z AUTO 22012KT 10SM 11/05 A3038 RMK AO2,M
WYS,2023-10-06 00:55,50.00,41.00,71.07,210.00,10.00,0.00,30.39,M,10.00,M,BKN,OVC,M,M,6000.00,7000.00,M,M,M,M,M,M,M,M,M,50.00,KWYS 060055Z AUTO 21010KT 10SM BKN060 OVC070 10/05 A3039 RMK AO2,M
WYS,2023-10-06 01:40,50.00,41.00,71.07,220.00,4.00,0.00,30.41,M,10.00,M,OVC,M,M,M,6000.00,M,M,M,M,M,M,M,M,M,M,50.00,KWYS 060140Z AUTO 22004KT 10SM OVC060 10/05 A3041 RMK AO2,M
WYS,2023-10-06 02:40,48.20,41.00,76.01,0.00,0.00,0.00,30.41,M,10.00,M,BKN,OVC,M,M,5500.00,6500.00,M,M,M,M,M,M,M,M,M,48.20,KWYS 060240Z AUTO 00000KT 10SM BKN055 OVC065 09/05 A3041 RMK AO2,M
WYS,2023-10-06 03:40,48.20,41.00,76.01,0.00,0.00,0.00,30.43,M,10.00,M,BKN,OVC,M,M,6500.00,7500.00,M,M,M,M,M,M,M,M,M,48.20,KWYS 060340Z AUTO 00000KT 10SM BKN065 OVC075 09/05 A3043 RMK AO2,M
WYS,2023-10-06 04:40,44.60,42.80,93.35,0.00,0.00,0.00,30.44,M,10.00,M,OVC,M,M,M,6500.00,M,M,M,M,M,M,M,M,M,M,44.60,KWYS 060440Z AUTO 00000KT 10SM OVC065 07/06 A3044 RMK AO2,M
WYS,2023-10-06 05:40,41.00,41.00,100.00,0.00,0.00,0.00,30.45,M,10.00,M,FEW,SCT,OVC,M,4800.00,5500.00,6500.00,M,M,M,M,M,M,M,M,41.00,KWYS 060540Z AUTO 00000KT 10SM FEW048 SCT055 OVC065 05/05 A3045 RMK AO2,M
WYS,2023-10-06 06:40,41.00,41.00,100.00,0.00,0.00,0.00,30.45,M,10.00,M,BKN,M,M,M,6000.00,M,M,M,M,M,M,M,M,M,M,41.00,KWYS 060640Z AUTO 00000KT 10SM BKN060 05/05 A3045 RMK AO2,M
WYS,2023-10-06 07:40,37.40,37.40,100.00,0.00,0.00,0.00,30.45,M,10.00,M,BKN,M,M,M,6000.00,M,M,M,M,M,M,M,M,M,M,37.40,KWYS 060740Z AUTO 00000KT 10SM BKN060 03/03 A3045 RMK AO2,M
WYS,2023-10-06 08:40,35.60,35.60,100.00,0.00,0.00,0.00,30.45,M,10.00,M,CLR,M,M,M,M,M,M,M,M,M,M,M,M,M,M,35.60,KWYS 060840Z AUTO 00000KT 10SM CLR 02/02 A3045 RMK AO2,M
WYS,2023-10-06 09:40,32.00,32.00,100.00,0.00,0.00,0.00,30.46,M,10.00,M,CLR,M,M,M,M,M,M,M,M,M,M,M,M,M,M,32.00,KWYS 060940Z AUTO 00000KT 10SM CLR M00/M00 A3046 RMK AO2,M
WYS,2023-10-06 10:40,30.20,30.20,100.00,0.00,0.00,0.00,30.46,M,10.00,M,CLR,M,M,M,M,M,M,M,M,M,M,M,M,M,M,30.20,KWYS 061040Z AUTO 00000KT 10SM CLR M01/M01 A3046 RMK AO2,M
WYS,2023-10-06 11:40,28.40,28.40,100.00,0.00,0.00,0.00,30.46,M,10.00,M,CLR,M,M,M,M,M,M,M,M,M,M,M,M,M,M,28.40,KWYS 061140Z AUTO 00000KT 10SM CLR M02/M02 A3046 RMK AO2,M
WYS,2023-10-06 12:40,28.40,28.40,100.00,0.00,0.00,0.00,30.47,M,10.00,M,CLR,M,M,M,M,M,M,M,M,M,M,M,M,M,M,28.40,KWYS 061240Z AUTO 00000KT 10SM CLR M02/M02 A3047 RMK AO2,M
WYS,2023-10-06 13:40,28.40,28.40,100.00,210.00,3.00,0.00,30.48,M,10.00,M,CLR,M,M,M,M,M,M,M,M,M,M,M,M,M,M,24.57,KWYS 061340Z AUTO 21003KT 10SM CLR M02/M02 A3048 RMK AO2,M
WYS,2023-10-06 14:40,32.00,32.00,100.00,0.00,0.00,0.00,30.49,M,10.00,M,CLR,M,M,M,M,M,M,M,M,M,M,M,M,M,M,32.00,KWYS 061440Z AUTO 00000KT 10SM CLR M00/M00 A3049 RMK AO2,M
WYS,2023-10-06 15:40,39.20,39.20,100.00,0.00,0.00,0.00,30.49,M,10.00,M,M,M,M,M,M,M,M,M,M,M,M,M,M,M,M,39.20,KWYS 061540Z AUTO 00000KT 10SM 04/04 A3049 RMK AO2,M
WYS,2023-10-06 16:35,44.60,41.00,87.09,0.00,0.00,0.00,30.48,M,10.00,M,M,M,M,M,M,M,M,M,M,M,M,M,M,M,M,44.60,KWYS 061635Z AUTO 00000KT 10SM 07/05 A3048 RMK AO2,M
WYS,2023-10-06 17:40,50.00,35.60,57.52,0.00,0.00,0.00,30.47,M,10.00,M,M,M,M,M,M,M,M,M,M,M,M,M,M,M,M,50.00,KWYS 061740Z AUTO 00000KT 10SM 10/02 A3047 RMK AO2,M
WYS,2023-10-06 18:40,51.80,33.80,50.08,50.00,4.00,0.00,30.45,M,10.00,M,M,M,M,M,M,M,M,M,M,M,M,M,M,M,M,51.80,KWYS 061840Z AUTO 05004KT 10SM 11/01 A3045 RMK AO2,M
WYS,2023-10-06 19:40,53.60,32.00,43.61,0.00,0.00,0.00,30.43,M,10.00,M,M,M,M,M,M,M,M,M,M,M,M,M,M,M,M,53.60,KWYS 061940Z AUTO 00000KT 10SM 12/00 A3043 RMK AO2,M
WYS,2023-10-06 20:40,57.20,33.80,41.13,M,5.00,0.00,30.40,M,10.00,M,CLR,M,M,M,M,M,M,M,M,M,M,M,M,M,M,57.20,KWYS 062040Z AUTO VRB05KT 10SM CLR 14/01 A3040 RMK AO2,M
WYS,2023-10-06 21:40,59.00,33.80,38.56,0.00,0.00,0.00,30.39,M,10.00,M,CLR,M,M,M,M,M,M,M,M,M,M,M,M,M,M,59.00,KWYS 062140Z AUTO 00000KT 10SM CLR 15/01 A3039 RMK AO2,M
WYS,2023-10-06 22:40,59.00,33.80,38.56,160.00,5.00,0.00,30.38,M,10.00,M,CLR,M,M,M,M,M,M,M,M,M,M,M,M,M,M,59.00,KWYS 062240Z AUTO 16005KT 10SM CLR 15/01 A3038 RMK AO2,M
WYS,2023-10-06 23:40,59.00,33.80,38.56,0.00,0.00,0.00,30.37,M,10.00,M,CLR,M,M,M,M,M,M,M,M,M,M,M,M,M,M,59.00,KWYS 062340Z AUTO 00000KT 10SM CLR 15/01 A3037 RMK AO2,M
WYS,2023-10-07 00:40,53.60,35.60,50.36,0.00,0.00,0.00,30.37,M,10.00,M,CLR,M,M,M,M,M,M,M,M,M,M,M,M,M,M,53.60,KWYS 070040Z AUTO 00000KT 10SM CLR 12/02 A3037 RMK AO2,M
WYS,2023-10-07 01:40,44.60,39.20,81.20,200.00,3.00,0.00,30.37,M,10.00,M,CLR,M,M,M,M,M,M,M,M,M,M,M,M,M,M,43.09,KWYS 070140Z AUTO 20003KT 10SM CLR 07/04 A3037 RMK AO2,M
WYS,2023-10-07 02:40,41.00,39.20,93.24,0.00,0.00,0.00,30.38,M,10.00,M,CLR,M,M,M,M,M,M,M,M,M,M,M,M,M,M,41.00,KWYS 070240Z AUTO 00000KT 10SM CLR 05/04 A3038 RMK AO2,M
WYS,2023-10-07 03:40,35.60,35.60,100.00,0.00,0.00,0.00,30.38,M,10.00,M,CLR,M,M,M,M,M,M,M,M,M,M,M,M,M,M,35.60,KWYS 070340Z AUTO 00000KT 10SM CLR 02/02 A3038 RMK AO2,M
WYS,2023-10-07 04:40,33.80,33.80,100.00,0.00,0.00,0.00,30.39,M,10.00,M,CLR,M,M,M,M,M,M,M,M,M,M,M,M,M,M,33.80,KWYS 070440Z AUTO 00000KT 10SM CLR 01/01 A3039 RMK AO2,M
WYS,2023-10-07 05:55,30.20,30.20,100.00,0.00,0.00,0.00,30.39,M,10.00,M,CLR,M,M,M,M,M,M,M,M,M,M,M,M,M,M,30.20,KWYS 070555Z AUTO 00000KT 10SM CLR M01/M01 A3039 RMK AO2,M
WYS,2023-10-07 06:40,30.20,30.20,100.00,0.00,0.00,0.00,30.38,M,10.00,M,CLR,M,M,M,M,M,M,M,M,M,M,M,M,M,M,30.20,KWYS 070640Z AUTO 00000KT 10SM CLR M01/M01 A3038 RMK AO2,M
WYS,2023-10-07 07:40,28.40,28.40,100.00,0.00,0.00,0.00,30.38,M,10.00,M,CLR,M,M,M,M,M,M,M,M,M,M,M,M,M,M,28.40,KWYS 070740Z AUTO 00000KT 10SM CLR M02/M02 A3038 RMK AO2,M
WYS,2023-10-07 08:40,28.40,28.40,100.00,0.00,0.00,0.00,30.38,M,10.00,M,CLR,M,M,M,M,M,M,M,M,M,M,M,M,M,M,28.40,KWYS 070840Z AUTO 00000KT 10SM CLR M02/M02 A3038 RMK AO2,M
WYS,2023-10-07 09:40,26.60,28.40,M,0.00,0.00,0.00,30.38,M,10.00,M,CLR,M,M,M,M,M,M,M,M,M,M,M,M,M,M,M,KWYS 070940Z AUTO 00000KT 10SM CLR M03/M02 A3038 RMK AO2,M
WYS,2023-10-07 10:40,26.60,26.60,100.00,0.00,0.00,0.00,30.38,M,10.00,M,CLR,M,M,M,M,M,M,M,M,M,M,M,M,M,M,26.60,KWYS 071040Z AUTO 00000KT 10SM CLR M03/M03 A3038 RMK AO2,M
WYS,2023-10-07 11:40,26.60,26.60,100.00,0.00,0.00,0.00,30.38,M,10.00,M,CLR,M,M,M,M,M,M,M,M,M,M,M,M,M,M,26.60,KWYS 071140Z AUTO 00000KT 10SM CLR M03/M03 A3038 RMK AO2,M
WYS,2023-10-07 12:40,24.80,24.80,100.00,0.00,0.00,0.00,30.38,M,10.00,M,CLR,M,M,M,M,M,M,M,M,M,M,M,M,M,M,24.80,KWYS 071240Z AUTO 00000KT 10SM CLR M04/M04 A3038 RMK AO2,M
WYS,2023-10-07 13:40,24.80,24.80,100.00,0.00,0.00,0.00,30.38,M,10.00,M,OVC,M,M,M,400.00,M,M,M,M,M,M,M,M,M,M,24.80,KWYS 071340Z AUTO 00000KT 10SM OVC004 M04/M04 A3038 RMK AO2,M
WYS,2023-10-07 14:40,26.60,26.60,100.00,0.00,0.00,0.00,30.39,M,10.00,M,BKN,M,M,M,200.00,M,M,M,M,M,M,M,M,M,M,26.60,KWYS 071440Z AUTO 00000KT 10SM BKN002 M03/M03 A3039 RMK AO2,M
WYS,2023-10-07 15:40,33.80,33.80,100.00,0.00,0.00,0.00,30.40,M,10.00,M,CLR,M,M,M,M,M,M,M,M,M,M,M,M,M,M,33.80,KWYS 071540Z AUTO 00000KT 10SM CLR 01/01 A3040 RMK AO2,M
WYS,2023-10-07 16:40,41.00,37.40,86.89,0.00,0.00,0.00,30.39,M,10.00,M,CLR,M,M,M,M,M,M,M,M,M,M,M,M,M,M,41.00,KWYS 071640Z AUTO 00000KT 10SM CLR 05/03 A3039 RMK AO2,M
WYS,2023-10-07 17:40,48.20,37.40,66.05,0.00,0.00,0.00,30.37,M,10.00,M,CLR,M,M,M,M,M,M,M,M,M,M,M,M,M,M,48.20,KWYS 071740Z AUTO 00000KT 10SM CLR 09/03 A3037 RMK AO2,M
WYS,2023-10-07 18:40,53.60,37.40,54.07,0.00,0.00,0.00,30.35,M,10.00,M,CLR,M,M,M,M,M,M,M,M,M,M,M,M,M,M,53.60,KWYS 071840Z AUTO 00000KT 10SM CLR 12/03 A3035 RMK AO2,M
WYS,2023-10-07 19:35,59.00,37.40,44.47,0.00,0.00,0.00,30.33,M,10.00,M,CLR,M,M,M,M,M,M,M,M,M,M,M,M,M,M,59.00,KWYS 071935Z AUTO 00000KT 10SM CLR 15/03 A3033 RMK AO2,M
WYS,2023-10-07 20:40,64.40,37.40,36.74,M,3.00,0.00,30.30,M,10.00,M,CLR,M,M,M,M,M,M,M,M,M,M,M,M,M,M,64.40,KWYS 072040Z AUTO VRB03KT 10SM CLR 18/03 A3030 RMK AO2,M
WYS,2023-10-07 21:40,66.20,35.60,32.14,200.00,9.00,0.00,30.28,M,10.00,M,CLR,M,M,M,M,M,M,M,M,M,M,M,M,M,M,66.20,KWYS 072140Z AUTO 20009KT 10SM CLR 19/02 A3028 RMK AO2,M
WYS,2023-10-07 22:40,64.40,33.80,31.85,190.00,8.00,0.00,30.27,M,10.00,M,CLR,M,M,M,M,M,M,M,M,M,M,M,M,M,M,64.40,KWYS 072240Z AUTO 19008KT 10SM CLR 18/01 A3027 RMK AO2,M
WYS,2023-10-07 23:40,64.40,35.60,34.22,210.00,9.00,0.00,30.27,M,10.00,M,CLR,M,M,M,M,M,M,M,M,M,M,M,M,M,M,64.40,KWYS 072340Z AUTO 21009KT 10SM CLR 18/02 A3027 RMK AO2,M
WYS,2023-10-08 00:40,59.00,37.40,44.47,220.00,6.00,0.00,30.27,M,10.00,M,CLR,M,M,M,M,M,M,M,M,M,M,M,M,M,M,59.00,KWYS 080040Z AUTO 22006KT 10SM CLR 15/03 A3027 RMK AO2,M
WYS,2023-10-08 01:40,51.80,39.20,61.99,220.00,5.00,0.00,30.27,M,10.00,M,CLR,M,M,M,M,M,M,M,M,M,M,M,M,M,M,51.80,KWYS 080140Z AUTO 22005KT 10SM CLR 11/04 A3027 RMK AO2,M
WYS,2023-10-08 02:40,50.00,35.60,57.52,0.00,0.00,0.00,30.28,M,10.00,M,CLR,M,M,M,M,M,M,M,M,M,M,M,M,M,M,50.00,KWYS 080240Z AUTO 00000KT 10SM CLR 10/02 A3028 RMK AO2,M
WYS,2023-10-08 03:40,42.80,35.60,75.50,160.00,3.00,0.00,30.29,M,10.00,M,CLR,M,M,M,M,M,M,M,M,M,M,M,M,M,M,41.03,KWYS 080340Z AUTO 16003KT 10SM CLR 06/02 A3029 RMK AO2,M
WYS,2023-10-08 04:40,39.20,35.60,86.79,0.00,0.00,0.00,30.29,M,10.00,M,CLR,M,M,M,M,M,M,M,M,M,M,M,M,M,M,39.20,KWYS 080440Z AUTO 00000KT 10SM CLR 04/02 A3029 RMK AO2,M
WYS,2023-10-08 05:40,33.80,33.80,100.00,0.00,0.00,0.00,30.29,M,10.00,M,CLR,M,M,M,M,M,M,M,M,M,M,M,M,M,M,33.80,KWYS 080540Z AUTO 00000KT 10SM CLR 01/01 A3029 RMK AO2,M
WYS,2023-10-08 06:40,32.00,32.00,100.00,0.00,0.00,0.00,30.29,M,10.00,M,CLR,M,M,M,M,M,M,M,M,M,M,M,M,M,M,32.00,KWYS 080640Z AUTO 00000KT 10SM CLR M00/M00 A3029 RMK AO2,M
WYS,2023-10-08 07:40,28.40,28.40,100.00,0.00,0.00,0.00,30.30,M,10.00,M,CLR,M,M,M,M,M,M,M,M,M,M,M,M,M,M,28.40,KWYS 080740Z AUTO 00000KT 10SM CLR M02/M02 A3030 RMK AO2,M
WYS,2023-10-08 08:40,26.60,26.60,100.00,0.00,0.00,0.00,30.31,M,10.00,M,CLR,M,M,M,M,M,M,M,M,M,M,M,M,M,M,26.60,KWYS 080840Z AUTO 00000KT 10SM CLR M03/M03 A3031 RMK AO2,M
WYS,2023-10-08 09:40,26.60,26.60,100.00,0.00,0.00,0.00,30.30,M,10.00,M,CLR,M,M,M,M,M,M,M,M,M,M,M,M,M,M,26.60,KWYS 080940Z AUTO 00000KT 10SM CLR M03/M03 A3030 RMK AO2,M
WYS,2023-10-08 10:40,26.60,26.60,100.00,0.00,0.00,0.00,30.30,M,10.00,M,CLR,M,M,M,M,M,M,M,M,M,M,M,M,M,M,26.60,KWYS 081040Z AUTO 00000KT 10SM CLR M03/M03 A3030 RMK AO2,M
WYS,2023-10-08 11:40,26.60,26.60,100.00,0.00,0.00,0.00,30.31,M,10.00,M,CLR,M,M,M,M,M,M,M,M,M,M,M,M,M,M,26.60,KWYS 081140Z AUTO 00000KT 10SM CLR M03/M03 A3031 RMK AO2,M
WYS,2023-10-08 12:40,24.80,24.80,100.00,0.00,0.00,0.00,30.30,M,10.00,M,CLR,M,M,M,M,M,M,M,M,M,M,M,M,M,M,24.80,KWYS 081240Z AUTO 00000KT 10SM CLR M04/M04 A3030 RMK AO2,M
WYS,2023-10-08 13:40,24.80,24.80,100.00,0.00,0.00,0.00,30.30,M,10.00,M,CLR,M,M,M,M,M,M,M,M,M,M,M,M,M,M,24.80,KWYS 081340Z AUTO 00000KT 10SM CLR M04/M04 A3030 RMK AO2,M
WYS,2023-10-08 14:40,28.40,28.40,100.00,0.00,0.00,0.00,30.31,M,10.00,M,OVC,M,M,M,200.00,M,M,M,M,M,M,M,M,M,M,28.40,KWYS 081440Z AUTO 00000KT 10SM OVC002 M02/M02 A3031 RMK AO2,M
WYS,2023-10-08 15:40,35.60,35.60,100.00,0.00,0.00,0.00,30.31,M,10.00,M,CLR,M,M,M,M,M,M,M,M,M,M,M,M,M,M,35.60,KWYS 081540Z AUTO 00000KT 10SM CLR 02/02 A3031 RMK AO2,M
WYS,2023-10-08 16:40,42.80,37.40,81.07,0.00,0.00,0.00,30.30,M,10.00,M,CLR,M,M,M,M,M,M,M,M,M,M,M,M,M,M,42.80,KWYS 081640Z AUTO 00000KT 10SM CLR 06/03 A3030 RMK AO2,M
WYS,2023-10-08 17:40,50.00,37.40,61.76,0.00,0.00,0.00,30.27,M,10.00,M,CLR,M,M,M,M,M,M,M,M,M,M,M,M,M,M,50.00,KWYS 081740Z AUTO 00000KT 10SM CLR 10/03 A3027 RMK AO2,M
WYS,2023-10-08 18:40,57.20,37.40,47.44,0.00,0.00,0.00,30.25,M,10.00,M,CLR,M,M,M,M,M,M,M,M,M,M,M,M,M,M,57.20,KWYS 081840Z AUTO 00000KT 10SM CLR 14/03 A3025 RMK AO2,M
WYS,2023-10-08 19:40,64.40,35.60,34.22,210.00,10.00,0.00,30.22,M,10.00,M,CLR,M,M,M,M,M,M,M,M,M,M,M,M,M,M,64.40,KWYS 081940Z AUTO 21010KT 10SM CLR 18/02 A3022 RMK AO2,M
WYS,2023-10-08 20:40,66.20,37.40,34.51,220.00,10.00,0.00,30.20,M,10.00,M,CLR,M,M,M,M,M,M,M,M,M,M,M,M,M,M,66.20,KWYS 082040Z AUTO 22010KT 10SM CLR 19/03 A3020 RMK AO2,M
WYS,2023-10-08 21:40,66.20,37.40,34.51,190.00,8.00,0.00,30.18,M,10.00,17.00,CLR,M,M,M,M,M,M,M,M,M,M,M,M,M,M,66.20,KWYS 082140Z AUTO 19008G17KT 10SM CLR 19/03 A3018 RMK AO2,M
WYS,2023-10-08 22:40,66.20,37.40,34.51,220.00,8.00,0.00,30.17,M,10.00,15.00,CLR,M,M,M,M,M,M,M,M,M,M,M,M,M,M,66.20,KWYS 082240Z AUTO 22008G15KT 10SM CLR 19/03 A3017 RMK AO2,M
WYS,2023-10-08 23:40,64.40,37.40,36.74,220.00,9.00,0.00,30.17,M,10.00,14.00,CLR,M,M,M,M,M,M,M,M,M,M,M,M,M,M,64.40,KWYS 082340Z AUTO 22009G14KT 10SM CLR 18/03 A3017 RMK AO2,M
WYS,2023-10-09 00:40,59.00,37.40,44.47,220.00,6.00,0.00,30.16,M,10.00,M,CLR,M,M,M,M,M,M,M,M,M,M,M,M,M,M,59.00,KWYS 090040Z AUTO 22006KT 10SM CLR 15/03 A3016 RMK AO2,M
WYS,2023-10-09 01:40,53.60,35.60,50.36,220.00,8.00,0.00,30.16,M,10.00,M,CLR,M,M,M,M,M,M,M,M,M,M,M,M,M,M,53.60,KWYS 090140Z AUTO 22008KT 10SM CLR 12/02 A3016 RMK AO2,M
WYS,2023-10-09 02:40,51.80,32.00,46.59,M,3.00,0.00,30.16,M,10.00,M,CLR,M,M,M,M,M,M,M,M,M,M,M,M,M,M,51.80,KWYS 090240Z AUTO VRB03KT 10SM CLR 11/00 A3016 RMK AO2,M
WYS,2023-10-09 03:40,48.20,32.00,53.27,170.00,5.00,0.00,30.17,M,10.00,M,CLR,M,M,M,M,M,M,M,M,M,M,M,M,M,M,45.63,KWYS 090340Z AUTO 17005KT 10SM CLR 09/M00 A3017 RMK AO2,M
WYS,2023-10-09 04:40,42.80,32.00,65.38,0.00,0.00,0.00,30.17,M,10.00,M,CLR,M,M,M,M,M,M,M,M,M,M,M,M,M,M,42.80,KWYS 090440Z AUTO 00000KT 10SM CLR 06/M00 A3017 RMK AO2,M
WYS,2023-10-09 05:40,35.60,32.00,86.59,0.00,0.00,0.00,30.17,M,10.00,M,CLR,M,M,M,M,M,M,M,M,M,M,M,M,M,M,35.60,KWYS 090540Z AUTO 00000KT 10SM CLR 02/00 A3017 RMK AO2,M
WYS,2023-10-09 06:40,32.00,32.00,100.00,0.00,0.00,0.00,30.17,M,10.00,M,CLR,M,M,M,M,M,M,M,M,M,M,M,M,M,M,32.00,KWYS 090640Z AUTO 00000KT 10SM CLR 00/M00 A3017 RMK AO2,M
WYS,2023-10-09 07:40,30.20,30.20,100.00,0.00,0.00,0.00,30.17,M,10.00,M,CLR,M,M,M,M,M,M,M,M,M,M,M,M,M,M,30.20,KWYS 090740Z AUTO 00000KT 10SM CLR M01/M01 A3017 RMK AO2,M
WYS,2023-10-09 08:40,28.40,28.40,100.00,0.00,0.00,0.00,30.17,M,10.00,M,CLR,M,M,M,M,M,M,M,M,M,M,M,M,M,M,28.40,KWYS 090840Z AUTO 00000KT 10SM CLR M02/M02 A3017 RMK AO2,M
WYS,2023-10-09 09:40,26.60,26.60,100.00,0.00,0.00,0.00,30.17,M,10.00,M,CLR,M,M,M,M,M,M,M,M,M,M,M,M,M,M,26.60,KWYS 090940Z AUTO 00000KT 10SM CLR M03/M03 A3017 RMK AO2,M
WYS,2023-10-09 10:40,26.60,26.60,100.00,0.00,0.00,0.00,30.16,M,10.00,M,CLR,M,M,M,M,M,M,M,M,M,M,M,M,M,M,26.60,KWYS 091040Z AUTO 00000KT 10SM CLR M03/M03 A3016 RMK AO2,M
WYS,2023-10-09 11:40,26.60,26.60,100.00,0.00,0.00,0.00,30.16,M,10.00,M,CLR,M,M,M,M,M,M,M,M,M,M,M,M,M,M,26.60,KWYS 091140Z AUTO 00000KT 10SM CLR M03/M03 A3016 RMK AO2,M
WYS,2023-10-09 12:40,26.60,26.60,100.00,0.00,0.00,0.00,30.16,M,10.00,M,FEW,M,M,M,9000.00,M,M,M,M,M,M,M,M,M,M,26.60,KWYS 091240Z AUTO 00000KT 10SM FEW090 M03/M03 A3016 RMK AO2,M
WYS,2023-10-09 13:40,24.80,24.80,100.00,0.00,0.00,0.00,30.14,M,10.00,M,CLR,M,M,M,M,M,M,M,M,M,M,M,M,M,M,24.80,KWYS 091340Z AUTO 00000KT 10SM CLR M04/M04 A3014 RMK AO2,M
WYS,2023-10-09 14:40,30.20,30.20,100.00,0.00,0.00,0.00,30.15,M,10.00,M,CLR,M,M,M,M,M,M,M,M,M,M,M,M,M,M,30.20,KWYS 091440Z AUTO 00000KT 10SM CLR M01/M01 A3015 RMK AO2,M
WYS,2023-10-09 15:40,37.40,35.60,93.14,0.00,0.00,0.00,30.14,M,10.00,M,CLR,M,M,M,M,M,M,M,M,M,M,M,M,M,M,37.40,KWYS 091540Z AUTO 00000KT 10SM CLR 03/02 A3014 RMK AO2,M
WYS,2023-10-09 16:40,44.60,35.60,70.48,0.00,0.00,0.00,30.12,M,10.00,M,CLR,M,M,M,M,M,M,M,M,M,M,M,M,M,M,44.60,KWYS 091640Z AUTO 00000KT 10SM CLR 07/02 A3012 RMK AO2,M
WYS,2023-10-09 17:35,51.80,35.60,53.81,0.00,0.00,0.00,30.10,M,10.00,M,CLR,M,M,M,M,M,M,M,M,M,M,M,M,M,M,51.80,KWYS 091735Z AUTO 00000KT 10SM CLR 11/02 A3010 RMK AO2,M
WYS,2023-10-09 18:40,57.20,35.60,44.19,0.00,0.00,0.00,30.07,M,10.00,M,CLR,M,M,M,M,M,M,M,M,M,M,M,M,M,M,57.20,KWYS 091840Z AUTO 00000KT 10SM CLR 14/02 A3007 RMK AO2,M
WYS,2023-10-09 19:40,64.40,35.60,34.22,230.00,4.00,0.00,30.03,M,10.00,M,CLR,M,M,M,M,M,M,M,M,M,M,M,M,M,M,64.40,KWYS 091940Z AUTO 23004KT 10SM CLR 18/02 A3003 RMK AO2,M
WYS,2023-10-09 20:40,66.20,33.80,29.92,250.00,10.00,0.00,30.01,M,10.00,17.00,CLR,M,M,M,M,M,M,M,M,M,M,M,M,M,M,66.20,KWYS 092040Z AUTO 25010G17KT 10SM CLR 19/01 A3001 RMK AO2,M
WYS,2023-10-09 21:40,68.00,33.80,28.11,200.00,11.00,0.00,29.99,M,10.00,19.00,CLR,M,M,M,M,M,M,M,M,M,M,M,M,M,M,68.00,KWYS 092140Z AUTO 20011G19KT 10SM CLR 20/01 A2999 RMK AO2,M
WYS,2023-10-09 22:40,68.00,32.00,26.15,220.00,12.00,0.00,29.97,M,10.00,19.00,CLR,M,M,M,M,M,M,M,M,M,M,M,M,M,M,68.00,KWYS 092240Z AUTO 22012G19KT 10SM CLR 20/M00 A2997 RMK AO2,M
WYS,2023-10-09 23:40,66.20,30.20,25.88,220.00,9.00,0.00,29.96,M,10.00,14.00,CLR,M,M,M,M,M,M,M,M,M,M,M,M,M,M,66.20,KWYS 092340Z AUTO 22009G14KT 10SM CLR 19/M01 A2996 RMK AO2,M
WYS,2023-10-10 00:40,59.00,32.00,35.87,0.00,0.00,0.00,29.95,M,10.00,M,CLR,M,M,M,M,M,M,M,M,M,M,M,M,M,M,59.00,KWYS 100040Z AUTO 00000KT 10SM CLR 15/M00 A2995 RMK AO2,M
WYS,2023-10-10 01:40,50.00,33.80,53.54,0.00,0.00,0.00,29.94,M,10.00,M,CLR,M,M,M,M,M,M,M,M,M,M,M,M,M,M,50.00,KWYS 100140Z AUTO 00000KT 10SM CLR 10/01 A2994 RMK AO2,M
WYS,2023-10-10 02:40,44.60,35.60,70.48,0.00,0.00,0.00,29.93,M,10.00,M,CLR,M,M,M,M,M,M,M,M,M,M,M,M,M,M,44.60,KWYS 100240Z AUTO 00000KT 10SM CLR 07/02 A2993 RMK AO2,M
WYS,2023-10-10 03:40,41.00,35.60,80.93,0.00,0.00,0.00,29.94,M,10.00,M,CLR,M,M,M,M,M,M,M,M,M,M,M,M,M,M,41.00,KWYS 100340Z AUTO 00000KT 10SM CLR 05/02 A2994 RMK AO2,M
WYS,2023-10-10 04:40,35.60,33.80,93.08,M,3.00,0.00,29.94,M,10.00,M,CLR,M,M,M,M,M,M,M,M,M,M,M,M,M,M,32.80,KWYS 100440Z AUTO VRB03KT 10SM CLR 02/01 A2994 RMK AO2,M
WYS,2023-10-10 05:40,35.60,35.60,100.00,0.00,0.00,0.00,29.94,M,10.00,M,BKN,OVC,M,M,10000.00,12000.00,M,M,M,M,M,M,M,M,M,35.60,KWYS 100540Z AUTO 00000KT 10SM BKN100 OVC120 02/02 A2994 RMK AO2,M
WYS,2023-10-10 06:40,35.60,35.60,100.00,0.00,0.00,0.00,29.93,M,10.00,M,OVC,M,M,M,11000.00,M,M,M,M,M,M,M,M,M,M,35.60,KWYS 100640Z AUTO 00000KT 10SM OVC110 02/02 A2993 RMK AO2,M
WYS,2023-10-10 07:40,32.00,32.00,100.00,0.00,0.00,0.00,29.92,M,10.00,M,CLR,M,M,M,M,M,M,M,M,M,M,M,M,M,M,32.00,KWYS 100740Z AUTO 00000KT 10SM CLR 00/00 A2992 RMK AO2,M
WYS,2023-10-10 08:40,30.20,30.20,100.00,0.00,0.00,0.00,29.91,M,10.00,M,CLR,M,M,M,M,M,M,M,M,M,M,M,M,M,M,30.20,KWYS 100840Z AUTO 00000KT 10SM CLR M01/M01 A2991 RMK AO2,M
WYS,2023-10-10 09:40,26.60,26.60,100.00,210.00,4.00,0.00,29.91,M,10.00,M,CLR,M,M,M,M,M,M,M,M,M,M,M,M,M,M,21.11,KWYS 100940Z AUTO 21004KT 10SM CLR M03/M03 A2991 RMK AO2,M
WYS,2023-10-10 10:40,28.40,28.40,100.00,0.00,0.00,0.00,29.88,M,10.00,M,CLR,M,M,M,M,M,M,M,M,M,M,M,M,M,M,28.40,KWYS 101040Z AUTO 00000KT 10SM CLR M02/M02 A2988 RMK AO2,M
WYS,2023-10-10 11:40,26.60,26.60,100.00,0.00,0.00,0.00,29.88,M,10.00,M,CLR,M,M,M,M,M,M,M,M,M,M,M,M,M,M,26.60,KWYS 101140Z AUTO 00000KT 10SM CLR M03/M03 A2988 RMK AO2,M
WYS,2023-10-10 12:40,26.60,26.60,100.00,0.00,0.00,0.00,29.88,M,10.00,M,CLR,M,M,M,M,M,M,M,M,M,M,M,M,M,M,26.60,KWYS 101240Z AUTO 00000KT 10SM CLR M03/M03 A2988 RMK AO2,M
WYS,2023-10-10 13:55,28.40,28.40,100.00,0.00,0.00,0.00,29.87,M,10.00,M,BKN,M,M,M,10000.00,M,M,M,M,M,M,M,M,M,M,28.40,KWYS 101355Z AUTO 00000KT 10SM BKN100 M02/M02 A2987 RMK AO2,M
WYS,2023-10-10 14:40,32.00,32.00,100.00,0.00,0.00,0.00,29.87,M,10.00,M,FEW,M,M,M,11000.00,M,M,M,M,M,M,M,M,M,M,32.00,KWYS 101440Z AUTO 00000KT 10SM FEW110 M00/M00 A2987 RMK AO2,M
WYS,2023-10-10 15:40,39.20,37.40,93.19,0.00,0.00,0.00,29.86,M,10.00,M,FEW,M,M,M,10000.00,M,M,M,M,M,M,M,M,M,M,39.20,KWYS 101540Z AUTO 00000KT 10SM FEW100 04/03 A2986 RMK AO2,M
WYS,2023-10-10 16:40,42.80,37.40,81.07,0.00,0.00,0.00,29.84,M,10.00,M,CLR,M,M,M,M,M,M,M,M,M,M,M,M,M,M,42.80,KWYS 101640Z AUTO 00000KT 10SM CLR 06/03 A2984 RMK AO2,M
WYS,2023-10-10 17:40,48.20,35.60,61.52,0.00,0.00,0.00,29.82,M,10.00,M,M,M,M,M,M,M,M,M,M,M,M,M,M,M,M,48.20,KWYS 101740Z AUTO 00000KT 10SM 09/02 A2982 RMK AO2,M
WYS,2023-10-10 18:40,55.40,37.40,50.64,0.00,0.00,0.00,29.78,M,10.00,M,M,M,M,M,M,M,M,M,M,M,M,M,M,M,M,55.40,KWYS 101840Z AUTO 00000KT 10SM 13/03 A2978 RMK AO2,M
WYS,2023-10-10 19:40,60.80,33.80,36.16,220.00,14.00,0.00,29.74,M,10.00,M,FEW,M,M,M,8500.00,M,M,M,M,M,M,M,M,M,M,60.80,KWYS 101940Z AUTO 22014KT 10SM FEW085 16/01 A2974 RMK AO2,M
WYS,2023-10-10 20:40,62.60,33.80,33.93,210.00,14.00,0.00,29.71,M,10.00,20.00,FEW,FEW,SCT,M,6500.00,7000.00,8000.00,M,M,M,M,M,M,M,M,62.60,KWYS 102040Z AUTO 21014G20KT 10SM FEW065 FEW070 SCT080 17/01 A2971 RMK AO2,M
WYS,2023-10-10 21:40,60.80,33.80,36.16,210.00,12.00,0.00,29.70,M,10.00,M,FEW,SCT,M,M,6500.00,9500.00,M,M,M,M,M,M,M,M,M,60.80,KWYS 102140Z AUTO 21012KT 10SM FEW065 SCT095 16/01 A2970 RMK AO2,M
WYS,2023-10-10 22:40,59.00,33.80,38.56,220.00,12.00,0.00,29.67,M,10.00,20.00,FEW,FEW,BKN,M,6000.00,7000.00,8000.00,M,M,M,M,M,M,M,M,59.00,KWYS 102240Z AUTO 22012G20KT 10SM FEW060 FEW070 BKN080 15/01 A2967 RMK AO2,M
WYS,2023-10-10 23:40,55.40,35.60,47.16,230.00,13.00,0.00,29.68,M,8.00,24.00,FEW,SCT,BKN,M,4100.00,6500.00,8000.00,M,M,M,M,M,M,M,M,55.40,KWYS 102340Z AUTO 23013G24KT 8SM FEW041 SCT065 BKN080 13/02 A2968 RMK AO2,M
WYS,2023-10-11 00:40,46.40,46.40,100.00,160.00,5.00,0.00,29.72,M,4.00,M,SCT,BKN,BKN,M,3500.00,4200.00,4900.00,M,-DZ,M,M,M,M,M,M,43.50,KWYS 110040Z AUTO 16005KT 4SM -DZ SCT035 BKN042 BKN049 08/08 A2972 RMK AO2,M
WYS,2023-10-11 01:40,44.60,46.40,M,100.00,7.00,0.00,29.72,M,8.00,M,SCT,BKN,OVC,M,3600.00,4300.00,5000.00,M,M,M,M,M,M,M,M,M,KWYS 110140Z AUTO 10007KT 070V130 8SM SCT036 BKN043 OVC050 07/08 A2972 RMK AO2,M
WYS,2023-10-11 02:40,44.60,44.60,100.00,0.00,0.00,0.00,29.69,M,10.00,M,FEW,OVC,M,M,6000.00,7000.00,M,M,M,M,M,M,M,M,M,44.60,KWYS 110240Z AUTO 00000KT 10SM FEW060 OVC070 07/07 A2969 RMK AO2,M
WYS,2023-10-11 03:40,42.80,42.80,100.00,0.00,0.00,0.00,29.68,M,10.00,M,FEW,BKN,OVC,M,4000.00,6500.00,8000.00,M,M,M,M,M,M,M,M,42.80,KWYS 110340Z AUTO 00000KT 10SM FEW040 BKN065 OVC080 06/06 A2968 RMK AO2,M
WYS,2023-10-11 04:40,41.00,41.00,100.00,190.00,3.00,0.00,29.67,M,10.00,M,FEW,BKN,OVC,M,6500.00,7500.00,9000.00,M,M,M,M,M,M,M,M,38.98,KWYS 110440Z AUTO 19003KT 10SM FEW065 BKN075 OVC090 05/05 A2967 RMK AO2,M
WYS,2023-10-11 05:40,41.00,41.00,100.00,0.00,0.00,0.00,29.66,M,10.00,M,FEW,FEW,OVC,M,4700.00,7500.00,8500.00,M,M,M,M,M,M,M,M,41.00,KWYS 110540Z AUTO 00000KT 10SM FEW047 FEW075 OVC085 05/05 A2966 RMK AO2,M
WYS,2023-10-11 06:40,41.00,41.00,100.00,M,5.00,0.00,29.64,M,10.00,M,SCT,OVC,M,M,5500.00,8500.00,M,M,M,M,M,M,M,M,M,37.08,KWYS 110640Z AUTO VRB05KT 10SM SCT055 OVC085 05/05 A2964 RMK AO2,M
WYS,2023-10-11 07:40,42.80,41.00,93.30,240.00,4.00,0.00,29.63,M,10.00,M,OVC,M,M,M,6000.00,M,M,M,M,M,M,M,M,M,M,40.03,KWYS 110740Z AUTO 24004KT 10SM OVC060 06/05 A2963 RMK AO2,M
WYS,2023-10-11 08:40,42.80,39.20,86.99,210.00,8.00,0.00,29.62,M,10.00,16.00,FEW,SCT,OVC,M,3600.00,4400.00,7000.00,M,M,M,M,M,M,M,M,37.42,KWYS 110840Z AUTO 21008G16KT 10SM FEW036 SCT044 OVC070 06/04 A2962 RMK AO2,M
WYS,2023-10-11 09:40,41.00,41.00,100.00,210.00,4.00,0.00,29.61,M,10.00,M,SCT,BKN,OVC,M,2900.00,4800.00,7000.00,M,M,M,M,M,M,M,M,37.93,KWYS 110940Z AUTO 21004KT 10SM SCT029 BKN048 OVC070 05/05 A2961 RMK AO2,M
WYS,2023-10-11 10:40,41.00,41.00,100.00,0.00,0.00,0.00,29.61,M,10.00,M,OVC,M,M,M,1600.00,M,M,M,M,M,M,M,M,M,M,41.00,KWYS 111040Z AUTO 00000KT 10SM OVC016 05/05 A2961 RMK AO2,M
WYS,2023-10-11 11:40,39.20,39.20,100.00,200.00,11.00,0.00,29.61,M,8.00,M,SCT,BKN,OVC,M,1200.00,2900.00,3500.00,M,-UP,M,M,M,M,M,M,31.57,KWYS 111140Z AUTO 20011KT 8SM -UP SCT012 BKN029 OVC035 04/04 A2961 RMK AO2,M
WYS,2023-10-11 12:40,37.40,37.40,100.00,180.00,7.00,0.00,29.61,M,6.00,M,BKN,BKN,M,M,3100.00,3800.00,M,M,-RA,M,M,M,M,M,M,31.36,KWYS 111240Z AUTO 18007KT 6SM -RA BKN031 BKN038 03/03 A2961 RMK AO2,M
WYS,2023-10-11 13:40,37.40,37.40,100.00,200.00,4.00,0.00,29.62,M,10.00,M,OVC,M,M,M,3300.00,M,M,M,M,M,M,M,M,M,M,33.73,KWYS 111340Z AUTO 20004KT 10SM OVC033 03/03 A2962 RMK AO2,M
WYS,2023-10-11 14:40,37.40,37.40,100.00,180.00,3.00,0.00,29.62,M,10.00,M,BKN,OVC,M,M,2300.00,3000.00,M,M,M,M,M,M,M,M,M,34.86,KWYS 111440Z AUTO 18003KT 10SM BKN023 OVC030 03/03 A2962 RMK AO2,M
WYS,2023-10-11 15:40,37.40,37.40,100.00,210.00,4.00,0.00,29.63,M,10.00,M,OVC,M,M,M,1400.00,M,M,M,M,M,M,M,M,M,M,33.73,KWYS 111540Z AUTO 21004KT 10SM OVC014 03/03 A2963 RMK AO2,M
WYS,2023-10-11 16:40,37.40,37.40,100.00,210.00,4.00,0.00,29.63,M,3.00,M,CLR,M,M,M,M,M,M,M,-RA,M,M,M,M,M,M,33.73,KWYS 111640Z AUTO 21004KT 3SM -RA CLR 03/03 A2963 RMK AO2,M
WYS,2023-10-11 17:40,39.20,39.20,100.00,260.00,4.00,0.00,29.64,M,5.00,M,FEW,BKN,BKN,M,800.00,1300.00,1900.00,M,BR,M,M,M,M,M,M,35.83,KWYS 111740Z AUTO 26004KT 5SM BR FEW008 BKN013 BKN019 04/04 A2964 RMK AO2,M
WYS,2023-10-11 18:40,39.20,39.20,100.00,0.00,0.00,0.00,29.64,M,3.00,M,FEW,SCT,BKN,M,700.00,1700.00,2200.00,M,-RA,M,M,M,M,M,M,39.20,KWYS 111840Z AUTO 00000KT 3SM -RA FEW007 SCT017 BKN022 04/04 A2964 RMK AO2,M
WYS,2023-10-11 19:40,41.00,41.00,100.00,240.00,4.00,0.00,29.63,M,10.00,M,SCT,SCT,OVC,M,900.00,1400.00,4800.00,M,M,M,M,M,M,M,M,37.93,KWYS 111940Z AUTO 24004KT 10SM SCT009 SCT014 OVC048 05/05 A2963 RMK AO2,M
WYS,2023-10-11 20:40,41.00,41.00,100.00,0.00,0.00,0.00,29.63,M,10.00,M,OVC,M,M,M,5000.00,M,M,M,M,M,M,M,M,M,M,41.00,KWYS 112040Z AUTO 00000KT 10SM OVC050 05/05 A2963 RMK AO2,M
WYS,2023-10-11 21:40,42.80,39.20,86.99,0.00,0.00,0.00,29.63,M,10.00,M,BKN,M,M,M,6000.00,M,M,M,M,M,M,M,M,M,M,42.80,KWYS 112140Z AUTO 00000KT 10SM BKN060 06/04 A2963 RMK AO2,M
WYS,2023-10-11 22:40,41.00,39.20,93.24,20.00,7.00,0.00,29.65,M,10.00,M,SCT,BKN,BKN,M,3500.00,5000.00,7000.00,M,M,M,M,M,M,M,M,35.75,KWYS 112240Z AUTO 02007KT 10SM SCT035 BKN050 BKN070 05/04 A2965 RMK AO2,M
WYS,2023-10-11 23:35,39.20,39.20,100.00,0.00,0.00,0.00,29.67,M,10.00,M,SCT,BKN,OVC,M,4100.00,4800.00,7000.00,M,M,M,M,M,M,M,M,39.20,KWYS 112335Z AUTO 00000KT 10SM SCT041 BKN048 OVC070 04/04 A2967 RMK AO2,M
WYS,2023-10-12 00:40,39.20,39.20,100.00,210.00,4.00,0.00,29.69,M,10.00,M,SCT,OVC,M,M,4900.00,7000.00,M,M,M,M,M,M,M,M,M,35.83,KWYS 120040Z AUTO 21004KT 10SM SCT049 OVC070 04/04 A2969 RMK AO2,M
WYS,2023-10-12 01:40,37.40,37.40,100.00,0.00,0.00,0.00,29.70,M,10.00,M,SCT,SCT,OVC,M,4700.00,6000.00,7500.00,M,M,M,M,M,M,M,M,37.40,KWYS 120140Z AUTO 00000KT 10SM SCT047 SCT060 OVC075 03/03 A2970 RMK AO2,M
WYS,2023-10-12 02:40,37.40,37.40,100.00,0.00,0.00,0.00,29.71,M,10.00,M,SCT,OVC,M,M,5000.00,7000.00,M,M,M,M,M,M,M,M,M,37.40,KWYS 120240Z AUTO 00000KT 10SM SCT050 OVC070 03/03 A2971 RMK AO2,M
WYS,2023-10-12 03:40,37.40,37.40,100.00,0.00,0.00,0.00,29.72,M,5.00,M,FEW,BKN,BKN,M,1800.00,2800.00,3600.00,M,-UP,M,M,M,M,M,M,37.40,KWYS 120340Z AUTO 00000KT 5SM -UP FEW018 BKN028 BKN036 03/03 A2972 RMK AO2,M
WYS,2023-10-12 04:40,37.40,37.40,100.00,0.00,0.00,0.00,29.73,M,6.00,M,OVC,M,M,M,3000.00,M,M,M,-UP,M,M,M,M,M,M,37.40,KWYS 120440Z AUTO 00000KT 6SM -UP OVC030 03/03 A2973 RMK AO2,M
WYS,2023-10-12 05:40,37.40,37.40,100.00,0.00,0.00,0.00,29.73,M,4.00,M,BKN,M,M,M,3000.00,M,M,M,-UP,M,M,M,M,M,M,37.40,KWYS 120540Z AUTO 00000KT 4SM -UP BKN030 03/03 A2973 RMK AO2,M
WYS,2023-10-12 06:40,37.40,37.40,100.00,0.00,0.00,0.00,29.74,M,10.00,M,FEW,BKN,BKN,M,2100.00,3400.00,4400.00,M,M,M,M,M,M,M,M,37.40,KWYS 120640Z AUTO 00000KT 10SM FEW021 BKN034 BKN044 03/03 A2974 RMK AO2,M
WYS,2023-10-12 07:40,37.40,37.40,100.00,0.00,0.00,0.00,29.74,M,10.00,M,SCT,BKN,OVC,M,2500.00,3100.00,4200.00,M,M,M,M,M,M,M,M,37.40,KWYS 120740Z AUTO 00000KT 10SM SCT025 BKN031 OVC042 03/03 A2974 RMK AO2,M
WYS,2023-10-12 08:40,37.40,37.40,100.00,210.00,3.00,0.00,29.75,M,10.00,M,FEW,SCT,BKN,M,2600.00,3100.00,4200.00,M,M,M,M,M,M,M,M,34.86,KWYS 120840Z AUTO 21003KT 10SM FEW026 SCT031 BKN042 03/03 A2975 RMK AO2,M
WYS,2023-10-12 09:40,37.40,37.40,100.00,0.00,0.00,0.00,29.76,M,10.00,M,FEW,BKN,OVC,M,2400.00,3300.00,3900.00,M,M,M,M,M,M,M,M,37.40,KWYS 120940Z AUTO 00000KT 10SM FEW024 BKN033 OVC039 03/03 A2976 RMK AO2,M
WYS,2023-10-12 10:40,37.40,37.40,100.00,0.00,0.00,0.00,29.79,M,10.00,M,SCT,BKN,OVC,M,3600.00,4100.00,5500.00,M,M,M,M,M,M,M,M,37.40,KWYS 121040Z AUTO 00000KT 10SM SCT036 BKN041 OVC055 03/03 A2979 RMK AO2,M
WYS,2023-10-12 11:40,35.60,35.60,100.00,40.00,5.00,0.00,29.81,M,10.00,M,OVC,M,M,M,3300.00,M,M,M,M,M,M,M,M,M,M,30.67,KWYS 121140Z AUTO 04005KT 10SM OVC033 02/02 A2981 RMK AO2,M
WYS,2023-10-12 12:40,35.60,35.60,100.00,30.00,4.00,0.00,29.83,M,10.00,M,BKN,OVC,M,M,3200.00,3800.00,M,M,-UP,M,M,M,M,M,M,31.62,KWYS 121240Z AUTO 03004KT 10SM -UP BKN032 OVC038 02/02 A2983 RMK AO2,M
WYS,2023-10-12 13:40,35.60,35.60,100.00,0.00,0.00,0.00,29.85,M,10.00,M,FEW,SCT,BKN,M,1900.00,2900.00,3300.00,M,M,M,M,M,M,M,M,35.60,KWYS 121340Z AUTO 00000KT 10SM FEW019 SCT029 BKN033 02/02 A2985 RMK AO2,M
WYS,2023-10-12 14:40,35.60,35.60,100.00,0.00,0.00,0.00,29.87,M,10.00,M,FEW,BKN,OVC,M,3500.00,4700.00,6000.00,M,M,M,M,M,M,M,M,35.60,KWYS 121440Z AUTO 00000KT 10SM FEW035 BKN047 OVC060 02/02 A2987 RMK AO2,M
WYS,2023-10-12 15:40,37.40,37.40,100.00,0.00,0.00,0.00,29.89,M,10.00,M,BKN,BKN,OVC,M,3500.00,4100.00,4700.00,M,M,M,M,M,M,M,M,37.40,KWYS 121540Z AUTO 00000KT 10SM BKN035 BKN041 OVC047 03/03 A2989 RMK AO2,M
WYS,2023-10-12 16:40,41.00,41.00,100.00,360.00,5.00,0.00,29.89,M,10.00,M,M,M,M,M,M,M,M,M,M,M,M,M,M,M,M,37.08,KWYS 121640Z AUTO 36005KT 10SM 05/05 A2989 RMK AO2,M
WYS,2023-10-12 17:40,42.80,37.40,81.07,20.00,7.00,0.00,29.91,M,10.00,M,OVC,M,M,M,3700.00,M,M,M,M,M,M,M,M,M,M,37.94,KWYS 121740Z AUTO 02007KT 10SM OVC037 06/03 A2991 RMK AO2,M
WYS,2023-10-12 18:40,44.60,33.80,65.61,30.00,16.00,0.00,29.92,M,10.00,21.00,FEW,FEW,OVC,M,3200.00,4100.00,7500.00,M,M,M,M,M,M,M,M,36.84,KWYS 121840Z AUTO 03016G21KT 10SM FEW032 FEW041 OVC075 07/01 A2992 RMK AO2,M
WYS,2023-10-12 19:40,46.40,33.80,61.28,30.00,16.00,0.00,29.93,M,10.00,24.00,SCT,OVC,M,M,3200.00,7000.00,M,M,M,M,M,M,M,M,M,39.19,KWYS 121940Z AUTO 03016G24KT 10SM SCT032 OVC070 08/01 A2993 RMK AO2,M
WYS,2023-10-12 20:40,46.40,33.80,61.28,10.00,11.00,0.00,29.95,M,10.00,17.00,SCT,OVC,M,M,3300.00,6500.00,M,M,M,M,M,M,M,M,M,40.66,KWYS 122040Z AUTO 01011G17KT 10SM SCT033 OVC065 08/01 A2995 RMK AO2,M
WYS,2023-10-12 21:40,44.60,33.80,65.61,10.00,11.00,0.00,29.98,M,10.00,M,BKN,BKN,OVC,M,3100.00,3800.00,6500.00,M,M,M,M,M,M,M,M,38.39,KWYS 122140Z AUTO 01011KT 10SM BKN031 BKN038 OVC065 07/01 A2998 RMK AO2,M
WYS,2023-10-12 22:40,44.60,33.80,65.61,10.00,9.00,0.00,30.01,M,10.00,M,FEW,OVC,M,M,4600.00,6500.00,M,M,M,M,M,M,M,M,M,39.18,KWYS 122240Z AUTO 01009KT 10SM FEW046 OVC065 07/01 A3001 RMK AO2,M
WYS,2023-10-12 23:40,42.80,35.60,75.50,10.00,10.00,0.00,30.04,M,10.00,M,OVC,M,M,M,6000.00,M,M,M,M,M,M,M,M,M,M,36.51,KWYS 122340Z AUTO 01010KT 10SM OVC060 06/02 A3004 RMK AO2,M
WYS,2023-10-13 00:40,42.80,35.60,75.50,20.00,8.00,0.00,30.06,M,10.00,14.00,FEW,BKN,M,M,5500.00,7000.00,M,M,M,M,M,M,M,M,M,37.42,KWYS 130040Z AUTO 02008G14KT 10SM FEW055 BKN070 06/02 A3006 RMK AO2,M
WYS,2023-10-13 01:40,41.00,35.60,80.93,10.00,5.00,0.00,30.07,M,10.00,M,OVC,M,M,M,8500.00,M,M,M,M,M,M,M,M,M,M,37.08,KWYS 130140Z AUTO 01005KT 10SM OVC085 05/02 A3007 RMK AO2,M
WYS,2023-10-13 02:40,39.20,35.60,86.79,30.00,6.00,0.00,30.09,M,10.00,M,CLR,M,M,M,M,M,M,M,M,M,M,M,M,M,M,34.20,KWYS 130240Z AUTO 03006KT 10SM CLR 04/02 A3009 RMK AO2,M
WYS,2023-10-13 03:40,37.40,35.60,93.14,0.00,0.00,0.00,30.11,M,10.00,M,BKN,OVC,M,M,7500.00,9000.00,M,M,M,M,M,M,M,M,M,37.40,KWYS 130340Z AUTO 00000KT 10SM BKN075 OVC090 03/02 A3011 RMK AO2,M
WYS,2023-10-13 04:40,33.80,33.80,100.00,0.00,0.00,0.00,30.13,M,10.00,M,SCT,OVC,M,M,8000.00,9000.00,M,M,M,M,M,M,M,M,M,33.80,KWYS 130440Z AUTO 00000KT 10SM SCT080 OVC090 01/01 A3013 RMK AO2,M
WYS,2023-10-13 05:40,33.80,33.80,100.00,0.00,0.00,0.00,30.14,M,10.00,M,FEW,SCT,BKN,M,4500.00,6500.00,7500.00,M,M,M,M,M,M,M,M,33.80,KWYS 130540Z AUTO 00000KT 10SM FEW045 SCT065 BKN075 01/01 A3014 RMK AO2,M
WYS,2023-10-13 06:40,35.60,35.60,100.00,0.00,0.00,0.00,30.15,M,10.00,M,FEW,BKN,OVC,M,4200.00,7000.00,8500.00,M,M,M,M,M,M,M,M,35.60,KWYS 130640Z AUTO 00000KT 10SM FEW042 BKN070 OVC085 02/02 A3015 RMK AO2,M
WYS,2023-10-13 07:40,33.80,33.80,100.00,0.00,0.00,0.00,30.15,M,10.00,M,FEW,BKN,OVC,M,5500.00,7000.00,8500.00,M,M,M,M,M,M,M,M,33.80,KWYS 130740Z AUTO 00000KT 10SM FEW055 BKN070 OVC085 01/01 A3015 RMK AO2,M
WYS,2023-10-13 08:40,32.00,32.00,100.00,0.00,0.00,0.00,30.15,M,10.00,M,SCT,OVC,M,M,7500.00,8500.00,M,M,M,M,M,M,M,M,M,32.00,KWYS 130840Z AUTO 00000KT 10SM SCT075 OVC085 00/00 A3015 RMK AO2,M
WYS,2023-10-13 09:40,28.40,28.40,100.00,0.00,0.00,0.00,30.15,M,10.00,M,CLR,M,M,M,M,M,M,M,M,M,M,M,M,M,M,28.40,KWYS 130940Z AUTO 00000KT 10SM CLR M02/M02 A3015 RMK AO2,M
WYS,2023-10-13 10:40,30.20,30.20,100.00,0.00,0.00,0.00,30.15,M,10.00,M,BKN,OVC,M,M,1700.00,6000.00,M,M,M,M,M,M,M,M,M,30.20,KWYS 131040Z AUTO 00000KT 10SM BKN017 OVC060 M01/M01 A3015 RMK AO2,M
WYS,2023-10-13 11:40,30.20,30.20,100.00,0.00,0.00,0.00,30.15,M,10.00,M,SCT,M,M,M,1800.00,M,M,M,M,M,M,M,M,M,M,30.20,KWYS 131140Z AUTO 00000KT 10SM SCT018 M01/M01 A3015 RMK AO2,M
WYS,2023-10-13 12:40,28.40,28.40,100.00,0.00,0.00,0.00,30.16,M,10.00,M,CLR,M,M,M,M,M,M,M,M,M,M,M,M,M,M,28.40,KWYS 131240Z AUTO 00000KT 10SM CLR M02/M02 A3016 RMK AO2,M
WYS,2023-10-13 13:40,28.40,28.40,100.00,0.00,0.00,0.00,30.17,M,10.00,M,OVC,M,M,M,6500.00,M,M,M,M,M,M,M,M,M,M,28.40,KWYS 131340Z AUTO 00000KT 10SM OVC065 M02/M02 A3017 RMK AO2,M
WYS,2023-10-13 14:40,30.20,30.20,100.00,210.00,3.00,0.00,30.18,M,10.00,M,BKN,M,M,M,6500.00,M,M,M,M,M,M,M,M,M,M,26.63,KWYS 131440Z AUTO 21003KT 10SM BKN065 M01/M01 A3018 RMK AO2,M
WYS,2023-10-13 15:40,32.00,32.00,100.00,0.00,0.00,0.00,30.19,M,10.00,M,FEW,OVC,M,M,1600.00,6000.00,M,M,M,M,M,M,M,M,M,32.00,KWYS 131540Z AUTO 00000KT 10SM FEW016 OVC060 00/00 A3019 RMK AO2,M
WYS,2023-10-13 16:40,37.40,37.40,100.00,0.00,0.00,0.00,30.20,M,10.00,M,BKN,OVC,M,M,1800.00,6500.00,M,M,M,M,M,M,M,M,M,37.40,KWYS 131640Z AUTO 00000KT 10SM BKN018 OVC065 03/03 A3020 RMK AO2,M
WYS,2023-10-13 17:40,41.00,35.60,80.93,0.00,0.00,0.00,30.19,M,10.00,M,OVC,M,M,M,1500.00,M,M,M,M,M,M,M,M,M,M,41.00,KWYS 131740Z AUTO 00000KT 10SM OVC015 05/02 A3019 RMK AO2,M
WYS,2023-10-13 18:40,41.00,35.60,80.93,0.00,0.00,0.00,30.19,M,10.00,M,OVC,M,M,M,2800.00,M,M,M,M,M,M,M,M,M,M,41.00,KWYS 131840Z AUTO 00000KT 10SM OVC028 05/02 A3019 RMK AO2,M
WYS,2023-10-13 19:40,44.60,33.80,65.61,0.00,0.00,0.00,30.17,M,10.00,M,M,M,M,M,M,M,M,M,M,M,M,M,M,M,M,44.60,KWYS 131940Z AUTO 00000KT 10SM 07/01 A3017 RMK AO2,M
WYS,2023-10-13 20:40,46.40,33.80,61.28,0.00,0.00,0.00,30.16,M,10.00,M,M,M,M,M,M,M,M,M,M,M,M,M,M,M,M,46.40,KWYS 132040Z AUTO 00000KT 10SM 08/01 A3016 RMK AO2,M
WYS,2023-10-13 21:40,48.20,35.60,61.52,0.00,0.00,0.00,30.15,M,10.00,M,M,M,M,M,M,M,M,M,M,M,M,M,M,M,M,48.20,KWYS 132140Z AUTO 00000KT 10SM 09/02 A3015 RMK AO2,M
WYS,2023-10-13 22:40,50.00,33.80,53.54,M,6.00,0.00,30.14,M,10.00,M,M,M,M,M,M,M,M,M,M,M,M,M,M,M,M,50.00,KWYS 132240Z AUTO VRB06KT 10SM 10/01 A3014 RMK AO2,M
WYS,2023-10-13 23:40,48.20,35.60,61.52,200.00,7.00,0.00,30.15,M,10.00,M,M,M,M,M,M,M,M,M,M,M,M,M,M,M,M,44.53,KWYS 132340Z AUTO 20007KT 10SM 09/02 A3015 RMK AO2,M
WYS,2023-10-14 00:40,46.40,35.60,65.83,190.00,4.00,0.00,30.15,M,10.00,M,M,M,M,M,M,M,M,M,M,M,M,M,M,M,M,44.24,KWYS 140040Z AUTO 19004KT 10SM 08/02 A3015 RMK AO2,M
WYS,2023-10-14 01:40,44.60,35.60,70.48,210.00,6.00,0.00,30.17,M,10.00,M,OVC,M,M,M,6500.00,M,M,M,M,M,M,M,M,M,M,40.71,KWYS 140140Z AUTO 21006KT 10SM OVC065 07/02 A3017 RMK AO2,M
WYS,2023-10-14 02:40,42.80,39.20,86.99,180.00,4.00,0.00,30.17,M,10.00,M,FEW,OVC,M,M,3900.00,5500.00,M,M,M,M,M,M,M,M,M,40.03,KWYS 140240Z AUTO 18004KT 10SM FEW039 OVC055 06/04 A3017 RMK AO2,M
WYS,2023-10-14 03:40,42.80,41.00,93.30,200.00,7.00,0.00,30.17,M,10.00,M,OVC,M,M,M,7000.00,M,M,M,M,M,M,M,M,M,M,37.94,KWYS 140340Z AUTO 20007KT 10SM OVC070 06/05 A3017 RMK AO2,M
WYS,2023-10-14 04:40,41.00,39.20,93.24,160.00,6.00,0.00,30.17,M,10.00,M,OVC,M,M,M,6500.00,M,M,M,M,M,M,M,M,M,M,36.37,KWYS 140440Z AUTO 16006KT 10SM OVC065 05/04 A3017 RMK AO2,M
WYS,2023-10-14 05:40,39.20,39.20,100.00,0.00,0.00,0.00,30.17,M,10.00,M,BKN,BKN,M,M,4400.00,7000.00,M,M,M,M,M,M,M,M,M,39.20,KWYS 140540Z AUTO 00000KT 10SM BKN044 BKN070 04/04 A3017 RMK AO2,M
WYS,2023-10-14 06:40,35.60,35.60,100.00,0.00,0.00,0.00,30.18,M,10.00,M,FEW,BKN,M,M,4900.00,7000.00,M,M,M,M,M,M,M,M,M,35.60,KWYS 140640Z AUTO 00000KT 10SM FEW049 BKN070 02/02 A3018 RMK AO2,M
WYS,2023-10-14 07:40,35.60,37.40,M,0.00,0.00,0.00,30.18,M,10.00,M,BKN,BKN,OVC,M,3800.00,4500.00,7000.00,M,M,M,M,M,M,M,M,M,KWYS 140740Z AUTO 00000KT 10SM BKN038 BKN045 OVC070 02/03 A3018 RMK AO2,M
WYS,2023-10-14 08:40,35.60,35.60,100.00,0.00,0.00,0.00,30.18,M,10.00,M,SCT,BKN,BKN,M,3700.00,4300.00,7000.00,M,M,M,M,M,M,M,M,35.60,KWYS 140840Z AUTO 00000KT 10SM SCT037 BKN043 BKN070 02/02 A3018 RMK AO2,M
WYS,2023-10-14 09:40,32.00,32.00,100.00,0.00,0.00,0.00,30.18,M,10.00,M,FEW,OVC,M,M,3300.00,4000.00,M,M,M,M,M,M,M,M,M,32.00,KWYS 140940Z AUTO 00000KT 10SM FEW033 OVC040 00/00 A3018 RMK AO2,M
WYS,2023-10-14 10:40,33.80,33.80,100.00,0.00,0.00,0.00,30.19,M,10.00,M,OVC,M,M,M,4000.00,M,M,M,M,M,M,M,M,M,M,33.80,KWYS 141040Z AUTO 00000KT 10SM OVC040 01/01 A3019 RMK AO2,M
WYS,2023-10-14 11:35,33.80,35.60,M,350.00,4.00,0.00,30.20,M,10.00,M,BKN,OVC,M,M,3800.00,4700.00,M,M,M,M,M,M,M,M,M,M,KWYS 141135Z AUTO 35004KT 10SM BKN038 OVC047 01/02 A3020 RMK AO2,M
WYS,2023-10-14 12:40,33.80,33.80,100.00,0.00,0.00,0.00,30.21,M,10.00,M,OVC,M,M,M,6000.00,M,M,M,M,M,M,M,M,M,M,33.80,KWYS 141240Z AUTO 00000KT 10SM OVC060 01/01 A3021 RMK AO2,M
WYS,2023-10-14 13:40,32.00,32.00,100.00,0.00,0.00,0.00,30.21,M,10.00,M,FEW,FEW,M,M,3900.00,5500.00,M,M,M,M,M,M,M,M,M,32.00,KWYS 141340Z AUTO 00000KT 10SM FEW039 FEW055 M00/M00 A3021 RMK AO2,M
WYS,2023-10-14 14:40,33.80,33.80,100.00,0.00,0.00,0.00,30.23,M,10.00,M,BKN,BKN,OVC,M,3400.00,3900.00,4700.00,M,M,M,M,M,M,M,M,33.80,KWYS 141440Z AUTO 00000KT 10SM BKN034 BKN039 OVC047 01/01 A3023 RMK AO2,M
WYS,2023-10-14 15:40,39.20,39.20,100.00,0.00,0.00,0.00,30.25,M,10.00,M,SCT,OVC,M,M,3200.00,4800.00,M,M,M,M,M,M,M,M,M,39.20,KWYS 141540Z AUTO 00000KT 10SM SCT032 OVC048 04/04 A3025 RMK AO2,M
WYS,2023-10-14 16:40,41.00,37.40,86.89,220.00,6.00,0.00,30.26,M,10.00,M,BKN,BKN,M,M,3600.00,11000.00,M,M,M,M,M,M,M,M,M,36.37,KWYS 141640Z AUTO 22006KT 10SM BKN036 BKN110 05/03 A3026 RMK AO2,M
WYS,2023-10-14 17:40,42.80,35.60,75.50,210.00,8.00,0.00,30.26,M,10.00,13.00,OVC,M,M,M,9500.00,M,M,M,M,M,M,M,M,M,M,37.42,KWYS 141740Z AUTO 21008G13KT 10SM OVC095 06/02 A3026 RMK AO2,M
WYS,2023-10-14 18:40,46.40,33.80,61.28,200.00,14.00,0.00,30.26,M,10.00,M,FEW,OVC,M,M,3100.00,9000.00,M,M,M,M,M,M,M,M,M,39.72,KWYS 141840Z AUTO 20014KT 10SM FEW031 OVC090 08/01 A3026 RMK AO2,M
WYS,2023-10-14 19:40,44.60,33.80,65.61,M,4.00,0.00,30.28,M,10.00,M,OVC,M,M,M,7000.00,M,M,M,M,M,M,M,M,M,M,42.13,KWYS 141940Z AUTO VRB04KT 10SM OVC070 07/01 A3028 RMK AO2,M
WYS,2023-10-14 20:40,48.20,33.80,57.26,200.00,9.00,0.00,30.26,M,10.00,M,BKN,BKN,M,M,7500.00,8500.00,M,M,M,M,M,M,M,M,M,43.66,KWYS 142040Z AUTO 20009KT 10SM BKN075 BKN085 09/01 A3026 RMK AO2,M
WYS,2023-10-14 21:40,48.20,33.80,57.26,M,4.00,0.00,30.26,M,10.00,M,FEW,BKN,BKN,M,3800.00,4600.00,7000.00,M,M,M,M,M,M,M,M,46.34,KWYS 142140Z AUTO VRB04KT 10SM FEW038 BKN046 BKN070 09/01 A3026 RMK AO2,M
WYS,2023-10-14 22:40,48.20,33.80,57.26,230.00,6.00,0.00,30.28,M,10.00,11.00,OVC,M,M,M,4200.00,M,M,M,M,M,M,M,M,M,M,45.04,KWYS 142240Z AUTO 23006G11KT 10SM OVC042 09/01 A3028 RMK AO2,M
WYS,2023-10-14 23:40,50.00,32.00,49.81,210.00,10.00,0.00,30.28,M,10.00,16.00,SCT,OVC,M,M,4800.00,5500.00,M,M,M,M,M,M,M,M,M,50.00,KWYS 142340Z AUTO 21010G16KT 10SM SCT048 OVC055 10/00 A3028 RMK AO2,M
WYS,2023-10-15 00:40,46.40,33.80,61.28,220.00,7.00,0.00,30.30,M,10.00,M,SCT,SCT,BKN,M,4900.00,5500.00,6500.00,M,M,M,M,M,M,M,M,42.33,KWYS 150040Z AUTO 22007KT 10SM SCT049 SCT055 BKN065 08/01 A3030 RMK AO2,M
WYS,2023-10-15 01:40,42.80,35.60,75.50,220.00,7.00,0.00,30.32,M,10.00,M,OVC,M,M,M,6500.00,M,M,M,M,M,M,M,M,M,M,37.94,KWYS 150140Z AUTO 22007KT 10SM OVC065 06/02 A3032 RMK AO2,M
WYS,2023-10-15 02:40,42.80,33.80,70.28,220.00,8.00,0.00,30.33,M,10.00,M,OVC,M,M,M,6500.00,M,M,M,M,M,M,M,M,M,M,37.42,KWYS 150240Z AUTO 22008KT 10SM OVC065 06/01 A3033 RMK AO2,M
WYS,2023-10-15 03:40,39.20,33.80,80.79,120.00,3.00,0.00,30.35,M,10.00,M,CLR,M,M,M,M,M,M,M,M,M,M,M,M,M,M,36.92,KWYS 150340Z AUTO 12003KT 10SM CLR 04/01 A3035 RMK AO2,M
WYS,2023-10-15 04:40,32.00,32.00,100.00,0.00,0.00,0.00,30.36,M,10.00,M,CLR,M,M,M,M,M,M,M,M,M,M,M,M,M,M,32.00,KWYS 150440Z AUTO 00000KT 10SM CLR 00/00 A3036 RMK AO2,M
WYS,2023-10-15 05:40,30.20,30.20,100.00,0.00,0.00,0.00,30.37,M,10.00,M,CLR,M,M,M,M,M,M,M,M,M,M,M,M,M,M,30.20,KWYS 150540Z AUTO 00000KT 10SM CLR M01/M01 A3037 RMK AO2,M
WYS,2023-10-15 06:40,28.40,28.40,100.00,0.00,0.00,0.00,30.37,M,10.00,M,CLR,M,M,M,M,M,M,M,M,M,M,M,M,M,M,28.40,KWYS 150640Z AUTO 00000KT 10SM CLR M02/M02 A3037 RMK AO2,M
WYS,2023-10-15 07:40,26.60,26.60,100.00,0.00,0.00,0.00,30.38,M,10.00,M,CLR,M,M,M,M,M,M,M,M,M,M,M,M,M,M,26.60,KWYS 150740Z AUTO 00000KT 10SM CLR M03/M03 A3038 RMK AO2,M
WYS,2023-10-15 08:40,26.60,26.60,100.00,0.00,0.00,0.00,30.41,M,10.00,M,CLR,M,M,M,M,M,M,M,M,M,M,M,M,M,M,26.60,KWYS 150840Z AUTO 00000KT 10SM CLR M03/M03 A3041 RMK AO2,M
WYS,2023-10-15 09:40,26.60,26.60,100.00,0.00,0.00,0.00,30.42,M,10.00,M,CLR,M,M,M,M,M,M,M,M,M,M,M,M,M,M,26.60,KWYS 150940Z AUTO 00000KT 10SM CLR M03/M03 A3042 RMK AO2,M
WYS,2023-10-15 10:35,26.60,26.60,100.00,0.00,0.00,0.00,30.42,M,10.00,M,CLR,M,M,M,M,M,M,M,M,M,M,M,M,M,M,26.60,KWYS 151035Z AUTO 00000KT 10SM CLR M03/M03 A3042 RMK AO2,M
WYS,2023-10-15 11:40,26.60,26.60,100.00,0.00,0.00,0.00,30.43,M,10.00,M,BKN,M,M,M,11000.00,M,M,M,M,M,M,M,M,M,M,26.60,KWYS 151140Z AUTO 00000KT 10SM BKN110 M03/M03 A3043 RMK AO2,M
WYS,2023-10-15 12:40,26.60,28.40,M,0.00,0.00,0.00,30.44,M,10.00,M,BKN,M,M,M,10000.00,M,M,M,M,M,M,M,M,M,M,M,KWYS 151240Z AUTO 00000KT 10SM BKN100 M03/M02 A3044 RMK AO2,M
WYS,2023-10-15 13:40,26.60,26.60,100.00,0.00,0.00,0.00,30.44,M,10.00,M,BKN,BKN,M,M,7000.00,10000.00,M,M,M,M,M,M,M,M,M,26.60,KWYS 151340Z AUTO 00000KT 10SM BKN070 BKN100 M03/M03 A3044 RMK AO2,M
WYS,2023-10-15 14:40,30.20,30.20,100.00,0.00,0.00,0.00,30.46,M,10.00,M,OVC,M,M,M,6500.00,M,M,M,M,M,M,M,M,M,M,30.20,KWYS 151440Z AUTO 00000KT 10SM OVC065 M01/M01 A3046 RMK AO2,M
WYS,2023-10-15 15:40,32.00,32.00,100.00,0.00,0.00,0.00,30.47,M,10.00,M,OVC,M,M,M,6500.00,M,M,M,M,M,M,M,M,M,M,32.00,KWYS 151540Z AUTO 00000KT 10SM OVC065 00/00 A3047 RMK AO2,M
WYS,2023-10-15 16:40,39.20,35.60,86.79,0.00,0.00,0.00,30.46,M,10.00,M,FEW,M,M,M,7500.00,M,M,M,M,M,M,M,M,M,M,39.20,KWYS 151640Z AUTO 00000KT 10SM FEW075 04/02 A3046 RMK AO2,M
WYS,2023-10-15 17:40,44.60,33.80,65.61,0.00,0.00,0.00,30.45,M,10.00,M,M,M,M,M,M,M,M,M,M,M,M,M,M,M,M,44.60,KWYS 151740Z AUTO 00000KT 10SM 07/01 A3045 RMK AO2,M
WYS,2023-10-15 18:40,51.80,35.60,53.81,0.00,0.00,0.00,30.44,M,10.00,M,FEW,M,M,M,7000.00,M,M,M,M,M,M,M,M,M,M,51.80,KWYS 151840Z AUTO 00000KT 10SM FEW070 11/02 A3044 RMK AO2,M
WYS,2023-10-15 19:40,55.40,33.80,43.90,210.00,11.00,0.00,30.42,M,10.00,M,M,M,M,M,M,M,M,M,M,M,M,M,M,M,M,55.40,KWYS 151940Z AUTO 21011KT 10SM 13/01 A3042 RMK AO2,M
WYS,2023-10-15 20:40,59.00,33.80,38.56,210.00,12.00,0.00,30.40,M,10.00,M,M,M,M,M,M,M,M,M,M,M,M,M,M,M,M,59.00,KWYS 152040Z AUTO 21012KT 10SM 15/01 A3040 RMK AO2,M
WYS,2023-10-15 21:40,59.00,32.00,35.87,210.00,14.00,0.00,30.38,M,10.00,M,M,M,M,M,M,M,M,M,M,M,M,M,M,M,M,59.00,KWYS 152140Z AUTO 21014KT 10SM 15/M00 A3038 RMK AO2,M
WYS,2023-10-15 22:40,59.00,32.00,35.87,230.00,9.00,0.00,30.39,M,10.00,M,M,M,M,M,M,M,M,M,M,M,M,M,M,M,M,59.00,KWYS 152240Z AUTO 23009KT 10SM 15/M00 A3039 RMK AO2,M
WYS,2023-10-15 23:40,57.20,32.00,38.26,200.00,9.00,0.00,30.39,M,10.00,M,CLR,M,M,M,M,M,M,M,M,M,M,M,M,M,M,57.20,KWYS 152340Z AUTO 20009KT 10SM CLR 14/M00 A3039 RMK AO2,M
WYS,2023-10-16 00:40,51.80,32.00,46.59,210.00,4.00,0.00,30.40,M,10.00,M,CLR,M,M,M,M,M,M,M,M,M,M,M,M,M,M,51.80,KWYS 160040Z AUTO 21004KT 10SM CLR 11/M00 A3040 RMK AO2,M
WYS,2023-10-16 01:40,44.60,32.00,61.03,190.00,4.00,0.00,30.40,M,10.00,M,CLR,M,M,M,M,M,M,M,M,M,M,M,M,M,M,42.13,KWYS 160140Z AUTO 19004KT 10SM CLR 07/00 A3040 RMK AO2,M
WYS,2023-10-16 02:40,41.00,32.00,70.08,0.00,0.00,0.00,30.41,M,10.00,M,CLR,M,M,M,M,M,M,M,M,M,M,M,M,M,M,41.00,KWYS 160240Z AUTO 00000KT 10SM CLR 05/00 A3041 RMK AO2,M
WYS,2023-10-16 03:40,37.40,32.00,80.65,0.00,0.00,0.00,30.43,M,10.00,M,SCT,M,M,M,8000.00,M,M,M,M,M,M,M,M,M,M,37.40,KWYS 160340Z AUTO 00000KT 10SM SCT080 03/00 A3043 RMK AO2,M
WYS,2023-10-16 04:40,33.80,32.00,93.03,0.00,0.00,0.00,30.43,M,10.00,M,CLR,M,M,M,M,M,M,M,M,M,M,M,M,M,M,33.80,KWYS 160440Z AUTO 00000KT 10SM CLR 01/00 A3043 RMK AO2,M
WYS,2023-10-16 05:40,30.20,30.20,100.00,0.00,0.00,0.00,30.43,M,10.00,M,CLR,M,M,M,M,M,M,M,M,M,M,M,M,M,M,30.20,KWYS 160540Z AUTO 00000KT 10SM CLR M01/M01 A3043 RMK AO2,M
WYS,2023-10-16 06:40,28.40,28.40,100.00,220.00,3.00,0.00,30.42,M,10.00,M,CLR,M,M,M,M,M,M,M,M,M,M,M,M,M,M,24.57,KWYS 160640Z AUTO 22003KT 10SM CLR M02/M02 A3042 RMK AO2,M
WYS,2023-10-16 07:40,28.40,28.40,100.00,0.00,0.00,0.00,30.42,M,10.00,M,CLR,M,M,M,M,M,M,M,M,M,M,M,M,M,M,28.40,KWYS 160740Z AUTO 00000KT 10SM CLR M02/M02 A3042 RMK AO2,M
WYS,2023-10-16 08:40,26.60,26.60,100.00,0.00,0.00,0.00,30.43,M,10.00,M,CLR,M,M,M,M,M,M,M,M,M,M,M,M,M,M,26.60,KWYS 160840Z AUTO 00000KT 10SM CLR M03/M03 A3043 RMK AO2,M
WYS,2023-10-16 09:40,26.60,26.60,100.00,0.00,0.00,0.00,30.43,M,10.00,M,CLR,M,M,M,M,M,M,M,M,M,M,M,M,M,M,26.60,KWYS 160940Z AUTO 00000KT 10SM CLR M03/M03 A3043 RMK AO2,M
WYS,2023-10-16 10:40,26.60,26.60,100.00,0.00,0.00,0.00,30.42,M,10.00,M,CLR,M,M,M,M,M,M,M,M,M,M,M,M,M,M,26.60,KWYS 161040Z AUTO 00000KT 10SM CLR M03/M03 A3042 RMK AO2,M
WYS,2023-10-16 11:40,26.60,26.60,100.00,0.00,0.00,0.00,30.41,M,10.00,M,CLR,M,M,M,M,M,M,M,M,M,M,M,M,M,M,26.60,KWYS 161140Z AUTO 00000KT 10SM CLR M03/M03 A3041 RMK AO2,M
WYS,2023-10-16 12:40,24.80,24.80,100.00,0.00,0.00,0.00,30.42,M,10.00,M,CLR,M,M,M,M,M,M,M,M,M,M,M,M,M,M,24.80,KWYS 161240Z AUTO 00000KT 10SM CLR M04/M04 A3042 RMK AO2,M
WYS,2023-10-16 13:40,24.80,24.80,100.00,0.00,0.00,0.00,30.41,M,10.00,M,CLR,M,M,M,M,M,M,M,M,M,M,M,M,M,M,24.80,KWYS 161340Z AUTO 00000KT 10SM CLR M04/M04 A3041 RMK AO2,M
WYS,2023-10-16 14:40,28.40,28.40,100.00,0.00,0.00,0.00,30.41,M,10.00,M,CLR,M,M,M,M,M,M,M,M,M,M,M,M,M,M,28.40,KWYS 161440Z AUTO 00000KT 10SM CLR M02/M02 A3041 RMK AO2,M
WYS,2023-10-16 15:40,32.00,32.00,100.00,0.00,0.00,0.00,30.41,M,10.00,M,CLR,M,M,M,M,M,M,M,M,M,M,M,M,M,M,32.00,KWYS 161540Z AUTO 00000KT 10SM CLR 00/00 A3041 RMK AO2,M
WYS,2023-10-16 16:40,39.20,33.80,80.79,0.00,0.00,0.00,30.40,M,10.00,M,M,M,M,M,M,M,M,M,M,M,M,M,M,M,M,39.20,KWYS 161640Z AUTO 00000KT 10SM 04/01 A3040 RMK AO2,M
WYS,2023-10-16 17:55,46.40,33.80,61.28,0.00,0.00,0.00,30.36,M,10.00,M,M,M,M,M,M,M,M,M,M,M,M,M,M,M,M,46.40,KWYS 161755Z AUTO 00000KT 10SM 08/01 A3036 RMK AO2,M
WYS,2023-10-16 18:40,50.00,35.60,57.52,0.00,0.00,0.00,30.34,M,10.00,M,M,M,M,M,M,M,M,M,M,M,M,M,M,M,M,50.00,KWYS 161840Z AUTO 00000KT 10SM 10/02 A3034 RMK AO2,M
WYS,2023-10-16 19:40,57.20,33.80,41.13,200.00,4.00,0.00,30.30,M,10.00,M,M,M,M,M,M,M,M,M,M,M,M,M,M,M,M,57.20,KWYS 161940Z AUTO 20004KT 10SM 14/01 A3030 RMK AO2,M
WYS,2023-10-16 20:55,62.60,32.00,31.56,230.00,13.00,0.00,30.26,M,10.00,M,M,M,M,M,M,M,M,M,M,M,M,M,M,M,M,62.60,KWYS 162055Z AUTO 23013KT 10SM 17/M00 A3026 RMK AO2,M
WYS,2023-10-16 21:40,62.60,28.40,27.27,190.00,11.00,0.00,30.26,M,10.00,19.00,CLR,M,M,M,M,M,M,M,M,M,M,M,M,M,M,62.60,KWYS 162140Z AUTO 19011G19KT 10SM CLR 17/M02 A3026 RMK AO2,M
WYS,2023-10-16 22:40,64.40,28.40,25.60,220.00,9.00,0.00,30.24,M,10.00,M,CLR,M,M,M,M,M,M,M,M,M,M,M,M,M,M,64.40,KWYS 162240Z AUTO 22009KT 200V260 10SM CLR 18/M02 A3024 RMK AO2,M
WYS,2023-10-16 23:40,60.80,28.40,29.06,210.00,9.00,0.00,30.23,M,10.00,14.00,CLR,M,M,M,M,M,M,M,M,M,M,M,M,M,M,60.80,KWYS 162340Z AUTO 21009G14KT 10SM CLR 16/M02 A3023 RMK AO2,M
WYS,2023-10-17 00:40,53.60,28.40,37.67,0.00,0.00,0.00,30.22,M,10.00,M,CLR,M,M,M,M,M,M,M,M,M,M,M,M,M,M,53.60,KWYS 170040Z AUTO 00000KT 10SM CLR 12/M02 A3022 RMK AO2,M
WYS,2023-10-17 01:40,48.20,30.20,49.53,0.00,0.00,0.00,30.21,M,10.00,M,CLR,M,M,M,M,M,M,M,M,M,M,M,M,M,M,48.20,KWYS 170140Z AUTO 00000KT 10SM CLR 09/M01 A3021 RMK AO2,M
WYS,2023-10-17 02:40,41.00,30.20,65.16,0.00,0.00,0.00,30.20,M,10.00,M,CLR,M,M,M,M,M,M,M,M,M,M,M,M,M,M,41.00,KWYS 170240Z AUTO 00000KT 10SM CLR 05/M01 A3020 RMK AO2,M
WYS,2023-10-17 03:40,39.20,32.00,75.16,0.00,0.00,0.00,30.19,M,10.00,M,CLR,M,M,M,M,M,M,M,M,M,M,M,M,M,M,39.20,KWYS 170340Z AUTO 00000KT 10SM CLR 04/M00 A3019 RMK AO2,M
WYS,2023-10-17 04:40,35.60,30.20,80.51,0.00,0.00,0.00,30.19,M,10.00,M,CLR,M,M,M,M,M,M,M,M,M,M,M,M,M,M,35.60,KWYS 170440Z AUTO 00000KT 10SM CLR 02/M01 A3019 RMK AO2,M
WYS,2023-10-17 05:40,33.80,32.00,93.03,0.00,0.00,0.00,30.18,M,10.00,M,CLR,M,M,M,M,M,M,M,M,M,M,M,M,M,M,33.80,KWYS 170540Z AUTO 00000KT 10SM CLR 01/M00 A3018 RMK AO2,M
WYS,2023-10-17 06:40,32.00,32.00,100.00,0.00,0.00,0.00,30.17,M,10.00,M,CLR,M,M,M,M,M,M,M,M,M,M,M,M,M,M,32.00,KWYS 170640Z AUTO 00000KT 10SM CLR M00/M00 A3017 RMK AO2,M
WYS,2023-10-17 07:40,30.20,30.20,100.00,0.00,0.00,0.00,30.15,M,10.00,M,CLR,M,M,M,M,M,M,M,M,M,M,M,M,M,M,30.20,KWYS 170740Z AUTO 00000KT 10SM CLR M01/M01 A3015 RMK AO2,M
WYS,2023-10-17 08:40,30.20,30.20,100.00,0.00,0.00,0.00,30.15,M,10.00,M,SCT,M,M,M,9000.00,M,M,M,M,M,M,M,M,M,M,30.20,KWYS 170840Z AUTO 00000KT 10SM SCT090 M01/M01 A3015 RMK AO2,M
WYS,2023-10-17 09:40,32.00,32.00,100.00,M,3.00,0.00,30.14,M,10.00,M,CLR,M,M,M,M,M,M,M,M,M,M,M,M,M,M,28.69,KWYS 170940Z AUTO VRB03KT 10SM CLR M00/M00 A3014 RMK AO2,M
WYS,2023-10-17 10:40,32.00,32.00,100.00,0.00,0.00,0.00,30.13,M,10.00,M,BKN,BKN,M,M,10000.00,12000.00,M,M,M,M,M,M,M,M,M,32.00,KWYS 171040Z AUTO 00000KT 10SM BKN100 BKN120 00/00 A3013 RMK AO2,M
WYS,2023-10-17 11:40,33.80,33.80,100.00,0.00,0.00,0.00,30.13,M,10.00,M,FEW,FEW,OVC,M,6500.00,7500.00,10000.00,M,M,M,M,M,M,M,M,33.80,KWYS 171140Z AUTO 00000KT 10SM FEW065 FEW075 OVC100 01/01 A3013 RMK AO2,M
WYS,2023-10-17 12:40,35.60,33.80,93.08,90.00,3.00,0.00,30.12,M,10.00,M,SCT,M,M,M,9500.00,M,M,M,M,M,M,M,M,M,M,32.80,KWYS 171240Z AUTO 09003KT 10SM SCT095 02/01 A3012 RMK AO2,M
WYS,2023-10-17 13:40,42.80,32.00,65.38,190.00,12.00,0.00,30.11,M,10.00,M,CLR,M,M,M,M,M,M,M,M,M,M,M,M,M,M,35.75,KWYS 171340Z AUTO 19012KT 10SM CLR 06/M00 A3011 RMK AO2,M
WYS,2023-10-17 14:40,44.60,32.00,61.03,M,4.00,0.00,30.11,M,10.00,M,CLR,M,M,M,M,M,M,M,M,M,M,M,M,M,M,42.13,KWYS 171440Z AUTO VRB04KT 10SM CLR 07/M00 A3011 RMK AO2,M
WYS,2023-10-17 15:40,50.00,32.00,49.81,200.00,14.00,0.00,30.13,M,10.00,M,CLR,M,M,M,M,M,M,M,M,M,M,M,M,M,M,50.00,KWYS 171540Z AUTO 20014KT 10SM CLR 10/00 A3013 RMK AO2,M
WYS,2023-10-17 16:40,50.00,33.80,53.54,210.00,19.00,0.00,30.13,M,10.00,25.00,CLR,M,M,M,M,M,M,M,M,M,M,M,M,M,M,50.00,KWYS 171640Z AUTO 21019G25KT 10SM CLR 10/01 A3013 RMK AO2,M
WYS,2023-10-17 17:40,53.60,35.60,50.36,200.00,19.00,0.00,30.12,M,10.00,M,CLR,M,M,M,M,M,M,M,M,M,M,M,M,M,M,53.60,KWYS 171740Z AUTO 20019KT 10SM CLR 12/02 A3012 RMK AO2,M
WYS,2023-10-17 18:40,55.40,35.60,47.16,220.00,15.00,0.00,30.08,M,10.00,26.00,CLR,M,M,M,M,M,M,M,M,M,M,M,M,M,M,55.40,KWYS 171840Z AUTO 22015G26KT 10SM CLR 13/02 A3008 RMK AO2,M
WYS,2023-10-17 19:35,57.20,35.60,44.19,210.00,23.00,0.00,30.07,M,10.00,28.00,CLR,M,M,M,M,M,M,M,M,M,M,M,M,M,M,57.20,KWYS 171935Z AUTO 21023G28KT 10SM CLR 14/02 A3007 RMK AO2,M
WYS,2023-10-17 20:40,59.00,35.60,41.42,230.00,19.00,0.00,30.08,M,10.00,27.00,SCT,M,M,M,7000.00,M,M,M,M,M,M,M,M,M,M,59.00,KWYS 172040Z AUTO 23019G27KT 10SM SCT070 15/02 A3008 RMK AO2,M
WYS,2023-10-17 21:40,59.00,33.80,38.56,220.00,17.00,0.00,30.09,M,10.00,26.00,FEW,SCT,M,M,7000.00,8500.00,M,M,M,M,M,M,M,M,M,59.00,KWYS 172140Z AUTO 22017G26KT 10SM FEW070 SCT085 15/01 A3009 RMK AO2,M
WYS,2023-10-17 22:40,59.00,32.00,35.87,220.00,23.00,0.00,30.08,M,10.00,30.00,BKN,OVC,M,M,8000.00,9000.00,M,M,M,M,M,M,M,M,M,59.00,KWYS 172240Z AUTO 22023G30KT 10SM BKN080 OVC090 15/M00 A3008 RMK AO2,M
WYS,2023-10-17 23:35,60.80,28.40,29.06,280.00,7.00,0.00,30.09,M,10.00,17.00,CLR,M,M,M,M,M,M,M,M,M,M,M,M,M,M,60.80,KWYS 172335Z AUTO 28007G17KT 240V320 10SM CLR 16/M02 A3009 RMK AO2,M
WYS,2023-10-18 00:40,55.40,28.40,35.28,0.00,0.00,0.00,30.12,M,10.00,10.00,CLR,M,M,M,M,M,M,M,M,M,M,M,M,M,M,55.40,KWYS 180040Z AUTO 00000G10KT 10SM CLR 13/M02 A3012 RMK AO2,M
WYS,2023-10-18 01:40,50.00,28.40,43.03,240.00,5.00,0.00,30.16,M,10.00,M,CLR,M,M,M,M,M,M,M,M,M,M,M,M,M,M,50.00,KWYS 180140Z AUTO 24005KT 10SM CLR 10/M02 A3016 RMK AO2,M
WYS,2023-10-18 02:40,48.20,26.60,42.73,260.00,6.00,0.00,30.17,M,10.00,M,CLR,M,M,M,M,M,M,M,M,M,M,M,M,M,M,45.04,KWYS 180240Z AUTO 26006KT 10SM CLR 09/M03 A3017 RMK AO2,M
WYS,2023-10-18 03:40,46.40,23.00,39.36,230.00,4.00,0.00,30.18,M,10.00,M,CLR,M,M,M,M,M,M,M,M,M,M,M,M,M,M,44.24,KWYS 180340Z AUTO 23004KT 10SM CLR 08/M05 A3018 RMK AO2,M
WYS,2023-10-18 04:40,44.60,23.00,42.14,230.00,7.00,0.00,30.18,M,10.00,M,CLR,M,M,M,M,M,M,M,M,M,M,M,M,M,M,40.14,KWYS 180440Z AUTO 23007KT 10SM CLR 07/M05 A3018 RMK AO2,M
WYS,2023-10-18 05:40,41.00,24.80,52.17,220.00,5.00,0.00,30.20,M,10.00,M,CLR,M,M,M,M,M,M,M,M,M,M,M,M,M,M,37.08,KWYS 180540Z AUTO 22005KT 10SM CLR 05/M04 A3020 RMK AO2,M
WYS,2023-10-18 06:40,33.80,21.20,59.53,0.00,0.00,0.00,30.22,M,10.00,M,CLR,M,M,M,M,M,M,M,M,M,M,M,M,M,M,33.80,KWYS 180640Z AUTO 00000KT 10SM CLR 01/M06 A3022 RMK AO2,M
WYS,2023-10-18 07:40,30.20,23.00,74.26,0.00,0.00,0.00,30.23,M,10.00,M,CLR,M,M,M,M,M,M,M,M,M,M,M,M,M,M,30.20,KWYS 180740Z AUTO 00000KT 10SM CLR M01/M05 A3023 RMK AO2,M
WYS,2023-10-18 08:40,26.60,23.00,86.07,0.00,0.00,0.00,30.26,M,10.00,M,CLR,M,M,M,M,M,M,M,M,M,M,M,M,M,M,26.60,KWYS 180840Z AUTO 00000KT 10SM CLR M03/M05 A3026 RMK AO2,M
WYS,2023-10-18 09:40,26.60,23.00,86.07,0.00,0.00,0.00,30.27,M,10.00,M,CLR,M,M,M,M,M,M,M,M,M,M,M,M,M,M,26.60,KWYS 180940Z AUTO 00000KT 10SM CLR M03/M05 A3027 RMK AO2,M
WYS,2023-10-18 10:40,24.80,23.00,92.74,0.00,0.00,0.00,30.28,M,10.00,M,CLR,M,M,M,M,M,M,M,M,M,M,M,M,M,M,24.80,KWYS 181040Z AUTO 00000KT 10SM CLR M04/M05 A3028 RMK AO2,M
WYS,2023-10-18 11:40,26.60,24.80,92.80,0.00,0.00,0.00,30.27,M,10.00,M,CLR,M,M,M,M,M,M,M,M,M,M,M,M,M,M,26.60,KWYS 181140Z AUTO 00000KT 10SM CLR M03/M04 A3027 RMK AO2,M
WYS,2023-10-18 12:40,26.60,24.80,92.80,0.00,0.00,0.00,30.30,M,10.00,M,CLR,M,M,M,M,M,M,M,M,M,M,M,M,M,M,26.60,KWYS 181240Z AUTO 00000KT 10SM CLR M03/M04 A3030 RMK AO2,M
WYS,2023-10-18 13:40,24.80,24.80,100.00,0.00,0.00,0.00,30.31,M,10.00,M,CLR,M,M,M,M,M,M,M,M,M,M,M,M,M,M,24.80,KWYS 181340Z AUTO 00000KT 10SM CLR M04/M04 A3031 RMK AO2,M
WYS,2023-10-18 14:40,26.60,26.60,100.00,0.00,0.00,0.00,30.33,M,10.00,M,CLR,M,M,M,M,M,M,M,M,M,M,M,M,M,M,26.60,KWYS 181440Z AUTO 00000KT 10SM CLR M03/M03 A3033 RMK AO2,M
WYS,2023-10-18 15:40,35.60,26.60,69.46,0.00,0.00,0.00,30.34,M,10.00,M,CLR,M,M,M,M,M,M,M,M,M,M,M,M,M,M,35.60,KWYS 181540Z AUTO 00000KT 10SM CLR 02/M03 A3034 RMK AO2,M
WYS,2023-10-18 16:40,41.00,24.80,52.17,0.00,0.00,0.00,30.35,M,10.00,M,M,M,M,M,M,M,M,M,M,M,M,M,M,M,M,41.00,KWYS 181640Z AUTO 00000KT 10SM 05/M04 A3035 RMK AO2,M
WYS,2023-10-18 17:40,48.20,28.40,46.02,0.00,0.00,0.00,30.34,M,10.00,M,M,M,M,M,M,M,M,M,M,M,M,M,M,M,M,48.20,KWYS 181740Z AUTO 00000KT 10SM 09/M02 A3034 RMK AO2,M
WYS,2023-10-18 18:40,53.60,32.00,43.61,0.00,0.00,0.00,30.33,M,10.00,M,M,M,M,M,M,M,M,M,M,M,M,M,M,M,M,53.60,KWYS 181840Z AUTO 00000KT 10SM 12/M00 A3033 RMK AO2,M
WYS,2023-10-18 19:40,59.00,35.60,41.42,200.00,13.00,0.00,30.30,M,10.00,M,CLR,M,M,M,M,M,M,M,M,M,M,M,M,M,M,59.00,KWYS 181940Z AUTO 20013KT 10SM CLR 15/02 A3030 RMK AO2,M
WYS,2023-10-18 20:40,60.80,35.60,38.85,230.00,11.00,0.00,30.30,M,10.00,19.00,CLR,M,M,M,M,M,M,M,M,M,M,M,M,M,M,60.80,KWYS 182040Z AUTO 23011G19KT 10SM CLR 16/02 A3030 RMK AO2,M
WYS,2023-10-18 21:40,60.80,37.40,41.71,200.00,15.00,0.00,30.29,M,10.00,M,CLR,M,M,M,M,M,M,M,M,M,M,M,M,M,M,60.80,KWYS 182140Z AUTO 20015KT 10SM CLR 16/03 A3029 RMK AO2,M
WYS,2023-10-18 22:40,60.80,37.40,41.71,200.00,19.00,0.00,30.28,M,10.00,M,CLR,M,M,M,M,M,M,M,M,M,M,M,M,M,M,60.80,KWYS 182240Z AUTO 20019KT 10SM CLR 16/03 A3028 RMK AO2,M
WYS,2023-10-18 23:40,59.00,37.40,44.47,210.00,13.00,0.00,30.29,M,10.00,21.00,CLR,M,M,M,M,M,M,M,M,M,M,M,M,M,M,59.00,KWYS 182340Z AUTO 21013G21KT 10SM CLR 15/03 A3029 RMK AO2,M
WYS,2023-10-19 00:40,53.60,37.40,54.07,220.00,9.00,0.00,30.30,M,10.00,M,CLR,M,M,M,M,M,M,M,M,M,M,M,M,M,M,53.60,KWYS 190040Z AUTO 22009KT 10SM CLR 12/03 A3030 RMK AO2,M
WYS,2023-10-19 01:40,50.00,37.40,61.76,220.00,12.00,0.00,30.32,M,10.00,19.00,CLR,M,M,M,M,M,M,M,M,M,M,M,M,M,M,50.00,KWYS 190140Z AUTO 22012G19KT 10SM CLR 10/03 A3032 RMK AO2,M
WYS,2023-10-19 02:40,50.00,37.40,61.76,240.00,7.00,0.00,30.33,M,10.00,12.00,CLR,M,M,M,M,M,M,M,M,M,M,M,M,M,M,50.00,KWYS 190240Z AUTO 24007G12KT 210V270 10SM CLR 10/03 A3033 RMK AO2,M
WYS,2023-10-19 03:40,46.40,37.40,70.68,0.00,0.00,0.00,30.35,M,10.00,M,CLR,M,M,M,M,M,M,M,M,M,M,M,M,M,M,46.40,KWYS 190340Z AUTO 00000KT 10SM CLR 08/03 A3035 RMK AO2,M
WYS,2023-10-19 04:40,41.00,37.40,86.89,20.00,3.00,0.00,30.37,M,10.00,M,CLR,M,M,M,M,M,M,M,M,M,M,M,M,M,M,38.98,KWYS 190440Z AUTO 02003KT 10SM CLR 05/03 A3037 RMK AO2,M
WYS,2023-10-19 05:40,37.40,37.40,100.00,0.00,0.00,0.00,30.37,M,10.00,M,CLR,M,M,M,M,M,M,M,M,M,M,M,M,M,M,37.40,KWYS 190540Z AUTO 00000KT 10SM CLR 03/03 A3037 RMK AO2,M
WYS,2023-10-19 06:40,33.80,33.80,100.00,0.00,0.00,0.00,30.37,M,10.00,M,CLR,M,M,M,M,M,M,M,M,M,M,M,M,M,M,33.80,KWYS 190640Z AUTO 00000KT 10SM CLR 01/01 A3037 RMK AO2,M
WYS,2023-10-19 07:40,30.20,30.20,100.00,0.00,0.00,0.00,30.38,M,10.00,M,CLR,M,M,M,M,M,M,M,M,M,M,M,M,M,M,30.20,KWYS 190740Z AUTO 00000KT 10SM CLR M01/M01 A3038 RMK AO2,M
WYS,2023-10-19 08:40,28.40,28.40,100.00,0.00,0.00,0.00,30.39,M,10.00,M,CLR,M,M,M,M,M,M,M,M,M,M,M,M,M,M,28.40,KWYS 190840Z AUTO 00000KT 10SM CLR M02/M02 A3039 RMK AO2,M
WYS,2023-10-19 09:40,26.60,26.60,100.00,0.00,0.00,0.00,30.39,M,10.00,M,CLR,M,M,M,M,M,M,M,M,M,M,M,M,M,M,26.60,KWYS 190940Z AUTO 00000KT 10SM CLR M03/M03 A3039 RMK AO2,M
WYS,2023-10-19 10:40,26.60,26.60,100.00,0.00,0.00,0.00,30.39,M,10.00,M,CLR,M,M,M,M,M,M,M,M,M,M,M,M,M,M,26.60,KWYS 191040Z AUTO 00000KT 10SM CLR M03/M03 A3039 RMK AO2,M
WYS,2023-10-19 11:40,26.60,26.60,100.00,0.00,0.00,0.00,30.39,M,10.00,M,CLR,M,M,M,M,M,M,M,M,M,M,M,M,M,M,26.60,KWYS 191140Z AUTO 00000KT 10SM CLR M03/M03 A3039 RMK AO2,M
WYS,2023-10-19 12:40,24.80,24.80,100.00,0.00,0.00,0.00,30.39,M,10.00,M,CLR,M,M,M,M,M,M,M,M,M,M,M,M,M,M,24.80,KWYS 191240Z AUTO 00000KT 10SM CLR M04/M04 A3039 RMK AO2,M
WYS,2023-10-19 13:40,24.80,24.80,100.00,0.00,0.00,0.00,30.39,M,10.00,M,BKN,M,M,M,200.00,M,M,M,M,M,M,M,M,M,M,24.80,KWYS 191340Z AUTO 00000KT 10SM BKN002 M04/M04 A3039 RMK AO2,M
WYS,2023-10-19 14:40,26.60,26.60,100.00,0.00,0.00,0.00,30.40,M,0.25,M,OVC,M,M,M,200.00,M,M,M,FZFG,M,M,M,M,M,M,26.60,KWYS 191440Z AUTO 00000KT M1/4SM FZFG OVC002 M03/M03 A3040 RMK AO2,M
WYS,2023-10-19 15:40,30.20,30.20,100.00,0.00,0.00,0.00,30.40,M,0.25,M,OVC,M,M,M,200.00,M,M,M,FZFG,M,M,M,M,M,M,30.20,KWYS 191540Z AUTO 00000KT M1/4SM FZFG OVC002 M01/M01 A3040 RMK AO2,M
WYS,2023-10-19 16:40,37.40,37.40,100.00,0.00,0.00,0.00,30.39,M,10.00,M,M,M,M,M,M,M,M,M,M,M,M,M,M,M,M,37.40,KWYS 191640Z AUTO 00000KT 10SM 03/03 A3039 RMK AO2,M
WYS,2023-10-19 17:40,46.40,37.40,70.68,0.00,0.00,0.00,30.38,M,10.00,M,M,M,M,M,M,M,M,M,M,M,M,M,M,M,M,46.40,KWYS 191740Z AUTO 00000KT 10SM 08/03 A3038 RMK AO2,M
WYS,2023-10-19 18:40,59.00,37.40,44.47,190.00,12.00,0.00,30.35,M,10.00,M,M,M,M,M,M,M,M,M,M,M,M,M,M,M,M,59.00,KWYS 191840Z AUTO 19012KT 10SM 15/03 A3035 RMK AO2,M
WYS,2023-10-19 19:40,60.80,37.40,41.71,200.00,15.00,0.00,30.33,M,10.00,M,CLR,M,M,M,M,M,M,M,M,M,M,M,M,M,M,60.80,KWYS 191940Z AUTO 20015KT 10SM CLR 16/03 A3033 RMK AO2,M
WYS,2023-10-19 20:40,62.60,39.20,42.00,210.00,10.00,0.00,30.31,M,10.00,18.00,CLR,M,M,M,M,M,M,M,M,M,M,M,M,M,M,62.60,KWYS 192040Z AUTO 21010G18KT 10SM CLR 17/04 A3031 RMK AO2,M
WYS,2023-10-19 21:40,62.60,37.40,39.14,210.00,17.00,0.00,30.29,M,10.00,M,CLR,M,M,M,M,M,M,M,M,M,M,M,M,M,M,62.60,KWYS 192140Z AUTO 21017KT 10SM CLR 17/03 A3029 RMK AO2,M
WYS,2023-10-19 22:40,62.60,37.40,39.14,210.00,13.00,0.00,30.28,M,10.00,20.00,CLR,M,M,M,M,M,M,M,M,M,M,M,M,M,M,62.60,KWYS 192240Z AUTO 21013G20KT 10SM CLR 17/03 A3028 RMK AO2,M
WYS,2023-10-19 23:40,60.80,37.40,41.71,220.00,9.00,0.00,30.28,M,10.00,17.00,CLR,M,M,M,M,M,M,M,M,M,M,M,M,M,M,60.80,KWYS 192340Z AUTO 22009G17KT 10SM CLR 16/03 A3028 RMK AO2,M
WYS,2023-10-20 00:40,55.40,37.40,50.64,200.00,3.00,0.00,30.28,M,10.00,10.00,CLR,M,M,M,M,M,M,M,M,M,M,M,M,M,M,55.40,KWYS 200040Z AUTO 20003G10KT 10SM CLR 13/03 A3028 RMK AO2,M
WYS,2023-10-20 01:40,53.60,37.40,54.07,200.00,7.00,0.00,30.28,M,10.00,M,CLR,M,M,M,M,M,M,M,M,M,M,M,M,M,M,53.60,KWYS 200140Z AUTO 20007KT 10SM CLR 12/03 A3028 RMK AO2,M
WYS,2023-10-20 02:40,53.60,37.40,54.07,220.00,11.00,0.00,30.28,M,10.00,M,CLR,M,M,M,M,M,M,M,M,M,M,M,M,M,M,53.60,KWYS 200240Z AUTO 22011KT 10SM CLR 12/03 A3028 RMK AO2,M
WYS,2023-10-20 03:40,46.40,37.40,70.68,220.00,3.00,0.00,30.28,M,10.00,M,CLR,M,M,M,M,M,M,M,M,M,M,M,M,M,M,45.15,KWYS 200340Z AUTO 22003KT 10SM CLR 08/03 A3028 RMK AO2,M
WYS,2023-10-20 04:40,42.80,37.40,81.07,240.00,4.00,0.00,30.28,M,10.00,M,CLR,M,M,M,M,M,M,M,M,M,M,M,M,M,M,40.03,KWYS 200440Z AUTO 24004KT 10SM CLR 06/03 A3028 RMK AO2,M
WYS,2023-10-20 05:40,37.40,35.60,93.14,0.00,0.00,0.00,30.28,M,10.00,M,CLR,M,M,M,M,M,M,M,M,M,M,M,M,M,M,37.40,KWYS 200540Z AUTO 00000KT 10SM CLR 03/02 A3028 RMK AO2,M
WYS,2023-10-20 06:40,33.80,33.80,100.00,0.00,0.00,0.00,30.27,M,10.00,M,CLR,M,M,M,M,M,M,M,M,M,M,M,M,M,M,33.80,KWYS 200640Z AUTO 00000KT 10SM CLR 01/01 A3027 RMK AO2,M
WYS,2023-10-20 07:40,30.20,32.00,M,200.00,4.00,0.00,30.28,M,10.00,M,CLR,M,M,M,M,M,M,M,M,M,M,M,M,M,M,M,KWYS 200740Z AUTO 20004KT 10SM CLR M01/M00 A3028 RMK AO2,M
WYS,2023-10-20 08:40,28.40,28.40,100.00,0.00,0.00,0.00,30.27,M,10.00,M,CLR,M,M,M,M,M,M,M,M,M,M,M,M,M,M,28.40,KWYS 200840Z AUTO 00000KT 10SM CLR M02/M02 A3027 RMK AO2,M
WYS,2023-10-20 09:40,28.40,28.40,100.00,0.00,0.00,0.00,30.27,M,10.00,M,CLR,M,M,M,M,M,M,M,M,M,M,M,M,M,M,28.40,KWYS 200940Z AUTO 00000KT 10SM CLR M02/M02 A3027 RMK AO2,M
WYS,2023-10-20 10:40,26.60,26.60,100.00,0.00,0.00,0.00,30.27,M,10.00,M,CLR,M,M,M,M,M,M,M,M,M,M,M,M,M,M,26.60,KWYS 201040Z AUTO 00000KT 10SM CLR M03/M03 A3027 RMK AO2,M
WYS,2023-10-20 11:40,26.60,26.60,100.00,0.00,0.00,0.00,30.27,M,10.00,M,CLR,M,M,M,M,M,M,M,M,M,M,M,M,M,M,26.60,KWYS 201140Z AUTO 00000KT 10SM CLR M03/M03 A3027 RMK AO2,M
WYS,2023-10-20 12:40,26.60,26.60,100.00,0.00,0.00,0.00,30.28,M,10.00,M,CLR,M,M,M,M,M,M,M,M,M,M,M,M,M,M,26.60,KWYS 201240Z AUTO 00000KT 10SM CLR M03/M03 A3028 RMK AO2,M
WYS,2023-10-20 13:40,26.60,28.40,M,0.00,0.00,0.00,30.27,M,10.00,M,CLR,M,M,M,M,M,M,M,M,M,M,M,M,M,M,M,KWYS 201340Z AUTO 00000KT 10SM CLR M03/M02 A3027 RMK AO2,M
WYS,2023-10-20 14:40,28.40,28.40,100.00,0.00,0.00,0.00,30.28,M,10.00,M,BKN,M,M,M,200.00,M,M,M,M,M,M,M,M,M,M,28.40,KWYS 201440Z AUTO 00000KT 10SM BKN002 M02/M02 A3028 RMK AO2,M
WYS,2023-10-20 15:40,32.00,33.80,M,0.00,0.00,0.00,30.29,M,0.25,M,OVC,M,M,M,200.00,M,M,M,FG,M,M,M,M,M,M,M,KWYS 201540Z AUTO 00000KT 1/4SM FG OVC002 00/01 A3029 RMK AO2,M
WYS,2023-10-20 16:40,41.00,39.20,93.24,0.00,0.00,0.00,30.28,M,10.00,M,M,M,M,M,M,M,M,M,M,M,M,M,M,M,M,41.00,KWYS 201640Z AUTO 00000KT 10SM 05/04 A3028 RMK AO2,M
WYS,2023-10-20 17:40,50.00,39.20,66.27,0.00,0.00,0.00,30.26,M,10.00,M,M,M,M,M,M,M,M,M,M,M,M,M,M,M,M,50.00,KWYS 201740Z AUTO 00000KT 10SM 10/04 A3026 RMK AO2,M
WYS,2023-10-20 18:40,59.00,39.20,47.72,0.00,0.00,0.00,30.23,M,10.00,M,M,M,M,M,M,M,M,M,M,M,M,M,M,M,M,59.00,KWYS 201840Z AUTO 00000KT 10SM 15/04 A3023 RMK AO2,M
WYS,2023-10-20 19:40,62.60,39.20,42.00,180.00,11.00,0.00,30.19,M,10.00,17.00,M,M,M,M,M,M,M,M,M,M,M,M,M,M,M,62.60,KWYS 201940Z AUTO 18011G17KT 10SM 17/04 A3019 RMK AO2,M
WYS,2023-10-20 20:40,64.40,37.40,36.74,220.00,12.00,0.00,30.17,M,10.00,M,CLR,M,M,M,M,M,M,M,M,M,M,M,M,M,M,64.40,KWYS 202040Z AUTO 22012KT 10SM CLR 18/03 A3017 RMK AO2,M
WYS,2023-10-20 21:40,64.40,37.40,36.74,210.00,14.00,0.00,30.15,M,10.00,M,CLR,M,M,M,M,M,M,M,M,M,M,M,M,M,M,64.40,KWYS 202140Z AUTO 21014KT 10SM CLR 18/03 A3015 RMK AO2,M
WYS,2023-10-20 22:35,64.40,35.60,34.22,210.00,10.00,0.00,30.14,M,10.00,21.00,CLR,M,M,M,M,M,M,M,M,M,M,M,M,M,M,64.40,KWYS 202235Z AUTO 21010G21KT 10SM CLR 18/02 A3014 RMK AO2,M
WYS,2023-10-20 23:40,60.80,33.80,36.16,210.00,13.00,0.00,30.14,M,10.00,18.00,CLR,M,M,M,M,M,M,M,M,M,M,M,M,M,M,60.80,KWYS 202340Z AUTO 21013G18KT 10SM CLR 16/01 A3014 RMK AO2,M
WYS,2023-10-21 00:40,55.40,33.80,43.90,0.00,0.00,0.00,30.14,M,10.00,M,CLR,M,M,M,M,M,M,M,M,M,M,M,M,M,M,55.40,KWYS 210040Z AUTO 00000KT 10SM CLR 13/01 A3014 RMK AO2,M
WYS,2023-10-21 01:40,53.60,33.80,46.88,220.00,7.00,0.00,30.15,M,10.00,M,CLR,M,M,M,M,M,M,M,M,M,M,M,M,M,M,53.60,KWYS 210140Z AUTO 22007KT 10SM CLR 12/01 A3015 RMK AO2,M
WYS,2023-10-21 02:40,46.40,33.80,61.28,210.00,5.00,0.00,30.16,M,10.00,M,CLR,M,M,M,M,M,M,M,M,M,M,M,M,M,M,43.50,KWYS 210240Z AUTO 21005KT 10SM CLR 08/01 A3016 RMK AO2,M
WYS,2023-10-21 03:40,44.60,33.80,65.61,150.00,4.00,0.00,30.16,M,10.00,M,CLR,M,M,M,M,M,M,M,M,M,M,M,M,M,M,42.13,KWYS 210340Z AUTO 15004KT 10SM CLR 07/01 A3016 RMK AO2,M
WYS,2023-10-21 04:40,41.00,33.80,75.33,240.00,3.00,0.00,30.17,M,10.00,M,CLR,M,M,M,M,M,M,M,M,M,M,M,M,M,M,38.98,KWYS 210440Z AUTO 24003KT 10SM CLR 05/01 A3017 RMK AO2,M
WYS,2023-10-21 05:55,32.00,32.00,100.00,0.00,0.00,0.00,30.17,M,10.00,M,CLR,M,M,M,M,M,M,M,M,M,M,M,M,M,M,32.00,KWYS 210555Z AUTO 00000KT 10SM CLR 00/00 A3017 RMK AO2,M
WYS,2023-10-21 06:40,32.00,32.00,100.00,0.00,0.00,0.00,30.16,M,10.00,M,CLR,M,M,M,M,M,M,M,M,M,M,M,M,M,M,32.00,KWYS 210640Z AUTO 00000KT 10SM CLR M00/M00 A3016 RMK AO2,M
WYS,2023-10-21 07:40,28.40,28.40,100.00,0.00,0.00,0.00,30.16,M,10.00,M,CLR,M,M,M,M,M,M,M,M,M,M,M,M,M,M,28.40,KWYS 210740Z AUTO 00000KT 10SM CLR M02/M02 A3016 RMK AO2,M
WYS,2023-10-21 08:40,26.60,26.60,100.00,0.00,0.00,0.00,30.16,M,10.00,M,CLR,M,M,M,M,M,M,M,M,M,M,M,M,M,M,26.60,KWYS 210840Z AUTO 00000KT 10SM CLR M03/M03 A3016 RMK AO2,M
WYS,2023-10-21 09:40,26.60,26.60,100.00,0.00,0.00,0.00,30.16,M,10.00,M,CLR,M,M,M,M,M,M,M,M,M,M,M,M,M,M,26.60,KWYS 210940Z AUTO 00000KT 10SM CLR M03/M03 A3016 RMK AO2,M
WYS,2023-10-21 10:40,26.60,26.60,100.00,0.00,0.00,0.00,30.15,M,10.00,M,CLR,M,M,M,M,M,M,M,M,M,M,M,M,M,M,26.60,KWYS 211040Z AUTO 00000KT 10SM CLR M03/M03 A3015 RMK AO2,M
WYS,2023-10-21 11:40,26.60,26.60,100.00,0.00,0.00,0.00,30.14,M,10.00,M,CLR,M,M,M,M,M,M,M,M,M,M,M,M,M,M,26.60,KWYS 211140Z AUTO 00000KT 10SM CLR M03/M03 A3014 RMK AO2,M
WYS,2023-10-21 12:40,24.80,24.80,100.00,0.00,0.00,0.00,30.14,M,10.00,M,CLR,M,M,M,M,M,M,M,M,M,M,M,M,M,M,24.80,KWYS 211240Z AUTO 00000KT 10SM CLR M04/M04 A3014 RMK AO2,M
WYS,2023-10-21 13:40,24.80,24.80,100.00,0.00,0.00,0.00,30.14,M,10.00,M,CLR,M,M,M,M,M,M,M,M,M,M,M,M,M,M,24.80,KWYS 211340Z AUTO 00000KT 10SM CLR M04/M04 A3014 RMK AO2,M
WYS,2023-10-21 14:40,26.60,26.60,100.00,0.00,0.00,0.00,30.14,M,10.00,M,CLR,M,M,M,M,M,M,M,M,M,M,M,M,M,M,26.60,KWYS 211440Z AUTO 00000KT 10SM CLR M03/M03 A3014 RMK AO2,M
WYS,2023-10-21 15:40,35.60,35.60,100.00,0.00,0.00,0.00,30.14,M,10.00,M,CLR,M,M,M,M,M,M,M,M,M,M,M,M,M,M,35.60,KWYS 211540Z AUTO 00000KT 10SM CLR 02/02 A3014 RMK AO2,M
WYS,2023-10-21 16:35,39.20,35.60,86.79,0.00,0.00,0.00,30.13,M,10.00,M,CLR,M,M,M,M,M,M,M,M,M,M,M,M,M,M,39.20,KWYS 211635Z AUTO 00000KT 10SM CLR 04/02 A3013 RMK AO2,M
WYS,2023-10-21 17:40,48.20,35.60,61.52,M,3.00,0.00,30.11,M,10.00,M,M,M,M,M,M,M,M,M,M,M,M,M,M,M,M,47.21,KWYS 211740Z AUTO VRB03KT 10SM 09/02 A3011 RMK AO2,M
WYS,2023-10-21 18:40,50.00,35.60,57.52,0.00,0.00,0.00,30.09,M,10.00,M,M,M,M,M,M,M,M,M,M,M,M,M,M,M,M,50.00,KWYS 211840Z AUTO 00000KT 10SM 10/02 A3009 RMK AO2,M
WYS,2023-10-21 19:40,53.60,35.60,50.36,0.00,0.00,0.00,30.06,M,10.00,M,M,M,M,M,M,M,M,M,M,M,M,M,M,M,M,53.60,KWYS 211940Z AUTO 00000KT 10SM 12/02 A3006 RMK AO2,M
WYS,2023-10-21 20:40,62.60,35.60,36.45,210.00,11.00,0.00,30.02,M,10.00,M,M,M,M,M,M,M,M,M,M,M,M,M,M,M,M,62.60,KWYS 212040Z AUTO 21011KT 10SM 17/02 A3002 RMK AO2,M
WYS,2023-10-21 21:40,64.40,32.00,29.63,250.00,9.00,0.00,30.00,M,10.00,M,CLR,M,M,M,M,M,M,M,M,M,M,M,M,M,M,64.40,KWYS 212140Z AUTO 25009KT 10SM CLR 18/00 A3000 RMK AO2,M
WYS,2023-10-21 22:40,62.60,33.80,33.93,220.00,8.00,0.00,30.00,M,10.00,15.00,CLR,M,M,M,M,M,M,M,M,M,M,M,M,M,M,62.60,KWYS 212240Z AUTO 22008G15KT 10SM CLR 17/01 A3000 RMK AO2,M
WYS,2023-10-21 23:40,60.80,33.80,36.16,220.00,8.00,0.00,30.00,M,10.00,13.00,CLR,M,M,M,M,M,M,M,M,M,M,M,M,M,M,60.80,KWYS 212340Z AUTO 22008G13KT 10SM CLR 16/01 A3000 RMK AO2,M
WYS,2023-10-22 00:40,53.60,33.80,46.88,0.00,0.00,0.00,30.00,M,10.00,M,CLR,M,M,M,M,M,M,M,M,M,M,M,M,M,M,53.60,KWYS 220040Z AUTO 00000KT 10SM CLR 12/01 A3000 RMK AO2,M
WYS,2023-10-22 01:40,50.00,33.80,53.54,220.00,4.00,0.00,30.01,M,10.00,M,CLR,M,M,M,M,M,M,M,M,M,M,M,M,M,M,50.00,KWYS 220140Z AUTO 22004KT 10SM CLR 10/01 A3001 RMK AO2,M
WYS,2023-10-22 02:40,44.60,35.60,70.48,0.00,0.00,0.00,30.02,M,10.00,M,CLR,M,M,M,M,M,M,M,M,M,M,M,M,M,M,44.60,KWYS 220240Z AUTO 00000KT 10SM CLR 07/02 A3002 RMK AO2,M
WYS,2023-10-22 03:40,44.60,33.80,65.61,150.00,6.00,0.00,30.02,M,10.00,M,CLR,M,M,M,M,M,M,M,M,M,M,M,M,M,M,40.71,KWYS 220340Z AUTO 15006KT 10SM CLR 07/01 A3002 RMK AO2,M
WYS,2023-10-22 04:40,37.40,33.80,86.69,0.00,0.00,0.00,30.02,M,10.00,M,CLR,M,M,M,M,M,M,M,M,M,M,M,M,M,M,37.40,KWYS 220440Z AUTO 00000KT 10SM CLR 03/01 A3002 RMK AO2,M
WYS,2023-10-22 05:40,33.80,33.80,100.00,0.00,0.00,0.00,30.03,M,10.00,M,CLR,M,M,M,M,M,M,M,M,M,M,M,M,M,M,33.80,KWYS 220540Z AUTO 00000KT 10SM CLR 01/01 A3003 RMK AO2,M
WYS,2023-10-22 06:40,30.20,30.20,100.00,0.00,0.00,0.00,30.02,M,10.00,M,CLR,M,M,M,M,M,M,M,M,M,M,M,M,M,M,30.20,KWYS 220640Z AUTO 00000KT 10SM CLR M01/M01 A3002 RMK AO2,M
WYS,2023-10-22 07:40,28.40,28.40,100.00,0.00,0.00,0.00,30.01,M,10.00,M,CLR,M,M,M,M,M,M,M,M,M,M,M,M,M,M,28.40,KWYS 220740Z AUTO 00000KT 10SM CLR M02/M02 A3001 RMK AO2,M
WYS,2023-10-22 08:40,26.60,26.60,100.00,0.00,0.00,0.00,30.02,M,10.00,M,CLR,M,M,M,M,M,M,M,M,M,M,M,M,M,M,26.60,KWYS 220840Z AUTO 00000KT 10SM CLR M03/M03 A3002 RMK AO2,M
WYS,2023-10-22 09:40,26.60,26.60,100.00,0.00,0.00,0.00,30.02,M,10.00,M,CLR,M,M,M,M,M,M,M,M,M,M,M,M,M,M,26.60,KWYS 220940Z AUTO 00000KT 10SM CLR M03/M03 A3002 RMK AO2,M
WYS,2023-10-22 10:40,26.60,26.60,100.00,0.00,0.00,0.00,30.01,M,10.00,M,CLR,M,M,M,M,M,M,M,M,M,M,M,M,M,M,26.60,KWYS 221040Z AUTO 00000KT 10SM CLR M03/M03 A3001 RMK AO2,M
WYS,2023-10-22 11:40,24.80,24.80,100.00,0.00,0.00,0.00,30.00,M,10.00,M,CLR,M,M,M,M,M,M,M,M,M,M,M,M,M,M,24.80,KWYS 221140Z AUTO 00000KT 10SM CLR M04/M04 A3000 RMK AO2,M
WYS,2023-10-22 12:40,24.80,24.80,100.00,0.00,0.00,0.00,30.01,M,10.00,M,BKN,M,M,M,8500.00,M,M,M,M,M,M,M,M,M,M,24.80,KWYS 221240Z AUTO 00000KT 10SM BKN085 M04/M04 A3001 RMK AO2,M
WYS,2023-10-22 13:40,24.80,24.80,100.00,0.00,0.00,0.00,30.01,M,10.00,M,BKN,M,M,M,8000.00,M,M,M,M,M,M,M,M,M,M,24.80,KWYS 221340Z AUTO 00000KT 10SM BKN080 M04/M04 A3001 RMK AO2,M
WYS,2023-10-22 14:40,24.80,24.80,100.00,0.00,0.00,0.00,30.01,M,10.00,M,CLR,M,M,M,M,M,M,M,M,M,M,M,M,M,M,24.80,KWYS 221440Z AUTO 00000KT 10SM CLR M04/M04 A3001 RMK AO2,M
WYS,2023-10-22 15:40,33.80,33.80,100.00,0.00,0.00,0.00,30.01,M,10.00,M,M,M,M,M,M,M,M,M,M,M,M,M,M,M,M,33.80,KWYS 221540Z AUTO 00000KT 10SM 01/01 A3001 RMK AO2,M
WYS,2023-10-22 16:40,39.20,35.60,86.79,0.00,0.00,0.00,30.00,M,10.00,M,CLR,M,M,M,M,M,M,M,M,M,M,M,M,M,M,39.20,KWYS 221640Z AUTO 00000KT 10SM CLR 04/02 A3000 RMK AO2,M
WYS,2023-10-22 17:40,42.80,35.60,75.50,0.00,0.00,0.00,29.98,M,10.00,M,M,M,M,M,M,M,M,M,M,M,M,M,M,M,M,42.80,KWYS 221740Z AUTO 00000KT 10SM 06/02 A2998 RMK AO2,M
WYS,2023-10-22 18:40,51.80,35.60,53.81,0.00,0.00,0.00,29.95,M,10.00,M,M,M,M,M,M,M,M,M,M,M,M,M,M,M,M,51.80,KWYS 221840Z AUTO 00000KT 10SM 11/02 A2995 RMK AO2,M
WYS,2023-10-22 19:40,59.00,35.60,41.42,0.00,0.00,0.00,29.90,M,10.00,M,M,M,M,M,M,M,M,M,M,M,M,M,M,M,M,59.00,KWYS 221940Z AUTO 00000KT 10SM 15/02 A2990 RMK AO2,M
WYS,2023-10-22 20:40,62.60,30.20,29.35,230.00,9.00,0.00,29.87,M,10.00,16.00,M,M,M,M,M,M,M,M,M,M,M,M,M,M,M,62.60,KWYS 222040Z AUTO 23009G16KT 10SM 17/M01 A2987 RMK AO2,M
WYS,2023-10-22 21:40,62.60,32.00,31.56,220.00,9.00,0.00,29.85,M,10.00,16.00,M,M,M,M,M,M,M,M,M,M,M,M,M,M,M,62.60,KWYS 222140Z AUTO 22009G16KT 10SM 17/00 A2985 RMK AO2,M
WYS,2023-10-22 22:40,60.80,32.00,33.64,220.00,6.00,0.00,29.84,M,10.00,M,FEW,SCT,M,M,9000.00,12000.00,M,M,M,M,M,M,M,M,M,60.80,KWYS 222240Z AUTO 22006KT 10SM FEW090 SCT120 16/M00 A2984 RMK AO2,M
WYS,2023-10-22 23:40,59.00,32.00,35.87,220.00,7.00,0.00,29.84,M,10.00,M,BKN,BKN,OVC,M,7500.00,9000.00,11000.00,M,M,M,M,M,M,M,M,59.00,KWYS 222340Z AUTO 22007KT 10SM BKN075 BKN090 OVC110 15/M00 A2984 RMK AO2,M
WYS,2023-10-23 00:40,53.60,33.80,46.88,0.00,0.00,0.00,29.83,M,10.00,M,SCT,OVC,M,M,7500.00,9000.00,M,M,M,M,M,M,M,M,M,53.60,KWYS 230040Z AUTO 00000KT 10SM SCT075 OVC090 12/01 A2983 RMK AO2,M
WYS,2023-10-23 01:40,48.20,33.80,57.26,0.00,0.00,0.00,29.84,M,10.00,M,BKN,OVC,M,M,7000.00,8000.00,M,M,M,M,M,M,M,M,M,48.20,KWYS 230140Z AUTO 00000KT 10SM BKN070 OVC080 09/01 A2984 RMK AO2,M
WYS,2023-10-23 02:40,51.80,35.60,53.81,0.00,0.00,0.00,29.86,M,10.00,M,FEW,BKN,OVC,M,4200.00,6500.00,7500.00,M,M,M,M,M,M,M,M,51.80,KWYS 230240Z AUTO 00000KT 10SM FEW042 BKN065 OVC075 11/02 A2986 RMK AO2,M
WYS,2023-10-23 03:40,46.40,44.60,93.40,200.00,13.00,0.00,29.85,M,6.00,M,BKN,OVC,M,M,4300.00,5000.00,M,M,BR,M,M,M,M,M,M,40.02,KWYS 230340Z AUTO 20013KT 170V230 6SM BR BKN043 OVC050 08/07 A2985 RMK AO2,M
WYS,2023-10-23 04:40,44.60,44.60,100.00,0.00,0.00,0.00,29.83,M,9.00,M,FEW,BKN,OVC,M,4300.00,5500.00,7000.00,M,M,M,M,M,M,M,M,44.60,KWYS 230440Z AUTO 00000KT 9SM FEW043 BKN055 OVC070 07/07 A2983 RMK AO2,M
WYS,2023-10-23 05:40,41.00,42.80,M,0.00,0.00,0.00,29.84,M,10.00,M,FEW,BKN,BKN,M,6500.00,7500.00,10000.00,M,M,M,M,M,M,M,M,M,KWYS 230540Z AUTO 00000KT 10SM FEW065 BKN075 BKN100 05/06 A2984 RMK AO2,M
WYS,2023-10-23 06:40,39.20,39.20,100.00,0.00,0.00,0.00,29.84,M,10.00,M,BKN,OVC,M,M,7500.00,9000.00,M,M,M,M,M,M,M,M,M,39.20,KWYS 230640Z AUTO 00000KT 10SM BKN075 OVC090 04/04 A2984 RMK AO2,M
WYS,2023-10-23 07:40,39.20,39.20,100.00,0.00,0.00,0.00,29.84,M,10.00,M,SCT,SCT,OVC,M,6500.00,8000.00,9000.00,M,M,M,M,M,M,M,M,39.20,KWYS 230740Z AUTO 00000KT 10SM SCT065 SCT080 OVC090 04/04 A2984 RMK AO2,M
WYS,2023-10-23 08:40,35.60,35.60,100.00,210.00,3.00,0.00,29.84,M,1.75,M,BKN,M,M,M,6500.00,M,M,M,BR,M,M,M,M,M,M,32.80,KWYS 230840Z AUTO 21003KT 1 3/4SM BR BKN065 02/02 A2984 RMK AO2,M
WYS,2023-10-23 09:40,35.60,35.60,100.00,0.00,0.00,0.00,29.84,M,10.00,M,BKN,OVC,M,M,6500.00,9000.00,M,M,M,M,M,M,M,M,M,35.60,KWYS 230940Z AUTO 00000KT 10SM BKN065 OVC090 02/02 A2984 RMK AO2,M
WYS,2023-10-23 10:40,37.40,37.40,100.00,0.00,0.00,0.00,29.84,M,8.00,M,SCT,BKN,OVC,M,4100.00,6000.00,7000.00,M,-RA,M,M,M,M,M,M,37.40,KWYS 231040Z AUTO 00000KT 8SM -RA SCT041 BKN060 OVC070 03/03 A2984 RMK AO2,M
WYS,2023-10-23 11:40,37.40,37.40,100.00,210.00,4.00,0.00,29.88,M,3.00,M,SCT,SCT,OVC,M,1900.00,2500.00,3600.00,M,-RA,M,M,M,M,M,M,33.73,KWYS 231140Z AUTO 21004KT 3SM -RA SCT019 SCT025 OVC036 03/03 A2988 RMK AO2,M
WYS,2023-10-23 12:40,39.20,39.20,100.00,0.00,0.00,0.00,29.86,M,8.00,M,FEW,BKN,OVC,M,3500.00,5000.00,6000.00,M,-RA,M,M,M,M,M,M,39.20,KWYS 231240Z AUTO 00000KT 8SM -RA FEW035 BKN050 OVC060 04/04 A2986 RMK AO2,M
WYS,2023-10-23 13:40,35.60,35.60,100.00,0.00,0.00,0.00,29.86,M,9.00,M,FEW,SCT,M,M,3200.00,6500.00,M,M,M,M,M,M,M,M,M,35.60,KWYS 231340Z AUTO 00000KT 9SM FEW032 SCT065 02/02 A2986 RMK AO2,M
WYS,2023-10-23 14:40,35.60,35.60,100.00,0.00,0.00,0.00,29.88,M,2.00,M,FEW,FEW,OVC,M,200.00,2300.00,4700.00,M,BR,M,M,M,M,M,M,35.60,KWYS 231440Z AUTO 00000KT 2SM BR FEW002 FEW023 OVC047 02/02 A2988 RMK AO2 VIS 1/2V5,M
WYS,2023-10-23 15:40,39.20,39.20,100.00,0.00,0.00,0.00,29.89,M,9.00,M,FEW,FEW,OVC,M,200.00,3600.00,4700.00,M,M,M,M,M,M,M,M,39.20,KWYS 231540Z AUTO 00000KT 9SM FEW002 FEW036 OVC047 04/04 A2989 RMK AO2,M
WYS,2023-10-23 16:35,42.80,42.80,100.00,0.00,0.00,0.00,29.89,M,10.00,M,M,M,M,M,M,M,M,M,M,M,M,M,M,M,M,42.80,KWYS 231635Z AUTO 00000KT 10SM 06/06 A2989 RMK AO2,M
WYS,2023-10-23 17:40,44.60,44.60,100.00,0.00,0.00,0.00,29.88,M,10.00,M,M,M,M,M,M,M,M,M,M,M,M,M,M,M,M,44.60,KWYS 231740Z AUTO 00000KT 10SM 07/07 A2988 RMK AO2,M
WYS,2023-10-23 18:35,46.40,44.60,93.40,150.00,4.00,0.00,29.86,M,10.00,M,M,M,M,M,M,M,M,M,M,M,M,M,M,M,M,44.24,KWYS 231835Z AUTO 15004KT 10SM 08/07 A2986 RMK AO2,M
WYS,2023-10-23 19:40,48.20,41.00,76.01,0.00,0.00,0.00,29.84,M,10.00,M,M,M,M,M,M,M,M,M,M,M,M,M,M,M,M,48.20,KWYS 231940Z AUTO 00000KT 10SM 09/05 A2984 RMK AO2,M
WYS,2023-10-23 20:40,48.20,39.20,70.88,180.00,6.00,0.00,29.82,M,10.00,M,M,M,M,M,M,M,M,M,M,M,M,M,M,M,M,45.04,KWYS 232040Z AUTO 18006KT 10SM 09/04 A2982 RMK AO2,M
WYS,2023-10-23 21:40,42.80,44.60,M,M,6.00,0.00,29.82,M,3.00,12.00,M,M,M,M,M,M,M,M,-RA,M,M,M,M,M,M,M,KWYS 232140Z AUTO VRB06G12KT 3SM -RA 06/07 A2982 RMK AO2,M
WYS,2023-10-23 22:35,44.60,44.60,100.00,200.00,5.00,0.00,29.82,M,10.00,M,FEW,FEW,BKN,M,2900.00,7000.00,8000.00,M,M,M,M,M,M,M,M,41.36,KWYS 232235Z AUTO 20005KT 10SM FEW029 FEW070 BKN080 07/07 A2982 RMK AO2,M
WYS,2023-10-23 23:40,42.80,42.80,100.00,200.00,9.00,0.00,29.83,M,1.50,15.00,SCT,SCT,BKN,M,3000.00,3600.00,4500.00,M,RA,M,M,M,M,M,M,36.94,KWYS 232340Z AUTO 20009G15KT 1 1/2SM RA SCT030 SCT036 BKN045 06/06 A2983 RMK AO2,M
WYS,2023-10-24 00:35,41.00,41.00,100.00,230.00,12.00,0.00,29.84,M,10.00,M,FEW,SCT,OVC,M,3600.00,8000.00,9000.00,M,M,M,M,M,M,M,M,33.46,KWYS 240035Z AUTO 23012KT 10SM FEW036 SCT080 OVC090 05/05 A2984 RMK AO2,M
WYS,2023-10-24 01:40,41.00,41.00,100.00,0.00,0.00,0.00,29.85,M,7.00,M,SCT,SCT,BKN,M,3300.00,4600.00,6000.00,M,-RA,M,M,M,M,M,M,41.00,KWYS 240140Z AUTO 00000KT 7SM -RA SCT033 SCT046 BKN060 05/05 A2985 RMK AO2,M
WYS,2023-10-24 02:40,41.00,41.00,100.00,0.00,0.00,0.00,29.86,M,10.00,M,FEW,BKN,BKN,M,4600.00,5500.00,6500.00,M,M,M,M,M,M,M,M,41.00,KWYS 240240Z AUTO 00000KT 10SM FEW046 BKN055 BKN065 05/05 A2986 RMK AO2,M
WYS,2023-10-24 03:40,41.00,41.00,100.00,160.00,5.00,0.00,29.87,M,10.00,M,FEW,BKN,OVC,M,400.00,1600.00,2400.00,M,M,M,M,M,M,M,M,37.08,KWYS 240340Z AUTO 16005KT 10SM FEW004 BKN016 OVC024 05/05 A2987 RMK AO2,M
WYS,2023-10-24 04:35,39.20,41.00,M,0.00,0.00,0.00,29.86,M,10.00,M,FEW,SCT,BKN,M,3300.00,4300.00,5500.00,M,M,M,M,M,M,M,M,M,KWYS 240435Z AUTO 00000KT 10SM FEW033 SCT043 BKN055 04/05 A2986 RMK AO2,M
WYS,2023-10-24 05:40,39.20,39.20,100.00,0.00,0.00,0.00,29.86,M,7.00,M,FEW,SCT,OVC,M,200.00,1000.00,1400.00,M,-UP,M,M,M,M,M,M,39.20,KWYS 240540Z AUTO 00000KT 7SM -UP FEW002 SCT010 OVC014 04/04 A2986 RMK AO2,M
WYS,2023-10-24 06:40,37.40,37.40,100.00,210.00,11.00,0.00,29.88,M,10.00,M,BKN,OVC,M,M,1800.00,3300.00,M,M,M,M,M,M,M,M,M,29.29,KWYS 240640Z AUTO 21011KT 10SM BKN018 OVC033 03/03 A2988 RMK AO2,M
WYS,2023-10-24 07:40,37.40,37.40,100.00,210.00,9.00,0.00,29.88,M,10.00,M,SCT,BKN,M,M,9500.00,11000.00,M,M,M,M,M,M,M,M,M,30.23,KWYS 240740Z AUTO 21009KT 10SM SCT095 BKN110 03/03 A2988 RMK AO2,M
WYS,2023-10-24 08:40,37.40,37.40,100.00,0.00,0.00,0.00,29.89,M,10.00,M,OVC,M,M,M,1400.00,M,M,M,M,M,M,M,M,M,M,37.40,KWYS 240840Z AUTO 00000KT 10SM OVC014 03/03 A2989 RMK AO2,M
WYS,2023-10-24 09:40,33.80,33.80,100.00,0.00,0.00,0.00,29.90,M,10.00,M,BKN,M,M,M,6500.00,M,M,M,M,M,M,M,M,M,M,33.80,KWYS 240940Z AUTO 00000KT 10SM BKN065 01/01 A2990 RMK AO2,M
WYS,2023-10-24 10:40,30.20,30.20,100.00,0.00,0.00,0.00,29.91,M,10.00,M,FEW,M,M,M,6500.00,M,M,M,M,M,M,M,M,M,M,30.20,KWYS 241040Z AUTO 00000KT 10SM FEW065 M01/M01 A2991 RMK AO2,M
WYS,2023-10-24 11:40,32.00,32.00,100.00,0.00,0.00,0.00,29.92,M,10.00,M,BKN,OVC,M,M,1200.00,7500.00,M,M,M,M,M,M,M,M,M,32.00,KWYS 241140Z AUTO 00000KT 10SM BKN012 OVC075 00/00 A2992 RMK AO2,M
WYS,2023-10-24 12:40,33.80,33.80,100.00,0.00,0.00,0.00,29.93,M,10.00,M,OVC,M,M,M,900.00,M,M,M,M,M,M,M,M,M,M,33.80,KWYS 241240Z AUTO 00000KT 10SM OVC009 01/01 A2993 RMK AO2,M
WYS,2023-10-24 13:40,37.40,37.40,100.00,210.00,6.00,0.00,29.93,M,2.50,M,OVC,M,M,M,300.00,M,M,M,BR,M,M,M,M,M,M,32.03,KWYS 241340Z AUTO 21006KT 2 1/2SM BR OVC003 03/03 A2993 RMK AO2,M
WYS,2023-10-24 14:40,37.40,37.40,100.00,220.00,6.00,0.00,29.94,M,10.00,M,OVC,M,M,M,700.00,M,M,M,M,M,M,M,M,M,M,32.03,KWYS 241440Z AUTO 22006KT 10SM OVC007 03/03 A2994 RMK AO2,M
WYS,2023-10-24 15:40,37.40,37.40,100.00,220.00,11.00,0.00,29.94,M,8.00,M,OVC,M,M,M,500.00,M,M,M,M,M,M,M,M,M,M,29.29,KWYS 241540Z AUTO 22011KT 8SM OVC005 03/03 A2994 RMK AO2,M
WYS,2023-10-24 16:40,39.20,39.20,100.00,220.00,13.00,0.00,29.93,M,4.00,M,SCT,BKN,BKN,M,800.00,1200.00,1800.00,M,BR,M,M,M,M,M,M,30.79,KWYS 241640Z AUTO 22013KT 4SM BR SCT008 BKN012 BKN018 04/04 A2993 RMK AO2,M
WYS,2023-10-24 17:40,39.20,39.20,100.00,210.00,15.00,0.00,29.92,M,10.00,M,BKN,OVC,M,M,1200.00,1700.00,M,M,M,M,M,M,M,M,M,30.11,KWYS 241740Z AUTO 21015KT 10SM BKN012 OVC017 04/04 A2992 RMK AO2,M
WYS,2023-10-24 18:40,39.20,39.20,100.00,210.00,10.00,0.00,29.93,M,10.00,M,OVC,M,M,M,1100.00,M,M,M,M,M,M,M,M,M,M,32.00,KWYS 241840Z AUTO 21010KT 10SM OVC011 04/04 A2993 RMK AO2,M
WYS,2023-10-24 19:40,39.20,39.20,100.00,200.00,8.00,0.00,29.91,M,10.00,M,OVC,M,M,M,1600.00,M,M,M,M,M,M,M,M,M,M,32.98,KWYS 241940Z AUTO 20008KT 10SM OVC016 04/04 A2991 RMK AO2,M
WYS,2023-10-24 20:40,42.80,37.40,81.07,210.00,12.00,0.00,29.91,M,10.00,M,BKN,BKN,OVC,M,2100.00,2600.00,3100.00,M,M,M,M,M,M,M,M,35.75,KWYS 242040Z AUTO 21012KT 10SM BKN021 BKN026 OVC031 06/03 A2991 RMK AO2,M
WYS,2023-10-24 21:40,42.80,33.80,70.28,230.00,6.00,0.00,29.92,M,10.00,M,FEW,BKN,OVC,M,2500.00,3400.00,10000.00,M,M,M,M,M,M,M,M,38.54,KWYS 242140Z AUTO 23006KT 10SM FEW025 BKN034 OVC100 06/01 A2992 RMK AO2,M
WYS,2023-10-24 22:40,42.80,32.00,65.38,240.00,11.00,0.00,29.91,M,10.00,18.00,M,M,M,M,M,M,M,M,M,M,M,M,M,M,M,36.11,KWYS 242240Z AUTO 24011G18KT 10SM 06/00 A2991 RMK AO2,M
WYS,2023-10-24 23:40,41.00,33.80,75.33,240.00,6.00,0.00,29.90,M,10.00,12.00,CLR,M,M,M,M,M,M,M,M,M,M,M,M,M,M,36.37,KWYS 242340Z AUTO 24006G12KT 10SM CLR 05/01 A2990 RMK AO2,M
WYS,2023-10-25 00:40,41.00,32.00,70.08,210.00,10.00,0.00,29.88,M,10.00,M,CLR,M,M,M,M,M,M,M,M,M,M,M,M,M,M,34.25,KWYS 250040Z AUTO 21010KT 10SM CLR 05/M00 A2988 RMK AO2,M
WYS,2023-10-25 01:40,39.20,28.40,64.93,240.00,4.00,0.00,29.88,M,10.00,M,CLR,M,M,M,M,M,M,M,M,M,M,M,M,M,M,35.83,KWYS 250140Z AUTO 24004KT 10SM CLR 04/M02 A2988 RMK AO2,M
WYS,2023-10-25 02:40,39.20,24.80,55.95,210.00,8.00,0.00,29.87,M,10.00,13.00,BKN,OVC,M,M,10000.00,12000.00,M,M,M,M,M,M,M,M,M,32.98,KWYS 250240Z AUTO 21008G13KT 10SM BKN100 OVC120 04/M04 A2987 RMK AO2,M
WYS,2023-10-25 03:40,37.40,23.00,55.68,0.00,0.00,0.00,29.86,M,10.00,M,OVC,M,M,M,11000.00,M,M,M,M,M,M,M,M,M,M,37.40,KWYS 250340Z AUTO 00000KT 10SM OVC110 03/M05 A2986 RMK AO2,M
WYS,2023-10-25 04:40,39.20,23.00,51.89,0.00,0.00,0.00,29.85,M,10.00,M,BKN,OVC,M,M,7500.00,8500.00,M,M,M,M,M,M,M,M,M,39.20,KWYS 250440Z AUTO 00000KT 10SM BKN075 OVC085 04/M05 A2985 RMK AO2,M
WYS,2023-10-25 05:40,37.40,23.00,55.68,M,7.00,0.00,29.83,M,10.00,M,FEW,BKN,M,M,7000.00,10000.00,M,M,M,M,M,M,M,M,M,31.36,KWYS 250540Z AUTO VRB07KT 10SM FEW070 BKN100 03/M05 A2983 RMK AO2,M
WYS,2023-10-25 06:40,37.40,24.80,60.04,M,4.00,0.00,29.80,M,10.00,M,SCT,SCT,M,M,7000.00,11000.00,M,M,M,M,M,M,M,M,M,33.73,KWYS 250640Z AUTO VRB04KT 10SM SCT070 SCT110 03/M04 A2980 RMK AO2,M
WYS,2023-10-25 07:40,37.40,26.60,64.70,320.00,5.00,0.00,29.78,M,10.00,M,FEW,SCT,BKN,M,5500.00,7500.00,9500.00,M,M,M,M,M,M,M,M,32.81,KWYS 250740Z AUTO 32005KT 10SM FEW055 SCT075 BKN095 03/M03 A2978 RMK AO2,M
WYS,2023-10-25 08:40,39.20,30.20,69.88,200.00,11.00,0.00,29.76,M,10.00,M,FEW,BKN,OVC,M,3400.00,4000.00,6500.00,M,M,M,M,M,M,M,M,31.57,KWYS 250840Z AUTO 20011KT 10SM FEW034 BKN040 OVC065 04/M01 A2976 RMK AO2,M
WYS,2023-10-25 09:40,39.20,28.40,64.93,0.00,0.00,0.00,29.75,M,10.00,M,FEW,BKN,OVC,M,4500.00,5500.00,6500.00,M,M,M,M,M,M,M,M,39.20,KWYS 250940Z AUTO 00000KT 10SM FEW045 BKN055 OVC065 04/M02 A2975 RMK AO2,M
WYS,2023-10-25 10:55,41.00,28.40,60.54,220.00,10.00,0.00,29.73,M,10.00,M,FEW,SCT,OVC,M,3800.00,5000.00,6500.00,M,M,M,M,M,M,M,M,34.25,KWYS 251055Z AUTO 22010KT 10SM FEW038 SCT050 OVC065 05/M02 A2973 RMK AO2,M
WYS,2023-10-25 11:40,42.80,28.40,56.48,230.00,8.00,0.00,29.71,M,10.00,M,SCT,BKN,OVC,M,3600.00,4300.00,5500.00,M,M,M,M,M,M,M,M,37.42,KWYS 251140Z AUTO 23008KT 10SM SCT036 BKN043 OVC055 06/M02 A2971 RMK AO2,M
WYS,2023-10-25 12:40,39.20,37.40,93.19,240.00,11.00,0.00,29.74,M,5.00,19.00,SCT,SCT,M,M,2900.00,3400.00,M,M,-UP,M,M,M,M,M,M,31.57,KWYS 251240Z AUTO 24011G19KT 210V270 5SM -UP SCT029 SCT034 04/03 A2974 RMK AO2,M
WYS,2023-10-25 13:40,37.40,37.40,100.00,210.00,13.00,0.00,29.74,M,2.50,22.00,SCT,SCT,BKN,M,400.00,1400.00,3000.00,M,-RA,M,M,M,M,M,M,28.49,KWYS 251340Z AUTO 21013G22KT 2 1/2SM -RA SCT004 SCT014 BKN030 03/03 A2974 RMK AO2,M
WYS,2023-10-25 14:55,33.80,33.80,100.00,210.00,12.00,0.00,29.77,M,1.50,M,SCT,M,M,M,800.00,M,M,M,-RA,M,M,M,M,M,M,24.29,KWYS 251455Z AUTO 21012KT 1 1/2SM -RA SCT008 01/01 A2977 RMK AO2,M
WYS,2023-10-25 15:55,35.60,35.60,100.00,200.00,6.00,0.02,29.77,M,2.00,M,M,M,M,M,M,M,M,M,-RA,M,M,M,M,M,M,29.87,KWYS 251555Z AUTO 20006KT 2SM -RA 02/02 A2977 RMK AO2 P0002,M
WYS,2023-10-25 16:55,35.60,35.60,100.00,210.00,9.00,0.00,29.77,M,3.00,15.00,M,M,M,M,M,M,M,M,BR,M,M,M,M,M,M,27.99,KWYS 251655Z AUTO 21009G15KT 3SM BR 02/02 A2977 RMK AO2,M
WYS,2023-10-25 17:55,33.80,33.80,100.00,180.00,10.00,0.00,29.79,M,1.75,17.00,M,M,M,M,M,M,M,M,-SN,M,M,M,M,M,M,25.23,KWYS 251755Z AUTO 18010G17KT 1 3/4SM -SN 01/01 A2979 RMK AO2,M
WYS,2023-10-25 18:55,35.60,35.60,100.00,210.00,5.00,0.00,29.80,M,5.00,M,M,M,M,M,M,M,M,M,-SN,M,M,M,M,M,M,30.67,KWYS 251855Z AUTO 21005KT 5SM -SN 02/02 A2980 RMK AO2,M
WYS,2023-10-25 19:55,33.80,33.80,100.00,0.00,0.00,0.00,29.80,M,3.00,M,M,M,M,M,M,M,M,M,-SN,M,M,M,M,M,M,33.80,KWYS 251955Z AUTO 00000KT 3SM -SN 01/01 A2980 RMK AO2,M
WYS,2023-10-25 20:55,35.60,35.60,100.00,0.00,0.00,0.00,29.80,M,5.00,M,M,M,M,M,M,M,M,M,-RA,M,M,M,M,M,M,35.60,KWYS 252055Z AUTO 00000KT 5SM -RA 02/02 A2980 RMK AO2,M
WYS,2023-10-25 21:55,35.60,35.60,100.00,M,4.00,0.00,29.81,M,6.00,M,M,M,M,M,M,M,M,M,BR,M,M,M,M,M,M,31.62,KWYS 252155Z AUTO VRB04KT 6SM BR 02/02 A2981 RMK AO2,M
WYS,2023-10-25 22:55,35.60,35.60,100.00,0.00,0.00,0.00,29.82,M,6.00,M,M,M,M,M,M,M,M,M,-UP,M,M,M,M,M,M,35.60,KWYS 252255Z AUTO 00000KT 6SM -UP 02/02 A2982 RMK AO2,M
WYS,2023-10-25 23:55,33.80,33.80,100.00,0.00,0.00,0.00,29.80,M,3.00,M,M,M,M,M,M,M,M,M,-SN,M,M,M,M,M,M,33.80,KWYS 252355Z AUTO 00000KT 3SM -SN 01/01 A2980 RMK AO2,M
WYS,2023-10-26 00:55,33.80,33.80,100.00,0.00,0.00,0.00,29.80,M,5.00,M,M,M,M,M,M,M,M,M,BR,M,M,M,M,M,M,33.80,KWYS 260055Z AUTO 00000KT 5SM BR 01/01 A2980 RMK AO2,M
WYS,2023-10-26 01:55,33.80,33.80,100.00,0.00,0.00,0.00,29.79,M,10.00,M,M,M,M,M,M,M,M,M,M,M,M,M,M,M,M,33.80,KWYS 260155Z AUTO 00000KT 10SM 01/01 A2979 RMK AO2,M
WYS,2023-10-26 02:55,33.80,33.80,100.00,0.00,0.00,0.00,29.78,M,4.00,M,M,M,M,M,M,M,M,M,-UP,M,M,M,M,M,M,33.80,KWYS 260255Z AUTO 00000KT 4SM -UP 01/01 A2978 RMK AO2,M
WYS,2023-10-26 03:55,33.80,33.80,100.00,0.00,0.00,0.00,29.75,M,5.00,M,M,M,M,M,M,M,M,M,-SN,M,M,M,M,M,M,33.80,KWYS 260355Z AUTO 00000KT 5SM -SN 01/01 A2975 RMK AO2,M
WYS,2023-10-26 04:55,32.00,32.00,100.00,0.00,0.00,0.00,29.75,M,3.00,M,M,M,M,M,M,M,M,M,-SN,M,M,M,M,M,M,32.00,KWYS 260455Z AUTO 00000KT 3SM -SN 00/00 A2975 RMK AO2,M
WYS,2023-10-26 05:55,32.00,32.00,100.00,0.00,0.00,0.00,29.74,M,4.00,M,M,M,M,M,M,M,M,M,-SN,M,M,M,M,M,M,32.00,KWYS 260555Z AUTO 00000KT 4SM -SN 00/00 A2974 RMK AO2,M
WYS,2023-10-26 06:55,32.00,32.00,100.00,0.00,0.00,0.00,29.72,M,3.00,M,M,M,M,M,M,M,M,M,-SN,M,M,M,M,M,M,32.00,KWYS 260655Z AUTO 00000KT 3SM -SN 00/00 A2972 RMK AO2,M
WYS,2023-10-26 07:55,32.00,32.00,100.00,0.00,0.00,0.00,29.71,M,4.00,M,M,M,M,M,M,M,M,M,-SN,M,M,M,M,M,M,32.00,KWYS 260755Z AUTO 00000KT 4SM -SN 00/00 A2971 RMK AO2,M
WYS,2023-10-26 08:55,33.80,33.80,100.00,220.00,8.00,0.00,29.71,M,1.25,15.00,M,M,M,M,M,M,M,M,-SN,M,M,M,M,M,M,26.33,KWYS 260855Z AUTO 22008G15KT 1 1/4SM -SN 01/01 A2971 RMK AO2,M
WYS,2023-10-26 09:55,30.20,30.20,100.00,310.00,6.00,0.00,29.71,M,3.00,M,M,M,M,M,M,M,M,M,-SN,M,M,M,M,M,M,23.36,KWYS 260955Z AUTO 31006KT 3SM -SN M01/M01 A2971 RMK AO2,M
WYS,2023-10-26 10:55,24.80,24.80,100.00,250.00,5.00,0.00,29.71,M,0.50,M,M,M,M,M,M,M,M,M,-SN,M,M,M,M,M,M,17.84,KWYS 261055Z AUTO 25005KT 1/2SM -SN M04/M04 A2971 RMK AO2,M
WYS,2023-10-26 11:55,23.00,23.00,100.00,M,6.00,0.01,29.75,M,3.00,M,M,M,M,M,M,M,M,M,-SN,M,M,M,M,M,M,14.69,KWYS 261155Z AUTO VRB06KT 3SM -SN M05/M05 A2975 RMK AO2 P0001,M
WYS,2023-10-26 12:55,21.20,21.20,100.00,M,3.00,0.00,29.75,M,0.75,M,M,M,M,M,M,M,M,M,-SN,M,M,M,M,M,M,16.34,KWYS 261255Z AUTO VRB03KT 3/4SM -SN M06/M06 A2975 RMK AO2,M
WYS,2023-10-26 13:55,21.20,21.20,100.00,M,5.00,0.00,29.76,M,0.50,M,M,M,M,M,M,M,M,M,-SN,M,M,M,M,M,M,13.57,KWYS 261355Z AUTO VRB05KT 1/2SM -SN M06/M06 A2976 RMK AO2,M
WYS,2023-10-26 14:55,19.40,19.40,100.00,M,6.00,0.00,29.80,M,0.25,M,M,M,M,M,M,M,M,M,-SN,M,M,M,M,M,M,10.36,KWYS 261455Z AUTO VRB06KT 1/4SM -SN M07/M07 A2980 RMK AO2,M
WYS,2023-10-26 15:55,19.40,19.40,100.00,230.00,5.00,0.00,29.84,M,0.50,M,M,M,M,M,M,M,M,M,-SN,M,M,M,M,M,M,11.43,KWYS 261555Z AUTO 23005KT 1/2SM -SN M07/M07 A2984 RMK AO2,M
WYS,2023-10-26 16:55,17.60,17.60,100.00,260.00,6.00,0.01,29.88,M,0.25,M,M,M,M,M,M,M,M,M,-SN,M,M,M,M,M,M,8.19,KWYS 261655Z AUTO 26006KT 1/4SM -SN M08/M08 A2988 RMK AO2 P0001,M
WYS,2023-10-26 17:55,17.60,17.60,100.00,240.00,5.00,0.00,29.92,M,1.00,M,M,M,M,M,M,M,M,M,-SN,M,M,M,M,M,M,9.29,KWYS 261755Z AUTO 24005KT 1SM -SN M08/M08 A2992 RMK AO2,M
WYS,2023-10-26 18:55,17.60,17.60,100.00,240.00,6.00,0.00,29.94,M,0.75,M,M,M,M,M,M,M,M,M,-SN,M,M,M,M,M,M,8.19,KWYS 261855Z AUTO 24006KT 3/4SM -SN M08/M08 A2994 RMK AO2,M
WYS,2023-10-26 19:55,19.40,19.40,100.00,220.00,5.00,0.00,29.97,M,1.50,M,M,M,M,M,M,M,M,M,-SN,M,M,M,M,M,M,11.43,KWYS 261955Z AUTO 22005KT 1 1/2SM -SN M07/M07 A2997 RMK AO2,M
WYS,2023-10-26 20:55,19.40,15.80,85.63,170.00,4.00,0.00,29.99,M,10.00,M,M,M,M,M,M,M,M,M,M,M,M,M,M,M,M,12.71,KWYS 262055Z AUTO 17004KT 10SM M07/M09 A2999 RMK AO2,M
WYS,2023-10-26 21:55,23.00,19.40,85.85,240.00,5.00,0.00,30.02,M,10.00,M,M,M,M,M,M,M,M,M,M,M,M,M,M,M,M,15.71,KWYS 262155Z AUTO 24005KT 10SM M05/M07 A3002 RMK AO2,M
WYS,2023-10-26 22:55,21.20,17.60,85.74,230.00,7.00,0.00,30.06,M,10.00,M,M,M,M,M,M,M,M,M,M,M,M,M,M,M,M,11.61,KWYS 262255Z AUTO 23007KT 10SM M06/M08 A3006 RMK AO2,M
WYS,2023-10-26 23:55,21.20,17.60,85.74,190.00,4.00,0.00,30.08,M,10.00,M,M,M,M,M,M,M,M,M,M,M,M,M,M,M,M,14.81,KWYS 262355Z AUTO 19004KT 10SM M06/M08 A3008 RMK AO2,M
WYS,2023-10-27 00:55,17.60,17.60,100.00,200.00,4.00,0.00,30.08,M,10.00,M,M,M,M,M,M,M,M,M,M,M,M,M,M,M,M,10.60,KWYS 270055Z AUTO 20004KT 10SM M08/M08 A3008 RMK AO2,M
WYS,2023-10-27 01:55,19.40,19.40,100.00,0.00,0.00,0.00,30.09,M,10.00,M,M,M,M,M,M,M,M,M,M,M,M,M,M,M,M,19.40,KWYS 270155Z AUTO 00000KT 10SM M07/M07 A3009 RMK AO2,M
WYS,2023-10-27 02:55,15.80,15.80,100.00,0.00,0.00,0.00,30.08,M,7.00,M,M,M,M,M,M,M,M,M,M,M,M,M,M,M,M,15.80,KWYS 270255Z AUTO 00000KT 7SM M09/M09 A3008 RMK AO2,M
WYS,2023-10-27 03:55,15.80,15.80,100.00,50.00,3.00,0.00,30.09,M,10.00,M,M,M,M,M,M,M,M,M,M,M,M,M,M,M,M,10.17,KWYS 270355Z AUTO 05003KT 10SM M09/M09 A3009 RMK AO2,M
WYS,2023-10-27 04:55,15.80,15.80,100.00,0.00,0.00,0.00,30.09,M,10.00,M,M,M,M,M,M,M,M,M,M,M,M,M,M,M,M,15.80,KWYS 270455Z AUTO 00000KT 10SM M09/M09 A3009 RMK AO2,M
WYS,2023-10-27 05:55,21.20,21.20,100.00,230.00,9.00,0.00,30.08,M,10.00,M,M,M,M,M,M,M,M,M,M,M,M,M,M,M,M,10.08,KWYS 270555Z AUTO 23009KT 10SM M06/M06 A3008 RMK AO2,M
WYS,2023-10-27 06:55,21.20,21.20,100.00,150.00,3.00,0.00,30.07,M,10.00,M,M,M,M,M,M,M,M,M,-SN,M,M,M,M,M,M,16.34,KWYS 270655Z AUTO 15003KT 10SM -SN M06/M06 A3007 RMK AO2,M
WYS,2023-10-27 07:55,21.20,21.20,100.00,160.00,5.00,0.00,30.07,M,5.00,M,M,M,M,M,M,M,M,M,-SN,M,M,M,M,M,M,13.57,KWYS 270755Z AUTO 16005KT 5SM -SN M06/M06 A3007 RMK AO2,M
WYS,2023-10-27 08:55,23.00,23.00,100.00,220.00,8.00,0.00,30.06,M,5.00,M,M,M,M,M,M,M,M,M,-SN,M,M,M,M,M,M,13.03,KWYS 270855Z AUTO 22008KT 5SM -SN M05/M05 A3006 RMK AO2,M
WYS,2023-10-27 09:55,23.00,23.00,100.00,230.00,13.00,0.00,30.05,M,7.00,20.00,M,M,M,M,M,M,M,M,M,M,M,M,M,M,M,10.04,KWYS 270955Z AUTO 23013G20KT 7SM M05/M05 A3005 RMK AO2,M
WYS,2023-10-27 10:55,23.00,23.00,100.00,220.00,8.00,0.00,30.05,M,9.00,M,M,M,M,M,M,M,M,M,-UP,M,M,M,M,M,M,13.03,KWYS 271055Z AUTO 22008KT 9SM -UP M05/M05 A3005 RMK AO2,M
WYS,2023-10-27 11:55,23.00,23.00,100.00,200.00,6.00,0.00,30.04,M,7.00,M,M,M,M,M,M,M,M,M,M,M,M,M,M,M,M,14.69,KWYS 271155Z AUTO 20006KT 7SM M05/M05 A3004 RMK AO2,M
WYS,2023-10-27 12:55,23.00,23.00,100.00,210.00,12.00,0.00,30.04,M,6.00,M,M,M,M,M,M,M,M,M,BR,M,M,M,M,M,M,10.55,KWYS 271255Z AUTO 21012KT 6SM BR M05/M05 A3004 RMK AO2,M
WYS,2023-10-27 13:55,23.00,23.00,100.00,230.00,6.00,0.00,30.04,M,2.50,M,M,M,M,M,M,M,M,M,-SN,M,M,M,M,M,M,14.69,KWYS 271355Z AUTO 23006KT 2 1/2SM -SN M05/M05 A3004 RMK AO2,M
WYS,2023-10-27 14:55,23.00,23.00,100.00,240.00,5.00,0.00,30.05,M,4.00,M,M,M,M,M,M,M,M,M,BR,M,M,M,M,M,M,15.71,KWYS 271455Z AUTO 24005KT 4SM BR M05/M05 A3005 RMK AO2,M
WYS,2023-10-27 15:55,23.00,23.00,100.00,250.00,5.00,0.00,30.05,M,9.00,13.00,M,M,M,M,M,M,M,M,M,M,M,M,M,M,M,15.71,KWYS 271555Z AUTO 25005G13KT 9SM M05/M05 A3005 RMK AO2,M
WYS,2023-10-27 16:55,24.80,23.00,92.74,210.00,14.00,0.00,30.03,M,10.00,M,M,M,M,M,M,M,M,M,M,M,M,M,M,M,M,11.88,KWYS 271655Z AUTO 21014KT 10SM M04/M05 A3003 RMK AO2,M
WYS,2023-10-27 17:55,26.60,21.20,79.77,220.00,12.00,0.00,30.04,M,10.00,18.00,M,M,M,M,M,M,M,M,M,M,M,M,M,M,M,15.13,KWYS 271755Z AUTO 22012G18KT 10SM M03/M06 A3004 RMK AO2,M
WYS,2023-10-27 18:55,26.60,21.20,79.77,220.00,13.00,0.00,30.04,M,10.00,18.00,M,M,M,M,M,M,M,M,M,M,M,M,M,M,M,14.65,KWYS 271855Z AUTO 22013G18KT 10SM M03/M06 A3004 RMK AO2,M
WYS,2023-10-27 19:55,26.60,19.40,73.89,210.00,14.00,0.00,30.02,M,10.00,19.00,M,M,M,M,M,M,M,M,M,M,M,M,M,M,M,14.20,KWYS 271955Z AUTO 21014G19KT 10SM M03/M07 A3002 RMK AO2,M
WYS,2023-10-27 20:55,28.40,17.60,63.51,220.00,10.00,0.00,30.02,M,10.00,M,M,M,M,M,M,M,M,M,M,M,M,M,M,M,M,18.45,KWYS 272055Z AUTO 22010KT 10SM M02/M08 A3002 RMK AO2,M
WYS,2023-10-27 21:55,26.60,19.40,73.89,200.00,10.00,0.00,30.02,M,10.00,15.00,M,M,M,M,M,M,M,M,M,M,M,M,M,M,M,16.20,KWYS 272155Z AUTO 20010G15KT 10SM M03/M07 A3002 RMK AO2,M
WYS,2023-10-27 22:55,26.60,21.20,79.77,190.00,9.00,0.00,30.02,M,10.00,M,M,M,M,M,M,M,M,M,M,M,M,M,M,M,M,16.80,KWYS 272255Z AUTO 19009KT 10SM M03/M06 A3002 RMK AO2,M
WYS,2023-10-27 23:55,24.80,21.20,85.96,190.00,6.00,0.00,30.03,M,10.00,M,M,M,M,M,M,M,M,M,M,M,M,M,M,M,M,16.86,KWYS 272355Z AUTO 19006KT 10SM M04/M06 A3003 RMK AO2,M
WYS,2023-10-28 00:55,23.00,23.00,100.00,0.00,0.00,0.00,30.04,M,10.00,M,M,M,M,M,M,M,M,M,M,M,M,M,M,M,M,23.00,KWYS 280055Z AUTO 00000KT 10SM M05/M05 A3004 RMK AO2,M
WYS,2023-10-28 01:55,21.20,17.60,85.74,250.00,5.00,0.00,30.06,M,10.00,M,M,M,M,M,M,M,M,M,M,M,M,M,M,M,M,13.57,KWYS 280155Z AUTO 25005KT 10SM M06/M08 A3006 RMK AO2,M
WYS,2023-10-28 02:55,21.20,21.20,100.00,0.00,0.00,0.00,30.06,M,9.00,M,M,M,M,M,M,M,M,M,-SN,M,M,M,M,M,M,21.20,KWYS 280255Z AUTO 00000KT 9SM -SN M06/M06 A3006 RMK AO2,M
WYS,2023-10-28 03:55,21.20,21.20,100.00,0.00,0.00,0.00,30.08,M,4.00,M,M,M,M,M,M,M,M,M,-SN,M,M,M,M,M,M,21.20,KWYS 280355Z AUTO 00000KT 4SM -SN M06/M06 A3008 RMK AO2,M
WYS,2023-10-28 04:55,21.20,21.20,100.00,10.00,6.00,0.01,30.09,M,2.50,M,M,M,M,M,M,M,M,M,-SN,M,M,M,M,M,M,12.52,KWYS 280455Z AUTO 01006KT 2 1/2SM -SN M06/M06 A3009 RMK AO2 P0001,M
WYS,2023-10-28 05:55,19.40,15.80,85.63,50.00,8.00,0.00,30.09,M,10.00,M,M,M,M,M,M,M,M,M,M,M,M,M,M,M,M,8.59,KWYS 280555Z AUTO 05008KT 10SM M07/M09 A3009 RMK AO2,M
WYS,2023-10-28 06:55,19.40,15.80,85.63,40.00,5.00,0.00,30.10,M,10.00,M,M,M,M,M,M,M,M,M,M,M,M,M,M,M,M,11.43,KWYS 280655Z AUTO 04005KT 10SM M07/M09 A3010 RMK AO2,M
WYS,2023-10-28 07:55,17.60,14.00,85.51,40.00,7.00,0.00,30.11,M,10.00,M,M,M,M,M,M,M,M,M,M,M,M,M,M,M,M,7.23,KWYS 280755Z AUTO 04007KT 10SM M08/M10 A3011 RMK AO2,M
WYS,2023-10-28 08:55,15.80,12.20,85.40,20.00,4.00,0.00,30.11,M,10.00,M,M,M,M,M,M,M,M,M,M,M,M,M,M,M,M,8.50,KWYS 280855Z AUTO 02004KT 10SM M09/M11 A3011 RMK AO2,M
WYS,2023-10-28 09:55,14.00,12.20,92.38,30.00,4.00,0.00,30.11,M,10.00,M,M,M,M,M,M,M,M,M,M,M,M,M,M,M,M,6.40,KWYS 280955Z AUTO 03004KT 10SM M10/M11 A3011 RMK AO2,M
WYS,2023-10-28 10:55,14.00,14.00,100.00,0.00,0.00,0.00,30.13,M,10.00,M,M,M,M,M,M,M,M,M,M,M,M,M,M,M,M,14.00,KWYS 281055Z AUTO 00000KT 10SM M10/M10 A3013 RMK AO2,M
WYS,2023-10-28 11:55,12.20,10.40,92.32,0.00,0.00,0.00,30.14,M,10.00,M,M,M,M,M,M,M,M,M,M,M,M,M,M,M,M,12.20,KWYS 281155Z AUTO 00000KT 10SM M11/M12 A3014 RMK AO2,M
WYS,2023-10-28 12:55,6.80,6.80,100.00,30.00,5.00,0.00,30.15,M,10.00,M,M,M,M,M,M,M,M,M,M,M,M,M,M,M,M,-3.53,KWYS 281255Z AUTO 03005KT 10SM M14/M14 A3015 RMK AO2,M
WYS,2023-10-28 13:55,8.60,5.00,84.93,20.00,3.00,0.00,30.15,M,10.00,M,M,M,M,M,M,M,M,M,M,M,M,M,M,M,M,1.94,KWYS 281355Z AUTO 02003KT 10SM M13/M15 A3015 RMK AO2,M
WYS,2023-10-28 14:55,6.80,5.00,92.12,0.00,0.00,0.00,30.18,M,10.00,M,M,M,M,M,M,M,M,M,M,M,M,M,M,M,M,6.80,KWYS 281455Z AUTO 00000KT 10SM M14/M15 A3018 RMK AO2,M
WYS,2023-10-28 15:55,10.40,5.00,78.35,30.00,4.00,0.00,30.19,M,10.00,M,M,M,M,M,M,M,M,M,M,M,M,M,M,M,M,2.20,KWYS 281555Z AUTO 03004KT 10SM M12/M15 A3019 RMK AO2,M
WYS,2023-10-28 16:55,15.80,5.00,61.77,60.00,4.00,0.00,30.19,M,10.00,M,M,M,M,M,M,M,M,M,M,M,M,M,M,M,M,8.50,KWYS 281655Z AUTO 06004KT 10SM M09/M15 A3019 RMK AO2,M
WYS,2023-10-28 17:55,19.40,5.00,52.89,40.00,5.00,0.00,30.19,M,10.00,M,M,M,M,M,M,M,M,M,M,M,M,M,M,M,M,11.43,KWYS 281755Z AUTO 04005KT 10SM M07/M15 A3019 RMK AO2,M
WYS,2023-10-28 18:55,21.20,3.20,45.10,0.00,0.00,0.00,30.18,M,10.00,M,M,M,M,M,M,M,M,M,M,M,M,M,M,M,M,21.20,KWYS 281855Z AUTO 00000KT 10SM M06/M16 A3018 RMK AO2,M
WYS,2023-10-28 19:50,21.20,5.00,48.99,0.00,0.00,0.00,30.17,M,10.00,M,M,M,M,M,M,M,M,M,M,M,M,M,M,M,M,21.20,KWYS 281950Z AUTO 00000KT 10SM M06/M15 A3017 RMK AO2,M
WYS,2023-10-28 20:55,23.00,6.80,49.29,0.00,0.00,0.00,30.15,M,10.00,M,M,M,M,M,M,M,M,M,M,M,M,M,M,M,M,23.00,KWYS 282055Z AUTO 00000KT 10SM M05/M14 A3015 RMK AO2,M
WYS,2023-10-28 21:50,23.00,8.60,53.47,0.00,0.00,0.00,30.15,M,10.00,M,M,M,M,M,M,M,M,M,M,M,M,M,M,M,M,23.00,KWYS 282150Z AUTO 00000KT 10SM M05/M13 A3015 RMK AO2,M
WYS,2023-10-28 22:55,23.00,8.60,53.47,0.00,0.00,0.00,30.17,M,10.00,M,M,M,M,M,M,M,M,M,M,M,M,M,M,M,M,23.00,KWYS 282255Z AUTO 00000KT 10SM M05/M13 A3017 RMK AO2,M
WYS,2023-10-28 23:55,21.20,12.20,67.73,0.00,0.00,0.00,30.19,M,10.00,M,M,M,M,M,M,M,M,M,M,M,M,M,M,M,M,21.20,KWYS 282355Z AUTO 00000KT 10SM M06/M11 A3019 RMK AO2,M
WYS,2023-10-29 00:55,15.80,15.80,100.00,0.00,0.00,0.00,30.22,M,10.00,M,M,M,M,M,M,M,M,M,M,M,M,M,M,M,M,15.80,KWYS 290055Z AUTO 00000KT 10SM M09/M09 A3022 RMK AO2,M
WYS,2023-10-29 01:55,15.80,10.40,78.84,10.00,4.00,0.00,30.25,M,10.00,M,M,M,M,M,M,M,M,M,M,M,M,M,M,M,M,8.50,KWYS 290155Z AUTO 01004KT 10SM M09/M12 A3025 RMK AO2,M
WYS,2023-10-29 02:55,12.20,10.40,92.32,0.00,0.00,0.00,30.25,M,10.00,M,M,M,M,M,M,M,M,M,M,M,M,M,M,M,M,12.20,KWYS 290255Z AUTO 00000KT 10SM M11/M12 A3025 RMK AO2,M
WYS,2023-10-29 03:55,14.00,6.80,72.53,350.00,4.00,0.00,30.27,M,10.00,M,M,M,M,M,M,M,M,M,M,M,M,M,M,M,M,6.40,KWYS 290355Z AUTO 35004KT 10SM M10/M14 A3027 RMK AO2,M
WYS,2023-10-29 04:55,12.20,5.00,72.33,20.00,6.00,0.00,30.28,M,10.00,M,M,M,M,M,M,M,M,M,M,M,M,M,M,M,M,1.68,KWYS 290455Z AUTO 02006KT 10SM M11/M15 A3028 RMK AO2,M
WYS,2023-10-29 05:55,6.80,6.80,100.00,0.00,0.00,0.00,30.30,M,10.00,M,M,M,M,M,M,M,M,M,M,M,M,M,M,M,M,6.80,KWYS 290555Z AUTO 00000KT 10SM M14/M14 A3030 RMK AO2,M
WYS,2023-10-29 06:55,3.20,3.20,100.00,310.00,3.00,0.00,30.31,M,10.00,M,M,M,M,M,M,M,M,M,M,M,M,M,M,M,M,-4.24,KWYS 290655Z AUTO 31003KT 10SM M16/M16 A3031 RMK AO2,M
WYS,2023-10-29 07:55,3.20,1.40,91.99,0.00,0.00,0.00,30.33,M,10.00,M,M,M,M,M,M,M,M,M,M,M,M,M,M,M,M,3.20,KWYS 290755Z AUTO 00000KT 10SM M16/M17 A3033 RMK AO2,M
WYS,2023-10-29 08:55,-2.20,-4.00,91.78,0.00,0.00,0.00,30.35,M,10.00,M,M,M,M,M,M,M,M,M,M,M,M,M,M,M,M,-2.20,KWYS 290855Z AUTO 00000KT 10SM M19/M20 A3035 RMK AO2,M
WYS,2023-10-29 09:55,-0.40,-0.40,100.00,0.00,0.00,0.00,30.35,M,10.00,M,M,M,M,M,M,M,M,M,M,M,M,M,M,M,M,-0.40,KWYS 290955Z AUTO 00000KT 10SM M18/M18 A3035 RMK AO2,M
WYS,2023-10-29 10:55,-0.40,-2.20,91.85,210.00,4.00,0.00,30.35,M,10.00,M,M,M,M,M,M,M,M,M,M,M,M,M,M,M,M,-10.42,KWYS 291055Z AUTO 21004KT 10SM M18/M19 A3035 RMK AO2,M
WYS,2023-10-29 11:55,1.40,-0.40,91.92,0.00,0.00,0.00,30.36,M,10.00,M,M,M,M,M,M,M,M,M,M,M,M,M,M,M,M,1.40,KWYS 291155Z AUTO 00000KT 10SM M17/M18 A3036 RMK AO2,M
WYS,2023-10-29 12:55,-0.40,-2.20,91.85,0.00,0.00,0.00,30.38,M,10.00,M,M,M,M,M,M,M,M,M,M,M,M,M,M,M,M,-0.40,KWYS 291255Z AUTO 00000KT 10SM M18/M19 A3038 RMK AO2,M
WYS,2023-10-29 13:55,-4.00,-5.80,91.71,0.00,0.00,0.00,30.38,M,10.00,M,M,M,M,M,M,M,M,M,M,M,M,M,M,M,M,-4.00,KWYS 291355Z AUTO 00000KT 10SM M20/M21 A3038 RMK AO2,M
WYS,2023-10-29 14:55,-0.40,-4.00,84.30,210.00,3.00,0.00,30.40,M,10.00,M,M,M,M,M,M,M,M,M,M,M,M,M,M,M,M,-8.35,KWYS 291455Z AUTO 21003KT 10SM M18/M20 A3040 RMK AO2,M
WYS,2023-10-29 15:55,8.60,3.20,78.18,0.00,0.00,0.00,30.41,M,10.00,M,M,M,M,M,M,M,M,M,M,M,M,M,M,M,M,8.60,KWYS 291555Z AUTO 00000KT 10SM M13/M16 A3041 RMK AO2,M
WYS,2023-10-29 16:55,15.80,6.80,67.05,0.00,0.00,0.00,30.41,M,10.00,M,M,M,M,M,M,M,M,M,M,M,M,M,M,M,M,15.80,KWYS 291655Z AUTO 00000KT 10SM M09/M14 A3041 RMK AO2,M
WYS,2023-10-29 17:55,19.40,5.00,52.89,60.00,6.00,0.00,30.40,M,10.00,M,M,M,M,M,M,M,M,M,M,M,M,M,M,M,M,10.36,KWYS 291755Z AUTO 06006KT 10SM M07/M15 A3040 RMK AO2,M
WYS,2023-10-29 18:55,21.20,5.00,48.99,80.00,3.00,0.00,30.39,M,10.00,M,M,M,M,M,M,M,M,M,M,M,M,M,M,M,M,16.34,KWYS 291855Z AUTO 08003KT 10SM M06/M15 A3039 RMK AO2,M
WYS,2023-10-29 19:55,23.00,6.80,49.29,160.00,3.00,0.00,30.38,M,10.00,M,M,M,M,M,M,M,M,M,M,M,M,M,M,M,M,18.40,KWYS 291955Z AUTO 16003KT 10SM M05/M14 A3038 RMK AO2,M
WYS,2023-10-29 20:55,24.80,10.40,53.75,M,4.00,0.00,30.36,M,10.00,M,M,M,M,M,M,M,M,M,M,M,M,M,M,M,M,19.01,KWYS 292055Z AUTO VRB04KT 10SM M04/M12 A3036 RMK AO2,M
WYS,2023-10-29 21:55,24.80,12.20,58.22,220.00,7.00,0.00,30.35,M,10.00,M,M,M,M,M,M,M,M,M,M,M,M,M,M,M,M,16.00,KWYS 292155Z AUTO 22007KT 10SM M04/M11 A3035 RMK AO2,M
WYS,2023-10-29 22:55,24.80,10.40,53.75,230.00,8.00,0.00,30.35,M,10.00,M,M,M,M,M,M,M,M,M,M,M,M,M,M,M,M,15.24,KWYS 292255Z AUTO 23008KT 10SM M04/M12 A3035 RMK AO2,M
WYS,2023-10-29 23:55,23.00,12.20,62.78,230.00,6.00,0.00,30.36,M,10.00,M,M,M,M,M,M,M,M,M,M,M,M,M,M,M,M,14.69,KWYS 292355Z AUTO 23006KT 10SM M05/M11 A3036 RMK AO2,M
WYS,2023-10-30 00:55,19.40,15.80,85.63,190.00,4.00,0.00,30.36,M,10.00,M,M,M,M,M,M,M,M,M,M,M,M,M,M,M,M,12.71,KWYS 300055Z AUTO 19004KT 10SM M07/M09 A3036 RMK AO2,M
WYS,2023-10-30 01:55,14.00,14.00,100.00,0.00,0.00,0.00,30.36,M,10.00,M,M,M,M,M,M,M,M,M,M,M,M,M,M,M,M,14.00,KWYS 300155Z AUTO 00000KT 10SM M10/M10 A3036 RMK AO2,M
WYS,2023-10-30 02:55,15.80,14.00,92.44,200.00,4.00,0.00,30.37,M,10.00,M,M,M,M,M,M,M,M,M,M,M,M,M,M,M,M,8.50,KWYS 300255Z AUTO 20004KT 10SM M09/M10 A3037 RMK AO2,M
WYS,2023-10-30 03:55,12.20,12.20,100.00,190.00,8.00,0.00,30.37,M,10.00,M,M,M,M,M,M,M,M,M,M,M,M,M,M,M,M,-0.28,KWYS 300355Z AUTO 19008KT 10SM M11/M11 A3037 RMK AO2,M
WYS,2023-10-30 04:55,12.20,10.40,92.32,240.00,4.00,0.00,30.38,M,10.00,M,M,M,M,M,M,M,M,M,M,M,M,M,M,M,M,4.30,KWYS 300455Z AUTO 24004KT 10SM M11/M12 A3038 RMK AO2,M
WYS,2023-10-30 05:55,6.80,6.80,100.00,0.00,0.00,0.00,30.37,M,10.00,M,M,M,M,M,M,M,M,M,M,M,M,M,M,M,M,6.80,KWYS 300555Z AUTO 00000KT 10SM M14/M14 A3037 RMK AO2,M
WYS,2023-10-30 06:55,5.00,5.00,100.00,0.00,0.00,0.00,30.37,M,10.00,M,M,M,M,M,M,M,M,M,M,M,M,M,M,M,M,5.00,KWYS 300655Z AUTO 00000KT 10SM M15/M15 A3037 RMK AO2,M
WYS,2023-10-30 07:55,1.40,-0.40,91.92,0.00,0.00,0.00,30.37,M,10.00,M,M,M,M,M,M,M,M,M,M,M,M,M,M,M,M,1.40,KWYS 300755Z AUTO 00000KT 10SM M17/M18 A3037 RMK AO2,M
WYS,2023-10-30 08:55,-0.40,-2.20,91.85,0.00,0.00,0.00,30.37,M,10.00,M,M,M,M,M,M,M,M,M,M,M,M,M,M,M,M,-0.40,KWYS 300855Z AUTO 00000KT 10SM M18/M19 A3037 RMK AO2,M
WYS,2023-10-30 09:55,-2.20,-4.00,91.78,0.00,0.00,0.00,30.36,M,10.00,M,M,M,M,M,M,M,M,M,M,M,M,M,M,M,M,-2.20,KWYS 300955Z AUTO 00000KT 10SM M19/M20 A3036 RMK AO2,M
WYS,2023-10-30 10:55,-4.00,-7.60,84.04,0.00,0.00,0.00,30.36,M,10.00,M,M,M,M,M,M,M,M,M,M,M,M,M,M,M,M,-4.00,KWYS 301055Z AUTO 00000KT 10SM M20/M22 A3036 RMK AO2,M
WYS,2023-10-30 11:55,-5.80,-7.60,91.64,0.00,0.00,0.00,30.35,M,10.00,M,M,M,M,M,M,M,M,M,M,M,M,M,M,M,M,-5.80,KWYS 301155Z AUTO 00000KT 10SM M21/M22 A3035 RMK AO2,M
WYS,2023-10-30 12:55,-5.80,-9.40,83.91,0.00,0.00,0.00,30.36,M,10.00,M,M,M,M,M,M,M,M,M,M,M,M,M,M,M,M,-5.80,KWYS 301255Z AUTO 00000KT 10SM M21/M23 A3036 RMK AO2,M
WYS,2023-10-30 13:55,-7.60,-9.40,91.57,0.00,0.00,0.00,30.37,M,10.00,M,M,M,M,M,M,M,M,M,M,M,M,M,M,M,M,-7.60,KWYS 301355Z AUTO 00000KT 10SM M22/M23 A3037 RMK AO2,M
WYS,2023-10-30 14:55,-4.00,-7.60,84.04,0.00,0.00,0.00,30.39,M,10.00,M,M,M,M,M,M,M,M,M,M,M,M,M,M,M,M,-4.00,KWYS 301455Z AUTO 00000KT 10SM M20/M22 A3039 RMK AO2,M
WYS,2023-10-30 15:55,6.80,5.00,92.12,0.00,0.00,0.00,30.41,M,10.00,M,M,M,M,M,M,M,M,M,M,M,M,M,M,M,M,6.80,KWYS 301555Z AUTO 00000KT 10SM M14/M15 A3041 RMK AO2,M
WYS,2023-10-30 16:55,14.00,10.40,85.28,0.00,0.00,0.00,30.40,M,10.00,M,M,M,M,M,M,M,M,M,M,M,M,M,M,M,M,14.00,KWYS 301655Z AUTO 00000KT 10SM M10/M12 A3040 RMK AO2,M
WYS,2023-10-30 17:55,21.20,12.20,67.73,0.00,0.00,0.00,30.40,M,10.00,M,M,M,M,M,M,M,M,M,M,M,M,M,M,M,M,21.20,KWYS 301755Z AUTO 00000KT 10SM M06/M11 A3040 RMK AO2,M
WYS,2023-10-30 18:30,21.20,12.20,67.73,0.00,0.00,0.00,30.40,M,10.00,M,M,M,M,M,M,M,M,M,M,M,M,M,M,M,M,21.20,KWYS 301830Z AUTO 00000KT 10SM M06/M11 A3040 RMK AO2,M
WYS,2023-10-30 19:55,28.40,15.80,58.75,0.00,0.00,0.00,30.38,M,10.00,M,M,M,M,M,M,M,M,M,M,M,M,M,M,M,M,28.40,KWYS 301955Z AUTO 00000KT 10SM M02/M09 A3038 RMK AO2,M
WYS,2023-10-30 20:55,30.20,17.60,59.01,180.00,5.00,0.00,30.37,M,10.00,10.00,M,M,M,M,M,M,M,M,M,M,M,M,M,M,M,24.26,KWYS 302055Z AUTO 18005G10KT 10SM M01/M08 A3037 RMK AO2,M
WYS,2023-10-30 21:55,30.20,17.60,59.01,190.00,7.00,0.00,30.37,M,10.00,M,M,M,M,M,M,M,M,M,M,M,M,M,M,M,M,22.59,KWYS 302155Z AUTO 19007KT 10SM M01/M08 A3037 RMK AO2,M
WYS,2023-10-30 22:55,30.20,17.60,59.01,210.00,6.00,0.00,30.37,M,10.00,M,M,M,M,M,M,M,M,M,M,M,M,M,M,M,M,23.36,KWYS 302255Z AUTO 21006KT 10SM M01/M08 A3037 RMK AO2,M
WYS,2023-10-30 23:50,28.40,17.60,63.51,210.00,5.00,0.00,30.37,M,10.00,M,M,M,M,M,M,M,M,M,M,M,M,M,M,M,M,22.12,KWYS 302350Z AUTO 21005KT 10SM M02/M08 A3037 RMK AO2,M
WYS,2023-10-31 00:55,24.80,19.40,79.62,0.00,0.00,0.00,30.36,M,10.00,M,M,M,M,M,M,M,M,M,M,M,M,M,M,M,M,24.80,KWYS 310055Z AUTO 00000KT 10SM M04/M07 A3036 RMK AO2,M
WYS,2023-10-31 01:55,21.20,19.40,92.63,0.00,0.00,0.00,30.37,M,10.00,M,M,M,M,M,M,M,M,M,M,M,M,M,M,M,M,21.20,KWYS 310155Z AUTO 00000KT 10SM M06/M07 A3037 RMK AO2,M
WYS,2023-10-31 02:55,19.40,17.60,92.57,0.00,0.00,0.00,30.38,M,10.00,M,M,M,M,M,M,M,M,M,M,M,M,M,M,M,M,19.40,KWYS 310255Z AUTO 00000KT 10SM M07/M08 A3038 RMK AO2,M
WYS,2023-10-31 03:55,15.80,15.80,100.00,0.00,0.00,0.00,30.38,M,10.00,M,M,M,M,M,M,M,M,M,M,M,M,M,M,M,M,15.80,KWYS 310355Z AUTO 00000KT 10SM M09/M09 A3038 RMK AO2,M
WYS,2023-10-31 04:55,17.60,15.80,92.50,250.00,4.00,0.00,30.39,M,10.00,M,M,M,M,M,M,M,M,M,M,M,M,M,M,M,M,10.60,KWYS 310455Z AUTO 25004KT 10SM M08/M09 A3039 RMK AO2,M
WYS,2023-10-31 05:55,10.40,10.40,100.00,30.00,3.00,0.00,30.39,M,10.00,M,M,M,M,M,M,M,M,M,M,M,M,M,M,M,M,4.00,KWYS 310555Z AUTO 03003KT 10SM M12/M12 A3039 RMK AO2,M
WYS,2023-10-31 06:55,8.60,8.60,100.00,0.00,0.00,0.00,30.39,M,10.00,M,M,M,M,M,M,M,M,M,M,M,M,M,M,M,M,8.60,KWYS 310655Z AUTO 00000KT 10SM M13/M13 A3039 RMK AO2,M
WYS,2023-10-31 07:55,5.00,5.00,100.00,0.00,0.00,0.00,30.40,M,10.00,M,M,M,M,M,M,M,M,M,M,M,M,M,M,M,M,5.00,KWYS 310755Z AUTO 00000KT 10SM M15/M15 A3040 RMK AO2,M
WYS,2023-10-31 08:55,5.00,5.00,100.00,0.00,0.00,0.00,30.40,M,10.00,M,M,M,M,M,M,M,M,M,M,M,M,M,M,M,M,5.00,KWYS 310855Z AUTO 00000KT 10SM M15/M15 A3040 RMK AO2,M
WYS,2023-10-31 09:55,5.00,5.00,100.00,0.00,0.00,0.00,30.39,M,10.00,M,M,M,M,M,M,M,M,M,M,M,M,M,M,M,M,5.00,KWYS 310955Z AUTO 00000KT 10SM M15/M15 A3039 RMK AO2,M
WYS,2023-10-31 10:55,3.20,1.40,91.99,0.00,0.00,0.00,30.39,M,10.00,M,M,M,M,M,M,M,M,M,M,M,M,M,M,M,M,3.20,KWYS 311055Z AUTO 00000KT 10SM M16/M17 A3039 RMK AO2,M
WYS,2023-10-31 11:55,1.40,-0.40,91.92,0.00,0.00,0.00,30.39,M,10.00,M,M,M,M,M,M,M,M,M,M,M,M,M,M,M,M,1.40,KWYS 311155Z AUTO 00000KT 10SM M17/M18 A3039 RMK AO2,M
WYS,2023-10-31 12:55,-0.40,-2.20,91.85,0.00,0.00,0.00,30.40,M,10.00,M,M,M,M,M,M,M,M,M,M,M,M,M,M,M,M,-0.40,KWYS 311255Z AUTO 00000KT 10SM M18/M19 A3040 RMK AO2,M
WYS,2023-10-31 13:55,-2.20,-4.00,91.78,0.00,0.00,0.00,30.40,M,10.00,M,M,M,M,M,M,M,M,M,M,M,M,M,M,M,M,-2.20,KWYS 311355Z AUTO 00000KT 10SM M19/M20 A3040 RMK AO2,M
WYS,2023-10-31 14:55,-0.40,-2.20,91.85,0.00,0.00,0.00,30.42,M,10.00,M,M,M,M,M,M,M,M,M,M,M,M,M,M,M,M,-0.40,KWYS 311455Z AUTO 00000KT 10SM M18/M19 A3042 RMK AO2,M
WYS,2023-10-31 15:55,12.20,12.20,100.00,0.00,0.00,0.00,30.43,M,10.00,M,M,M,M,M,M,M,M,M,M,M,M,M,M,M,M,12.20,KWYS 311555Z AUTO 00000KT 10SM M11/M11 A3043 RMK AO2,M
WYS,2023-10-31 16:55,17.60,15.80,92.50,0.00,0.00,0.00,30.42,M,10.00,M,M,M,M,M,M,M,M,M,M,M,M,M,M,M,M,17.60,KWYS 311655Z AUTO 00000KT 10SM M08/M09 A3042 RMK AO2,M
WYS,2023-10-31 17:55,24.80,15.80,68.18,0.00,0.00,0.00,30.41,M,10.00,M,M,M,M,M,M,M,M,M,M,M,M,M,M,M,M,24.80,KWYS 311755Z AUTO 00000KT 10SM M04/M09 A3041 RMK AO2,M
WYS,2023-10-31 18:55,28.40,17.60,63.51,0.00,0.00,0.00,30.40,M,10.00,M,M,M,M,M,M,M,M,M,M,M,M,M,M,M,M,28.40,KWYS 311855Z AUTO 00000KT 10SM M02/M08 A3040 RMK AO2,M
WYS,2023-10-31 19:55,33.80,19.40,55.14,220.00,10.00,0.00,30.36,M,10.00,M,M,M,M,M,M,M,M,M,M,M,M,M,M,M,M,25.23,KWYS 311955Z AUTO 22010KT 10SM 01/M07 A3036 RMK AO2,M
WYS,2023-10-31 20:55,35.60,19.40,51.33,210.00,9.00,0.00,30.34,M,10.00,15.00,M,M,M,M,M,M,M,M,M,M,M,M,M,M,M,27.99,KWYS 312055Z AUTO 21009G15KT 10SM 02/M07 A3034 RMK AO2,M
WYS,2023-10-31 21:55,35.60,19.40,51.33,210.00,6.00,0.00,30.32,M,10.00,11.00,M,M,M,M,M,M,M,M,M,M,M,M,M,M,M,29.87,KWYS 312155Z AUTO 21006G11KT 10SM 02/M07 A3032 RMK AO2,M
WYS,2023-10-31 22:55,35.60,17.60,47.51,210.00,8.00,0.00,30.31,M,10.00,M,M,M,M,M,M,M,M,M,M,M,M,M,M,M,M,28.55,KWYS 312255Z AUTO 21008KT 10SM 02/M08 A3031 RMK AO2,M
WYS,2023-10-31 23:55,33.80,19.40,55.14,250.00,3.00,0.00,30.31,M,10.00,M,M,M,M,M,M,M,M,M,M,M,M,M,M,M,M,30.75,KWYS 312355Z AUTO 25003KT 10SM 01/M07 A3031 RMK AO2,M
WYS,2023-11-01 00:55,28.40,21.20,74.08,0.00,0.00,0.00,30.31,M,10.00,M,M,M,M,M,M,M,M,M,M,M,M,M,M,M,M,28.40,KWYS 010055Z AUTO 00000KT 10SM M02/M06 A3031 RMK AO2,M
WYS,2023-11-01 01:55,24.80,23.00,92.74,0.00,0.00,0.00,30.30,M,10.00,M,M,M,M,M,M,M,M,M,M,M,M,M,M,M,M,24.80,KWYS 010155Z AUTO 00000KT 10SM M04/M05 A3030 RMK AO2,M
WYS,2023-11-01 02:55,21.20,21.20,100.00,0.00,0.00,0.00,30.30,M,10.00,M,M,M,M,M,M,M,M,M,M,M,M,M,M,M,M,21.20,KWYS 010255Z AUTO 00000KT 10SM M06/M06 A3030 RMK AO2,M
WYS,2023-11-01 03:55,19.40,19.40,100.00,0.00,0.00,0.00,30.29,M,10.00,M,M,M,M,M,M,M,M,M,M,M,M,M,M,M,M,19.40,KWYS 010355Z AUTO 00000KT 10SM M07/M07 A3029 RMK AO2,M
WYS,2023-11-01 04:55,17.60,17.60,100.00,0.00,0.00,0.00,30.29,M,10.00,M,M,M,M,M,M,M,M,M,M,M,M,M,M,M,M,17.60,KWYS 010455Z AUTO 00000KT 10SM M08/M08 A3029 RMK AO2,M
WYS,2023-11-01 05:55,15.80,15.80,100.00,0.00,0.00,0.00,30.28,M,10.00,M,M,M,M,M,M,M,M,M,M,M,M,M,M,M,M,15.80,KWYS 010555Z AUTO 00000KT 10SM M09/M09 A3028 RMK AO2,M
WYS,2023-11-01 06:55,14.00,15.80,M,0.00,0.00,0.00,30.27,M,10.00,M,M,M,M,M,M,M,M,M,M,M,M,M,M,M,M,M,KWYS 010655Z AUTO 00000KT 10SM M10/M09 A3027 RMK AO2,M
WYS,2023-11-01 07:55,14.00,14.00,100.00,0.00,0.00,0.00,30.27,M,10.00,M,M,M,M,M,M,M,M,M,M,M,M,M,M,M,M,14.00,KWYS 010755Z AUTO 00000KT 10SM M10/M10 A3027 RMK AO2,M
WYS,2023-11-01 08:55,14.00,14.00,100.00,0.00,0.00,0.00,30.27,M,10.00,M,M,M,M,M,M,M,M,M,M,M,M,M,M,M,M,14.00,KWYS 010855Z AUTO 00000KT 10SM M10/M10 A3027 RMK AO2,M
WYS,2023-11-01 09:55,15.80,15.80,100.00,0.00,0.00,0.00,30.27,M,10.00,M,M,M,M,M,M,M,M,M,M,M,M,M,M,M,M,15.80,KWYS 010955Z AUTO 00000KT 10SM M09/M09 A3027 RMK AO2,M
WYS,2023-11-01 10:55,14.00,14.00,100.00,0.00,0.00,0.00,30.25,M,10.00,M,M,M,M,M,M,M,M,M,M,M,M,M,M,M,M,14.00,KWYS 011055Z AUTO 00000KT 10SM M10/M10 A3025 RMK AO2,M
WYS,2023-11-01 11:55,14.00,14.00,100.00,0.00,0.00,0.00,30.26,M,10.00,M,M,M,M,M,M,M,M,M,M,M,M,M,M,M,M,14.00,KWYS 011155Z AUTO 00000KT 10SM M10/M10 A3026 RMK AO2,M
WYS,2023-11-01 12:55,10.40,10.40,100.00,0.00,0.00,0.00,30.26,M,10.00,M,M,M,M,M,M,M,M,M,M,M,M,M,M,M,M,10.40,KWYS 011255Z AUTO 00000KT 10SM M12/M12 A3026 RMK AO2,M
WYS,2023-11-01 13:55,10.40,10.40,100.00,0.00,0.00,0.00,30.25,M,10.00,M,M,M,M,M,M,M,M,M,M,M,M,M,M,M,M,10.40,KWYS 011355Z AUTO 00000KT 10SM M12/M12 A3025 RMK AO2,M
WYS,2023-11-01 14:55,10.40,10.40,100.00,0.00,0.00,0.00,30.26,M,10.00,M,M,M,M,M,M,M,M,M,M,M,M,M,M,M,M,10.40,KWYS 011455Z AUTO 00000KT 10SM M12/M12 A3026 RMK AO2,M
WYS,2023-11-01 15:55,17.60,17.60,100.00,0.00,0.00,0.00,30.27,M,10.00,M,M,M,M,M,M,M,M,M,M,M,M,M,M,M,M,17.60,KWYS 011555Z AUTO 00000KT 10SM M08/M08 A3027 RMK AO2,M
WYS,2023-11-01 16:55,21.20,21.20,100.00,0.00,0.00,0.00,30.26,M,3.00,M,M,M,M,M,M,M,M,M,BR,M,M,M,M,M,M,21.20,KWYS 011655Z AUTO 00000KT 3SM BR M06/M06 A3026 RMK AO2,M
WYS,2023-11-01 17:55,26.60,21.20,79.77,0.00,0.00,0.00,30.25,M,10.00,M,M,M,M,M,M,M,M,M,M,M,M,M,M,M,M,26.60,KWYS 011755Z AUTO 00000KT 10SM M03/M06 A3025 RMK AO2,M
WYS,2023-11-01 18:55,33.80,21.20,59.53,0.00,0.00,0.00,30.23,M,10.00,M,M,M,M,M,M,M,M,M,M,M,M,M,M,M,M,33.80,KWYS 011855Z AUTO 00000KT 10SM 01/M06 A3023 RMK AO2,M
WYS,2023-11-01 19:55,39.20,19.40,44.55,210.00,7.00,0.00,30.20,M,10.00,M,M,M,M,M,M,M,M,M,M,M,M,M,M,M,M,33.56,KWYS 011955Z AUTO 21007KT 10SM 04/M07 A3020 RMK AO2,M
WYS,2023-11-01 20:55,41.00,19.40,41.54,210.00,11.00,0.00,30.18,M,10.00,M,M,M,M,M,M,M,M,M,M,M,M,M,M,M,M,33.84,KWYS 012055Z AUTO 21011KT 10SM 05/M07 A3018 RMK AO2,M
WYS,2023-11-01 21:55,41.00,19.40,41.54,240.00,7.00,0.00,30.18,M,10.00,M,M,M,M,M,M,M,M,M,M,M,M,M,M,M,M,35.75,KWYS 012155Z AUTO 24007KT 10SM 05/M07 A3018 RMK AO2,M
WYS,2023-11-01 22:55,41.00,21.20,44.85,230.00,10.00,0.00,30.18,M,10.00,16.00,M,M,M,M,M,M,M,M,M,M,M,M,M,M,M,34.25,KWYS 012255Z AUTO 23010G16KT 10SM 05/M06 A3018 RMK AO2,M
WYS,2023-11-01 23:55,37.40,19.40,47.80,220.00,6.00,0.00,30.19,M,10.00,M,M,M,M,M,M,M,M,M,M,M,M,M,M,M,M,32.03,KWYS 012355Z AUTO 22006KT 10SM 03/M07 A3019 RMK AO2,M
WYS,2023-11-02 00:55,32.00,19.40,59.27,210.00,8.00,0.00,30.19,M,10.00,M,M,M,M,M,M,M,M,M,M,M,M,M,M,M,M,24.11,KWYS 020055Z AUTO 21008KT 10SM M00/M07 A3019 RMK AO2,M
WYS,2023-11-02 01:55,32.00,19.40,59.27,0.00,0.00,0.00,30.19,M,10.00,M,M,M,M,M,M,M,M,M,M,M,M,M,M,M,M,32.00,KWYS 020155Z AUTO 00000KT 10SM 00/M07 A3019 RMK AO2,M
WYS,2023-11-02 02:55,30.20,21.20,68.83,110.00,3.00,0.00,30.20,M,10.00,M,M,M,M,M,M,M,M,M,M,M,M,M,M,M,M,26.63,KWYS 020255Z AUTO 11003KT 10SM M01/M06 A3020 RMK AO2,M
WYS,2023-11-02 03:55,30.20,21.20,68.83,200.00,4.00,0.00,30.19,M,10.00,M,M,M,M,M,M,M,M,M,M,M,M,M,M,M,M,25.32,KWYS 020355Z AUTO 20004KT 10SM M01/M06 A3019 RMK AO2,M
WYS,2023-11-02 04:55,28.40,23.00,79.92,0.00,0.00,0.00,30.19,M,10.00,M,M,M,M,M,M,M,M,M,M,M,M,M,M,M,M,28.40,KWYS 020455Z AUTO 00000KT 10SM M02/M05 A3019 RMK AO2,M
WYS,2023-11-02 05:55,28.40,24.80,86.18,0.00,0.00,0.00,30.19,M,10.00,M,M,M,M,M,M,M,M,M,M,M,M,M,M,M,M,28.40,KWYS 020555Z AUTO 00000KT 10SM M02/M04 A3019 RMK AO2,M
WYS,2023-11-02 06:55,28.40,24.80,86.18,0.00,0.00,0.00,30.18,M,10.00,M,M,M,M,M,M,M,M,M,M,M,M,M,M,M,M,28.40,KWYS 020655Z AUTO 00000KT 10SM M02/M04 A3018 RMK AO2,M
WYS,2023-11-02 07:55,28.40,24.80,86.18,0.00,0.00,0.00,30.17,M,10.00,M,M,M,M,M,M,M,M,M,M,M,M,M,M,M,M,28.40,KWYS 020755Z AUTO 00000KT 10SM M02/M04 A3017 RMK AO2,M
WYS,2023-11-02 08:55,28.40,26.60,92.86,0.00,0.00,0.00,30.17,M,10.00,M,M,M,M,M,M,M,M,M,M,M,M,M,M,M,M,28.40,KWYS 020855Z AUTO 00000KT 10SM M02/M03 A3017 RMK AO2,M
WYS,2023-11-02 09:55,28.40,26.60,92.86,0.00,0.00,0.00,30.17,M,10.00,M,M,M,M,M,M,M,M,M,M,M,M,M,M,M,M,28.40,KWYS 020955Z AUTO 00000KT 10SM M02/M03 A3017 RMK AO2,M
WYS,2023-11-02 10:55,28.40,26.60,92.86,0.00,0.00,0.00,30.15,M,10.00,M,M,M,M,M,M,M,M,M,M,M,M,M,M,M,M,28.40,KWYS 021055Z AUTO 00000KT 10SM M02/M03 A3015 RMK AO2,M
WYS,2023-11-02 11:55,28.40,26.60,92.86,0.00,0.00,0.00,30.15,M,10.00,M,M,M,M,M,M,M,M,M,M,M,M,M,M,M,M,28.40,KWYS 021155Z AUTO 00000KT 10SM M02/M03 A3015 RMK AO2,M
WYS,2023-11-02 12:55,32.00,26.60,80.22,230.00,8.00,0.00,30.15,M,9.00,M,M,M,M,M,M,M,M,M,-UP,M,M,M,M,M,M,24.11,KWYS 021255Z AUTO 23008KT 9SM -UP 00/M03 A3015 RMK AO2,M
WYS,2023-11-02 13:55,30.20,32.00,M,200.00,3.00,0.00,30.15,M,3.00,M,M,M,M,M,M,M,M,M,-SN,M,M,M,M,M,M,M,KWYS 021355Z AUTO 20003KT 3SM -SN M01/M00 A3015 RMK AO2,M
WYS,2023-11-02 14:55,32.00,32.00,100.00,210.00,8.00,0.00,30.16,M,3.00,M,M,M,M,M,M,M,M,M,-SN,M,M,M,M,M,M,24.11,KWYS 021455Z AUTO 21008KT 3SM -SN M00/M00 A3016 RMK AO2,M
WYS,2023-11-02 15:55,30.20,30.20,100.00,220.00,8.00,0.00,30.17,M,0.50,13.00,M,M,M,M,M,M,M,M,-SN,M,M,M,M,M,M,21.90,KWYS 021555Z AUTO 22008G13KT 1/2SM -SN M01/M01 A3017 RMK AO2,M
WYS,2023-11-02 16:55,32.00,32.00,100.00,230.00,7.00,0.00,30.16,M,5.00,M,M,M,M,M,M,M,M,M,-SN,M,M,M,M,M,M,24.78,KWYS 021655Z AUTO 23007KT 5SM -SN 00/00 A3016 RMK AO2,M
WYS,2023-11-02 17:55,33.80,33.80,100.00,240.00,9.00,0.00,30.16,M,5.00,16.00,M,M,M,M,M,M,M,M,BR,M,M,M,M,M,M,25.75,KWYS 021755Z AUTO 24009G16KT 5SM BR 01/01 A3016 RMK AO2,M
WYS,2023-11-02 18:55,35.60,35.60,100.00,230.00,12.00,0.00,30.15,M,10.00,19.00,M,M,M,M,M,M,M,M,M,M,M,M,M,M,M,26.58,KWYS 021855Z AUTO 23012G19KT 10SM 02/02 A3015 RMK AO2,M
WYS,2023-11-02 19:55,37.40,33.80,86.69,220.00,15.00,0.00,30.13,M,10.00,24.00,M,M,M,M,M,M,M,M,M,M,M,M,M,M,M,27.78,KWYS 021955Z AUTO 22015G24KT 10SM 03/01 A3013 RMK AO2,M
WYS,2023-11-02 20:55,35.60,33.80,93.08,230.00,10.00,0.00,30.14,M,10.00,M,M,M,M,M,M,M,M,M,M,M,M,M,M,M,M,27.48,KWYS 022055Z AUTO 23010KT 10SM 02/01 A3014 RMK AO2,M
WYS,2023-11-02 21:55,35.60,33.80,93.08,M,6.00,0.00,30.13,M,10.00,M,M,M,M,M,M,M,M,M,M,M,M,M,M,M,M,29.87,KWYS 022155Z AUTO VRB06KT 10SM 02/01 A3013 RMK AO2,M
WYS,2023-11-02 22:55,35.60,35.60,100.00,190.00,8.00,0.00,30.14,M,8.00,13.00,M,M,M,M,M,M,M,M,M,M,M,M,M,M,M,28.55,KWYS 022255Z AUTO 19008G13KT 8SM 02/02 A3014 RMK AO2,M
WYS,2023-11-02 23:55,33.80,33.80,100.00,220.00,6.00,0.00,30.14,M,2.00,11.00,M,M,M,M,M,M,M,M,-SN,M,M,M,M,M,M,27.70,KWYS 022355Z AUTO 22006G11KT 2SM -SN 01/01 A3014 RMK AO2,M
WYS,2023-11-03 00:55,33.80,33.80,100.00,M,4.00,0.01,30.14,M,4.00,12.00,M,M,M,M,M,M,M,M,-SN,M,M,M,M,M,M,29.52,KWYS 030055Z AUTO VRB04G12KT 4SM -SN 01/01 A3014 RMK AO2 P0001,M
WYS,2023-11-03 01:55,33.80,33.80,100.00,230.00,8.00,0.00,30.14,M,5.00,M,M,M,M,M,M,M,M,M,-SN,M,M,M,M,M,M,26.33,KWYS 030155Z AUTO 23008KT 5SM -SN 01/01 A3014 RMK AO2,M
WYS,2023-11-03 02:55,33.80,33.80,100.00,240.00,5.00,0.00,30.15,M,5.00,M,M,M,M,M,M,M,M,M,BR,M,M,M,M,M,M,28.53,KWYS 030255Z AUTO 24005KT 5SM BR 01/01 A3015 RMK AO2,M
WYS,2023-11-03 03:55,33.80,33.80,100.00,230.00,11.00,0.00,30.14,M,10.00,M,M,M,M,M,M,M,M,M,M,M,M,M,M,M,M,24.74,KWYS 030355Z AUTO 23011KT 10SM 01/01 A3014 RMK AO2,M
WYS,2023-11-03 04:55,33.80,33.80,100.00,250.00,6.00,0.00,30.14,M,9.00,M,M,M,M,M,M,M,M,M,M,M,M,M,M,M,M,27.70,KWYS 030455Z AUTO 25006KT 9SM 01/01 A3014 RMK AO2,M
WYS,2023-11-03 05:55,33.80,33.80,100.00,230.00,7.00,0.00,30.15,M,10.00,M,M,M,M,M,M,M,M,M,M,M,M,M,M,M,M,26.97,KWYS 030555Z AUTO 23007KT 10SM 01/01 A3015 RMK AO2,M
WYS,2023-11-03 06:55,35.60,35.60,100.00,220.00,7.00,0.00,30.16,M,10.00,17.00,M,M,M,M,M,M,M,M,M,M,M,M,M,M,M,29.17,KWYS 030655Z AUTO 22007G17KT 10SM 02/02 A3016 RMK AO2,M
WYS,2023-11-03 07:55,35.60,35.60,100.00,220.00,15.00,0.00,30.15,M,10.00,M,M,M,M,M,M,M,M,M,M,M,M,M,M,M,M,25.45,KWYS 030755Z AUTO 22015KT 10SM 02/02 A3015 RMK AO2,M
WYS,2023-11-03 08:55,35.60,35.60,100.00,230.00,8.00,0.00,30.15,M,10.00,16.00,M,M,M,M,M,M,M,M,M,M,M,M,M,M,M,28.55,KWYS 030855Z AUTO 23008G16KT 10SM 02/02 A3015 RMK AO2,M
WYS,2023-11-03 09:55,33.80,33.80,100.00,220.00,9.00,0.00,30.16,M,10.00,M,M,M,M,M,M,M,M,M,M,M,M,M,M,M,M,25.75,KWYS 030955Z AUTO 22009KT 10SM 01/01 A3016 RMK AO2,M
WYS,2023-11-03 10:55,35.60,35.60,100.00,210.00,13.00,0.00,30.15,M,10.00,M,M,M,M,M,M,M,M,M,M,M,M,M,M,M,M,26.18,KWYS 031055Z AUTO 21013KT 10SM 02/02 A3015 RMK AO2,M
WYS,2023-11-03 11:55,33.80,33.80,100.00,0.00,0.00,0.00,30.16,M,9.00,M,M,M,M,M,M,M,M,M,M,M,M,M,M,M,M,33.80,KWYS 031155Z AUTO 00000KT 9SM 01/01 A3016 RMK AO2,M
WYS,2023-11-03 12:55,33.80,33.80,100.00,0.00,0.00,0.00,30.17,M,5.00,M,M,M,M,M,M,M,M,M,-RA,M,M,M,M,M,M,33.80,KWYS 031255Z AUTO 00000KT 5SM -RA 01/01 A3017 RMK AO2,M
WYS,2023-11-03 13:55,33.80,33.80,100.00,0.00,0.00,0.00,30.18,M,6.00,M,M,M,M,M,M,M,M,M,BR,M,M,M,M,M,M,33.80,KWYS 031355Z AUTO 00000KT 6SM BR 01/01 A3018 RMK AO2,M
WYS,2023-11-03 14:55,33.80,33.80,100.00,180.00,4.00,0.00,30.19,M,5.00,M,M,M,M,M,M,M,M,M,BR,M,M,M,M,M,M,29.52,KWYS 031455Z AUTO 18004KT 5SM BR 01/01 A3019 RMK AO2,M
WYS,2023-11-03 15:55,37.40,37.40,100.00,200.00,13.00,0.00,30.19,M,10.00,M,M,M,M,M,M,M,M,M,M,M,M,M,M,M,M,28.49,KWYS 031555Z AUTO 20013KT 10SM 03/03 A3019 RMK AO2,M
WYS,2023-11-03 16:50,M,M,M,M,M,0.00,M,M,M,M,M,M,M,M,M,M,M,M,M,M,M,M,M,M,M,M,KWYS 031650Z AUTO RMK AO2 PNO PWINO,M
WYS,2023-11-03 17:55,37.40,37.40,100.00,220.00,13.00,0.00,30.22,M,10.00,M,M,M,M,M,M,M,M,M,M,M,M,M,M,M,M,28.49,KWYS 031755Z AUTO 22013KT 10SM 03/03 A3022 RMK AO2,M
WYS,2024-04-29 14:40,37.40,30.20,74.98,0.00,0.00,0.00,29.89,M,10.00,M,M,M,M,M,M,M,M,M,M,M,M,M,M,M,M,37.40,KWYS 291440Z AUTO 00000KT 10SM 03/M01 A2989 RMK AO2,M
WYS,2024-04-29 15:40,41.00,28.40,60.54,210.00,14.00,0.00,29.87,M,10.00,M,M,M,M,M,M,M,M,M,M,M,M,M,M,M,M,32.76,KWYS 291540Z AUTO 21014KT 10SM 05/M02 A2987 RMK AO2,M
WYS,2024-04-29 16:40,41.00,24.80,52.17,210.00,13.00,0.00,29.86,M,10.00,M,M,M,M,M,M,M,M,M,M,M,M,M,M,M,M,33.10,KWYS 291640Z AUTO 21013KT 10SM 05/M04 A2986 RMK AO2,M
WYS,2024-04-29 17:40,39.20,32.00,75.16,200.00,14.00,0.00,29.85,M,10.00,24.00,M,M,M,M,M,M,M,M,M,M,M,M,M,M,M,30.44,KWYS 291740Z AUTO 20014G24KT 10SM 04/M00 A2985 RMK AO2,M
WYS,2024-04-29 18:40,44.60,33.80,65.61,200.00,18.00,0.00,29.81,M,10.00,26.00,M,M,M,M,M,M,M,M,M,M,M,M,M,M,M,36.34,KWYS 291840Z AUTO 20018G26KT 10SM 07/01 A2981 RMK AO2,M
WYS,2024-04-29 19:35,46.40,32.00,57.00,200.00,18.00,0.00,29.78,M,10.00,31.00,M,M,M,M,M,M,M,M,M,M,M,M,M,M,M,38.70,KWYS 291935Z AUTO 20018G31KT 10SM 08/00 A2978 RMK AO2,M
WYS,2024-04-29 20:40,39.20,35.60,86.79,200.00,24.00,0.00,29.77,M,3.00,39.00,M,M,M,M,M,M,M,M,-RA,M,M,M,M,M,M,27.77,KWYS 292040Z AUTO 20024G39KT 3SM -RA 04/02 A2977 RMK AO2,M
WYS,2024-04-29 21:40,42.80,41.00,93.30,220.00,20.00,0.00,29.74,M,10.00,M,M,M,M,M,M,M,M,M,M,M,M,M,M,M,M,33.48,KWYS 292140Z AUTO 22020KT 10SM 06/05 A2974 RMK AO2,M
WYS,2024-04-29 23:40,50.00,21.20,31.87,220.00,21.00,0.00,29.70,M,10.00,34.00,M,M,M,M,M,M,M,M,M,M,M,M,M,M,M,50.00,KWYS 292340Z AUTO 22021G34KT 10SM 10/M06 A2970 RMK AO2,M
WYS,2024-04-30 00:40,48.20,17.60,29.23,220.00,16.00,0.00,29.70,M,10.00,35.00,M,M,M,M,M,M,M,M,M,M,M,M,M,M,M,41.53,KWYS 300040Z AUTO 22016G35KT 10SM 09/M08 A2970 RMK AO2,M
WYS,2024-04-30 01:40,42.80,23.00,45.14,210.00,19.00,0.00,29.70,M,10.00,29.00,M,M,M,M,M,M,M,M,M,M,M,M,M,M,M,33.72,KWYS 300140Z AUTO 21019G29KT 10SM 06/M05 A2970 RMK AO2,M
WYS,2024-04-30 02:40,41.00,28.40,60.54,210.00,23.00,0.00,29.71,M,10.00,30.00,M,M,M,M,M,M,M,M,M,M,M,M,M,M,M,30.41,KWYS 300240Z AUTO 21023G30KT 10SM 05/M02 A2971 RMK AO2,M
WYS,2024-04-30 03:40,35.60,33.80,93.08,M,5.00,0.00,29.77,M,3.00,17.00,M,M,M,M,M,M,M,M,+UP,M,M,M,M,M,M,30.67,KWYS 300340Z AUTO VRB05G17KT 3SM +UP 02/01 A2977 RMK AO2,M
WYS,2024-04-30 04:40,32.00,32.00,100.00,0.00,0.00,0.00,29.80,M,8.00,M,M,M,M,M,M,M,M,M,-SN,M,M,M,M,M,M,32.00,KWYS 300440Z AUTO 00000KT 8SM -SN 00/00 A2980 RMK AO2,M
WYS,2024-04-30 05:40,30.20,28.40,92.92,0.00,0.00,0.00,29.82,M,10.00,M,M,M,M,M,M,M,M,M,M,M,M,M,M,M,M,30.20,KWYS 300540Z AUTO 00000KT 10SM M01/M02 A2982 RMK AO2,M
WYS,2024-04-30 06:40,30.20,24.80,80.07,M,4.00,0.00,29.83,M,10.00,M,M,M,M,M,M,M,M,M,M,M,M,M,M,M,M,25.32,KWYS 300640Z AUTO VRB04KT 10SM M01/M04 A2983 RMK AO2,M
WYS,2024-04-30 07:40,26.60,26.60,100.00,0.00,0.00,0.00,29.84,M,10.00,M,M,M,M,M,M,M,M,M,M,M,M,M,M,M,M,26.60,KWYS 300740Z AUTO 00000KT 10SM M03/M03 A2984 RMK AO2,M
WYS,2024-04-30 08:40,21.20,21.20,100.00,220.00,6.00,0.00,29.85,M,10.00,M,M,M,M,M,M,M,M,M,M,M,M,M,M,M,M,12.52,KWYS 300840Z AUTO 22006KT 10SM M06/M06 A2985 RMK AO2,M
WYS,2024-04-30 09:35,24.80,24.80,100.00,M,4.00,0.00,29.87,M,10.00,M,M,M,M,M,M,M,M,M,M,M,M,M,M,M,M,19.01,KWYS 300935Z AUTO VRB04KT 10SM M04/M04 A2987 RMK AO2,M
WYS,2024-04-30 10:40,23.00,23.00,100.00,240.00,7.00,0.00,29.89,M,10.00,M,M,M,M,M,M,M,M,M,M,M,M,M,M,M,M,13.81,KWYS 301040Z AUTO 24007KT 10SM M05/M05 A2989 RMK AO2,M
WYS,2024-04-30 11:40,23.00,21.20,92.69,230.00,5.00,0.00,29.90,M,10.00,M,M,M,M,M,M,M,M,M,M,M,M,M,M,M,M,15.71,KWYS 301140Z AUTO 23005KT 10SM M05/M06 A2990 RMK AO2,M
WYS,2024-04-30 12:40,21.20,19.40,92.63,230.00,5.00,0.00,29.92,M,10.00,M,M,M,M,M,M,M,M,M,M,M,M,M,M,M,M,13.57,KWYS 301240Z AUTO 23005KT 10SM M06/M07 A2992 RMK AO2,M
WYS,2024-04-30 13:40,24.80,17.60,73.70,210.00,7.00,0.00,29.94,M,10.00,M,M,M,M,M,M,M,M,M,M,M,M,M,M,M,M,16.00,KWYS 301340Z AUTO 21007KT 10SM M04/M08 A2994 RMK AO2,M
WYS,2024-04-30 14:40,28.40,15.80,58.75,220.00,9.00,0.00,29.94,M,10.00,M,M,M,M,M,M,M,M,M,M,M,M,M,M,M,M,19.04,KWYS 301440Z AUTO 22009KT 10SM M02/M09 A2994 RMK AO2,M
WYS,2024-04-30 15:40,28.40,14.00,54.31,220.00,8.00,0.00,29.95,M,10.00,M,M,M,M,M,M,M,M,M,M,M,M,M,M,M,M,19.68,KWYS 301540Z AUTO 22008KT 10SM M02/M10 A2995 RMK AO2,M
WYS,2024-04-30 16:35,30.20,15.80,54.59,230.00,7.00,0.00,29.93,M,10.00,M,M,M,M,M,M,M,M,M,M,M,M,M,M,M,M,22.59,KWYS 301635Z AUTO 23007KT 10SM M01/M09 A2993 RMK AO2,M
WYS,2024-04-30 17:40,32.00,17.60,54.87,240.00,13.00,0.00,29.92,M,10.00,21.00,M,M,M,M,M,M,M,M,M,M,M,M,M,M,M,21.57,KWYS 301740Z AUTO 24013G21KT 10SM 00/M08 A2992 RMK AO2,M
WYS,2024-04-30 18:35,32.00,21.20,63.99,220.00,18.00,0.00,29.91,M,6.00,31.00,M,M,M,M,M,M,M,M,-UP,M,M,M,M,M,M,19.75,KWYS 301835Z AUTO 22018G31KT 6SM -UP 00/M06 A2991 RMK AO2,M
WYS,2024-04-30 19:40,33.80,21.20,59.53,210.00,16.00,0.00,29.91,M,5.00,28.00,M,M,M,M,M,M,M,M,-UP,M,M,M,M,M,M,22.76,KWYS 301940Z AUTO 21016G28KT 5SM -UP 01/M06 A2991 RMK AO2,M
WYS,2024-04-30 20:35,37.40,17.60,44.25,210.00,19.00,0.00,29.89,M,10.00,27.00,M,M,M,M,M,M,M,M,M,M,M,M,M,M,M,26.58,KWYS 302035Z AUTO 21019G27KT 10SM 03/M08 A2989 RMK AO2,M
WYS,2024-04-30 21:40,37.40,15.80,40.93,230.00,21.00,0.00,29.88,M,10.00,30.00,M,M,M,M,M,M,M,M,M,M,M,M,M,M,M,26.06,KWYS 302140Z AUTO 23021G30KT 10SM 03/M09 A2988 RMK AO2,M
WYS,2024-04-30 22:40,37.40,14.00,37.84,220.00,16.00,0.00,29.87,M,10.00,30.00,M,M,M,M,M,M,M,M,M,M,M,M,M,M,M,27.46,KWYS 302240Z AUTO 22016G30KT 180V240 10SM 03/M10 A2987 RMK AO2,M
WYS,2024-04-30 23:40,39.20,10.40,30.07,210.00,16.00,0.00,29.85,M,10.00,22.00,M,M,M,M,M,M,M,M,M,M,M,M,M,M,M,29.80,KWYS 302340Z AUTO 21016G22KT 10SM 04/M12 A2985 RMK AO2,M
WYS,2024-05-01 00:40,39.20,10.40,30.07,220.00,18.00,0.00,29.83,M,10.00,27.00,M,M,M,M,M,M,M,M,M,M,M,M,M,M,M,29.23,KWYS 010040Z AUTO 22018G27KT 10SM 04/M12 A2983 RMK AO2,M
WYS,2024-05-01 01:40,39.20,8.60,27.74,230.00,15.00,0.00,29.81,M,10.00,22.00,M,M,M,M,M,M,M,M,M,M,M,M,M,M,M,30.11,KWYS 010140Z AUTO 23015G22KT 10SM 04/M13 A2981 RMK AO2,M
WYS,2024-05-01 02:40,37.40,10.40,32.27,230.00,9.00,0.00,29.82,M,10.00,M,M,M,M,M,M,M,M,M,M,M,M,M,M,M,M,30.23,KWYS 010240Z AUTO 23009KT 10SM 03/M12 A2982 RMK AO2,M
WYS,2024-05-01 03:40,35.60,14.00,40.63,230.00,7.00,0.00,29.84,M,10.00,M,M,M,M,M,M,M,M,M,M,M,M,M,M,M,M,29.17,KWYS 010340Z AUTO 23007KT 10SM 02/M10 A2984 RMK AO2,M
WYS,2024-05-01 04:40,33.80,19.40,55.14,M,5.00,0.00,29.86,M,10.00,M,M,M,M,M,M,M,M,M,M,M,M,M,M,M,M,28.53,KWYS 010440Z AUTO VRB05KT 10SM 01/M07 A2986 RMK AO2,M
WYS,2024-05-01 05:40,32.00,21.20,63.99,0.00,0.00,0.00,29.87,M,10.00,M,M,M,M,M,M,M,M,M,M,M,M,M,M,M,M,32.00,KWYS 010540Z AUTO 00000KT 10SM M00/M06 A2987 RMK AO2,M
WYS,2024-05-01 06:40,30.20,24.80,80.07,240.00,5.00,0.00,29.87,M,10.00,M,M,M,M,M,M,M,M,M,M,M,M,M,M,M,M,24.26,KWYS 010640Z AUTO 24005KT 10SM M01/M04 A2987 RMK AO2,M
WYS,2024-05-01 07:40,28.40,28.40,100.00,230.00,3.00,0.00,29.87,M,3.00,M,M,M,M,M,M,M,M,M,-SN,M,M,M,M,M,M,24.57,KWYS 010740Z AUTO 23003KT 3SM -SN M02/M02 A2987 RMK AO2,M
WYS,2024-05-01 08:40,28.40,28.40,100.00,250.00,3.00,0.00,29.86,M,10.00,M,M,M,M,M,M,M,M,M,M,M,M,M,M,M,M,24.57,KWYS 010840Z AUTO 25003KT 10SM M02/M02 A2986 RMK AO2,M
WYS,2024-05-01 09:40,28.40,26.60,92.86,0.00,0.00,0.00,29.87,M,10.00,M,M,M,M,M,M,M,M,M,M,M,M,M,M,M,M,28.40,KWYS 010940Z AUTO 00000KT 10SM M02/M03 A2987 RMK AO2,M
WYS,2024-05-01 10:40,26.60,26.60,100.00,0.00,0.00,0.00,29.87,M,10.00,M,M,M,M,M,M,M,M,M,M,M,M,M,M,M,M,26.60,KWYS 011040Z AUTO 00000KT 10SM M03/M03 A2987 RMK AO2,M
WYS,2024-05-01 11:40,24.80,23.00,92.74,0.00,0.00,0.00,29.87,M,10.00,M,M,M,M,M,M,M,M,M,M,M,M,M,M,M,M,24.80,KWYS 011140Z AUTO 00000KT 10SM M04/M05 A2987 RMK AO2,M
WYS,2024-05-01 12:40,24.80,21.20,85.96,0.00,0.00,0.00,29.88,M,10.00,M,M,M,M,M,M,M,M,M,M,M,M,M,M,M,M,24.80,KWYS 011240Z AUTO 00000KT 10SM M04/M06 A2988 RMK AO2,M
WYS,2024-05-01 13:40,24.80,23.00,92.74,0.00,0.00,0.00,29.89,M,10.00,M,M,M,M,M,M,M,M,M,M,M,M,M,M,M,M,24.80,KWYS 011340Z AUTO 00000KT 10SM M04/M05 A2989 RMK AO2,M
WYS,2024-05-01 14:40,28.40,17.60,63.51,0.00,0.00,0.00,29.89,M,10.00,M,M,M,M,M,M,M,M,M,M,M,M,M,M,M,M,28.40,KWYS 011440Z AUTO 00000KT 10SM M02/M08 A2989 RMK AO2,M
WYS,2024-05-01 15:40,32.00,12.20,43.34,260.00,6.00,0.00,29.88,M,10.00,M,M,M,M,M,M,M,M,M,M,M,M,M,M,M,M,25.53,KWYS 011540Z AUTO 26006KT 10SM M00/M11 A2988 RMK AO2,M
WYS,2024-05-01 16:40,35.60,10.40,34.65,270.00,9.00,0.00,29.87,M,10.00,M,M,M,M,M,M,M,M,M,M,M,M,M,M,M,M,27.99,KWYS 011640Z AUTO 27009KT 210V300 10SM 02/M12 A2987 RMK AO2,M
WYS,2024-05-01 17:35,35.60,6.80,29.47,270.00,7.00,0.00,29.86,M,10.00,13.00,M,M,M,M,M,M,M,M,M,M,M,M,M,M,M,29.17,KWYS 011735Z AUTO 27007G13KT 210V340 10SM 02/M14 A2986 RMK AO2,M
WYS,2024-05-01 18:40,30.20,12.20,46.62,330.00,8.00,0.00,29.88,M,7.00,16.00,M,M,M,M,M,M,M,M,-SN,M,M,M,M,M,M,21.90,KWYS 011840Z AUTO 33008G16KT 290V010 7SM -SN M01/M11 A2988 RMK AO2,M
WYS,2024-05-01 19:35,33.80,10.40,37.22,M,7.00,0.00,29.88,M,10.00,13.00,M,M,M,M,M,M,M,M,M,M,M,M,M,M,M,26.97,KWYS 011935Z AUTO VRB07G13KT 220V290 10SM 01/M12 A2988 RMK AO2,M
WYS,2024-05-01 20:40,33.80,8.60,34.34,M,5.00,0.00,29.88,M,10.00,10.00,M,M,M,M,M,M,M,M,M,M,M,M,M,M,M,28.53,KWYS 012040Z AUTO VRB05G10KT 10SM 01/M13 A2988 RMK AO2,M
WYS,2024-05-01 21:40,33.80,8.60,34.34,360.00,7.00,0.00,29.87,M,10.00,M,M,M,M,M,M,M,M,M,-UP,M,M,M,M,M,M,26.97,KWYS 012140Z AUTO 36007KT 10SM -UP 01/M13 A2987 RMK AO2,M
WYS,2024-05-01 22:40,35.60,6.80,29.47,300.00,7.00,0.00,29.88,M,10.00,15.00,M,M,M,M,M,M,M,M,M,M,M,M,M,M,M,29.17,KWYS 012240Z AUTO 30007G15KT 240V340 10SM 02/M14 A2988 RMK AO2,M
WYS,2024-05-01 23:35,33.80,5.00,29.16,260.00,7.00,0.00,29.90,M,10.00,15.00,M,M,M,M,M,M,M,M,M,M,M,M,M,M,M,26.97,KWYS 012335Z AUTO 26007G15KT 220V290 10SM 01/M15 A2990 RMK AO2,M
WYS,2024-05-02 00:40,32.00,6.80,34.03,M,4.00,0.00,29.92,M,10.00,10.00,M,M,M,M,M,M,M,M,M,M,M,M,M,M,M,27.42,KWYS 020040Z AUTO VRB04G10KT 10SM 00/M14 A2992 RMK AO2,M
WYS,2024-05-02 01:40,32.00,10.40,40.01,240.00,5.00,0.00,29.93,M,10.00,M,M,M,M,M,M,M,M,M,M,M,M,M,M,M,M,26.40,KWYS 020140Z AUTO 24005KT 10SM M00/M12 A2993 RMK AO2,M
WYS,2024-05-02 02:40,28.40,12.20,50.17,0.00,0.00,0.00,29.94,M,10.00,M,M,M,M,M,M,M,M,M,M,M,M,M,M,M,M,28.40,KWYS 020240Z AUTO 00000KT 10SM M02/M11 A2994 RMK AO2,M
WYS,2024-05-02 03:40,28.40,23.00,79.92,230.00,12.00,0.00,29.96,M,10.00,18.00,M,M,M,M,M,M,M,M,M,M,M,M,M,M,M,17.42,KWYS 020340Z AUTO 23012G18KT 10SM M02/M05 A2996 RMK AO2,M
WYS,2024-05-02 04:40,26.60,26.60,100.00,210.00,11.00,0.00,29.98,M,0.75,M,M,M,M,M,M,M,M,M,-SN,M,M,M,M,M,M,15.64,KWYS 020440Z AUTO 21011KT 3/4SM -SN M03/M03 A2998 RMK AO2,M
WYS,2024-05-02 05:40,24.80,26.60,M,220.00,9.00,0.00,29.98,M,10.00,15.00,M,M,M,M,M,M,M,M,M,M,M,M,M,M,M,M,KWYS 020540Z AUTO 22009G15KT 10SM M04/M03 A2998 RMK AO2,M
WYS,2024-05-02 06:40,24.80,24.80,100.00,220.00,12.00,0.00,29.98,M,8.00,M,M,M,M,M,M,M,M,M,M,M,M,M,M,M,M,12.84,KWYS 020640Z AUTO 22012KT 8SM M04/M04 A2998 RMK AO2,M
WYS,2024-05-02 07:40,24.80,24.80,100.00,220.00,8.00,0.00,29.98,M,9.00,M,M,M,M,M,M,M,M,M,M,M,M,M,M,M,M,15.24,KWYS 020740Z AUTO 22008KT 9SM M04/M04 A2998 RMK AO2,M
WYS,2024-05-02 08:40,24.80,24.80,100.00,220.00,8.00,0.00,29.98,M,10.00,13.00,M,M,M,M,M,M,M,M,M,M,M,M,M,M,M,15.24,KWYS 020840Z AUTO 22008G13KT 10SM M04/M04 A2998 RMK AO2,M
WYS,2024-05-02 09:40,24.80,24.80,100.00,230.00,10.00,0.00,29.97,M,10.00,M,M,M,M,M,M,M,M,M,M,M,M,M,M,M,M,13.94,KWYS 020940Z AUTO 23010KT 10SM M04/M04 A2997 RMK AO2,M
WYS,2024-05-02 10:40,24.80,24.80,100.00,220.00,12.00,0.00,29.97,M,10.00,M,M,M,M,M,M,M,M,M,M,M,M,M,M,M,M,12.84,KWYS 021040Z AUTO 22012KT 10SM M04/M04 A2997 RMK AO2,M
WYS,2024-05-02 11:40,23.00,23.00,100.00,220.00,8.00,0.00,29.97,M,10.00,M,M,M,M,M,M,M,M,M,M,M,M,M,M,M,M,13.03,KWYS 021140Z AUTO 22008KT 10SM M05/M05 A2997 RMK AO2,M
WYS,2024-05-02 12:40,23.00,23.00,100.00,220.00,7.00,0.00,29.97,M,10.00,M,M,M,M,M,M,M,M,M,M,M,M,M,M,M,M,13.81,KWYS 021240Z AUTO 22007KT 10SM M05/M05 A2997 RMK AO2,M
WYS,2024-05-02 13:40,26.60,23.00,86.07,200.00,5.00,0.00,29.98,M,10.00,M,M,M,M,M,M,M,M,M,M,M,M,M,M,M,M,19.98,KWYS 021340Z AUTO 20005KT 10SM M03/M05 A2998 RMK AO2,M
WYS,2024-05-02 14:40,28.40,21.20,74.08,230.00,12.00,0.00,29.98,M,10.00,18.00,M,M,M,M,M,M,M,M,M,M,M,M,M,M,M,17.42,KWYS 021440Z AUTO 23012G18KT 10SM M02/M06 A2998 RMK AO2,M
WYS,2024-05-02 15:40,30.20,21.20,68.83,220.00,11.00,0.00,29.97,M,10.00,17.00,M,M,M,M,M,M,M,M,M,M,M,M,M,M,M,20.19,KWYS 021540Z AUTO 22011G17KT 10SM M01/M06 A2997 RMK AO2,M
WYS,2024-05-02 16:40,32.00,21.20,63.99,210.00,12.00,0.00,29.96,M,10.00,20.00,M,M,M,M,M,M,M,M,M,M,M,M,M,M,M,22.00,KWYS 021640Z AUTO 21012G20KT 10SM M00/M06 A2996 RMK AO2,M
WYS,2024-05-02 17:40,35.60,19.40,51.33,230.00,15.00,0.00,29.95,M,10.00,21.00,M,M,M,M,M,M,M,M,M,M,M,M,M,M,M,25.45,KWYS 021740Z AUTO 23015G21KT 10SM 02/M07 A2995 RMK AO2,M
WYS,2024-05-02 18:40,37.40,14.00,37.84,270.00,9.00,0.00,29.94,M,10.00,19.00,M,M,M,M,M,M,M,M,M,M,M,M,M,M,M,30.23,KWYS 021840Z AUTO 27009G19KT 240V310 10SM 03/M10 A2994 RMK AO2,M
WYS,2024-05-02 19:40,39.20,12.20,32.58,210.00,10.00,0.00,29.92,M,10.00,27.00,M,M,M,M,M,M,M,M,M,M,M,M,M,M,M,32.00,KWYS 021940Z AUTO 21010G27KT 10SM 04/M11 A2992 RMK AO2,M
WYS,2024-05-02 20:40,41.00,10.40,28.04,220.00,12.00,0.00,29.91,M,10.00,20.00,M,M,M,M,M,M,M,M,M,M,M,M,M,M,M,33.46,KWYS 022040Z AUTO 22012G20KT 10SM 05/M12 A2991 RMK AO2,M
WYS,2024-05-02 21:40,41.00,10.40,28.04,220.00,16.00,0.00,29.90,M,10.00,22.00,M,M,M,M,M,M,M,M,M,M,M,M,M,M,M,32.15,KWYS 022140Z AUTO 22016G22KT 10SM 05/M12 A2990 RMK AO2,M
WYS,2024-05-02 22:40,42.80,12.20,28.34,210.00,17.00,0.00,29.89,M,10.00,25.00,M,M,M,M,M,M,M,M,M,M,M,M,M,M,M,34.22,KWYS 022240Z AUTO 21017G25KT 10SM 06/M11 A2989 RMK AO2,M
WYS,2024-05-02 23:40,39.20,10.40,30.07,200.00,11.00,0.00,29.89,M,10.00,18.00,M,M,M,M,M,M,M,M,M,M,M,M,M,M,M,31.57,KWYS 022340Z AUTO 20011G18KT 10SM 04/M12 A2989 RMK AO2,M
WYS,2024-05-03 00:40,41.00,12.20,30.38,210.00,11.00,0.00,29.89,M,10.00,20.00,M,M,M,M,M,M,M,M,M,M,M,M,M,M,M,33.84,KWYS 030040Z AUTO 21011G20KT 10SM 05/M11 A2989 RMK AO2,M
WYS,2024-05-03 01:40,39.20,10.40,30.07,230.00,9.00,0.00,29.88,M,10.00,M,M,M,M,M,M,M,M,M,M,M,M,M,M,M,M,32.47,KWYS 030140Z AUTO 23009KT 10SM 04/M12 A2988 RMK AO2,M
WYS,2024-05-03 02:40,33.80,14.00,43.65,230.00,7.00,0.00,29.89,M,10.00,M,M,M,M,M,M,M,M,M,M,M,M,M,M,M,M,26.97,KWYS 030240Z AUTO 23007KT 10SM 01/M10 A2989 RMK AO2,M
WYS,2024-05-03 03:40,32.00,17.60,54.87,220.00,4.00,0.00,29.90,M,10.00,M,M,M,M,M,M,M,M,M,M,M,M,M,M,M,M,27.42,KWYS 030340Z AUTO 22004KT 10SM 00/M08 A2990 RMK AO2,M
WYS,2024-05-03 04:40,28.40,19.40,68.61,210.00,5.00,0.00,29.90,M,10.00,M,M,M,M,M,M,M,M,M,M,M,M,M,M,M,M,22.12,KWYS 030440Z AUTO 21005KT 10SM M02/M07 A2990 RMK AO2,M
WYS,2024-05-03 05:40,28.40,21.20,74.08,200.00,3.00,0.00,29.90,M,10.00,M,M,M,M,M,M,M,M,M,M,M,M,M,M,M,M,24.57,KWYS 030540Z AUTO 20003KT 10SM M02/M06 A2990 RMK AO2,M
WYS,2024-05-03 06:40,26.60,23.00,86.07,0.00,0.00,0.00,29.90,M,10.00,M,M,M,M,M,M,M,M,M,M,M,M,M,M,M,M,26.60,KWYS 030640Z AUTO 00000KT 10SM M03/M05 A2990 RMK AO2,M
WYS,2024-05-03 07:40,26.60,23.00,86.07,0.00,0.00,0.00,29.90,M,10.00,M,M,M,M,M,M,M,M,M,M,M,M,M,M,M,M,26.60,KWYS 030740Z AUTO 00000KT 10SM M03/M05 A2990 RMK AO2,M
WYS,2024-05-03 08:40,24.80,23.00,92.74,0.00,0.00,0.00,29.90,M,10.00,M,M,M,M,M,M,M,M,M,M,M,M,M,M,M,M,24.80,KWYS 030840Z AUTO 00000KT 10SM M04/M05 A2990 RMK AO2,M
WYS,2024-05-03 09:40,26.60,23.00,86.07,30.00,9.00,0.00,29.90,M,10.00,M,M,M,M,M,M,M,M,M,M,M,M,M,M,M,M,16.80,KWYS 030940Z AUTO 03009KT 10SM M03/M05 A2990 RMK AO2,M
WYS,2024-05-03 10:40,24.80,23.00,92.74,40.00,6.00,0.00,29.91,M,10.00,M,M,M,M,M,M,M,M,M,M,M,M,M,M,M,M,16.86,KWYS 031040Z AUTO 04006KT 10SM M04/M05 A2991 RMK AO2,M
WYS,2024-05-03 11:40,24.80,21.20,85.96,40.00,7.00,0.00,29.92,M,10.00,M,M,M,M,M,M,M,M,M,M,M,M,M,M,M,M,16.00,KWYS 031140Z AUTO 04007KT 10SM M04/M06 A2992 RMK AO2,M
WYS,2024-05-03 12:40,26.60,21.20,79.77,0.00,0.00,0.00,29.93,M,10.00,M,M,M,M,M,M,M,M,M,M,M,M,M,M,M,M,26.60,KWYS 031240Z AUTO 00000KT 10SM M03/M06 A2993 RMK AO2,M
WYS,2024-05-03 13:40,30.20,19.40,63.75,30.00,11.00,0.00,29.95,M,10.00,M,M,M,M,M,M,M,M,M,M,M,M,M,M,M,M,20.19,KWYS 031340Z AUTO 03011KT 10SM M01/M07 A2995 RMK AO2,M
WYS,2024-05-03 14:40,30.20,15.80,54.59,20.00,11.00,0.00,29.97,M,10.00,18.00,M,M,M,M,M,M,M,M,M,M,M,M,M,M,M,20.19,KWYS 031440Z AUTO 02011G18KT 10SM M01/M09 A2997 RMK AO2,M
WYS,2024-05-03 15:40,33.80,14.00,43.65,30.00,8.00,0.00,29.98,M,10.00,15.00,M,M,M,M,M,M,M,M,M,M,M,M,M,M,M,26.33,KWYS 031540Z AUTO 03008G15KT 10SM 01/M10 A2998 RMK AO2,M
WYS,2024-05-03 16:40,33.80,12.20,40.32,0.00,0.00,0.00,30.00,M,10.00,13.00,M,M,M,M,M,M,M,M,M,M,M,M,M,M,M,33.80,KWYS 031640Z AUTO 00000G13KT 10SM 01/M11 A3000 RMK AO2,M
WYS,2024-05-03 17:40,33.80,15.80,47.22,30.00,12.00,0.00,30.02,M,10.00,19.00,M,M,M,M,M,M,M,M,M,M,M,M,M,M,M,24.29,KWYS 031740Z AUTO 03012G19KT 10SM 01/M09 A3002 RMK AO2,M
WYS,2024-05-03 18:40,35.60,14.00,40.63,350.00,7.00,0.00,30.03,M,10.00,M,M,M,M,M,M,M,M,M,M,M,M,M,M,M,M,29.17,KWYS 031840Z AUTO 35007KT 330V040 10SM 02/M10 A3003 RMK AO2,M
WYS,2024-05-03 19:40,35.60,14.00,40.63,M,3.00,0.00,30.03,M,10.00,14.00,M,M,M,M,M,M,M,M,M,M,M,M,M,M,M,32.80,KWYS 031940Z AUTO VRB03G14KT 10SM 02/M10 A3003 RMK AO2,M
WYS,2024-05-03 20:40,37.40,14.00,37.84,M,6.00,0.00,30.04,M,10.00,11.00,M,M,M,M,M,M,M,M,M,M,M,M,M,M,M,32.03,KWYS 032040Z AUTO VRB06G11KT 10SM 03/M10 A3004 RMK AO2,M
WYS,2024-05-03 21:40,37.40,14.00,37.84,M,5.00,0.00,30.05,M,10.00,M,M,M,M,M,M,M,M,M,M,M,M,M,M,M,M,32.81,KWYS 032140Z AUTO VRB05KT 10SM 03/M10 A3005 RMK AO2,M
WYS,2024-05-03 22:55,39.20,15.80,38.15,M,3.00,0.00,30.05,M,10.00,M,M,M,M,M,M,M,M,M,M,M,M,M,M,M,M,36.92,KWYS 032255Z AUTO VRB03KT 10SM 04/M09 A3005 RMK AO2,M
WYS,2024-05-03 23:55,39.20,12.20,32.58,0.00,0.00,0.00,30.06,M,10.00,12.00,BKN,OVC,M,M,6000.00,7000.00,M,M,M,M,M,M,M,M,M,39.20,KWYS 032355Z AUTO 00000G12KT 10SM BKN060 OVC070 04/M11 A3006 RMK AO2,M
WYS,2024-05-04 00:55,39.20,12.20,32.58,0.00,0.00,0.00,30.06,M,10.00,M,FEW,BKN,M,M,5500.00,6500.00,M,M,M,M,M,M,M,M,M,39.20,KWYS 040055Z AUTO 00000KT 10SM FEW055 BKN065 04/M11 A3006 RMK AO2,M
WYS,2024-05-04 01:55,39.20,12.20,32.58,0.00,0.00,0.00,30.05,M,10.00,M,SCT,M,M,M,6500.00,M,M,M,M,M,M,M,M,M,M,39.20,KWYS 040155Z AUTO 00000KT 10SM SCT065 04/M11 A3005 RMK AO2,M
WYS,2024-05-04 02:55,30.20,17.60,59.01,0.00,0.00,0.00,30.06,M,10.00,M,FEW,SCT,OVC,M,6000.00,7000.00,8000.00,M,M,M,M,M,M,M,M,30.20,KWYS 040255Z AUTO 00000KT 10SM FEW060 SCT070 OVC080 M01/M08 A3006 RMK AO2,M
WYS,2024-05-04 03:55,28.40,19.40,68.61,0.00,0.00,0.00,30.07,M,10.00,M,FEW,BKN,BKN,M,4500.00,7000.00,8000.00,M,M,M,M,M,M,M,M,28.40,KWYS 040355Z AUTO 00000KT 10SM FEW045 BKN070 BKN080 M02/M07 A3007 RMK AO2,M
WYS,2024-05-04 04:55,26.60,17.60,68.40,0.00,0.00,0.00,30.07,M,10.00,M,BKN,M,M,M,6000.00,M,M,M,M,M,M,M,M,M,M,26.60,KWYS 040455Z AUTO 00000KT 10SM BKN060 M03/M08 A3007 RMK AO2,M
WYS,2024-05-04 05:55,24.80,19.40,79.62,0.00,0.00,0.00,30.06,M,10.00,M,CLR,M,M,M,M,M,M,M,M,M,M,M,M,M,M,24.80,KWYS 040555Z AUTO 00000KT 10SM CLR M04/M07 A3006 RMK AO2,M
WYS,2024-05-04 06:55,23.00,23.00,100.00,0.00,0.00,0.00,30.06,M,10.00,M,CLR,M,M,M,M,M,M,M,M,M,M,M,M,M,M,23.00,KWYS 040655Z AUTO 00000KT 10SM CLR M05/M05 A3006 RMK AO2,M
WYS,2024-05-04 07:55,21.20,21.20,100.00,0.00,0.00,0.00,30.05,M,10.00,M,CLR,M,M,M,M,M,M,M,M,M,M,M,M,M,M,21.20,KWYS 040755Z AUTO 00000KT 10SM CLR M06/M06 A3005 RMK AO2,M
WYS,2024-05-04 08:55,19.40,21.20,M,0.00,0.00,0.00,30.05,M,10.00,M,CLR,M,M,M,M,M,M,M,M,M,M,M,M,M,M,M,KWYS 040855Z AUTO 00000KT 10SM CLR M07/M06 A3005 RMK AO2,M
WYS,2024-05-04 09:55,19.40,19.40,100.00,0.00,0.00,0.00,30.03,M,10.00,M,CLR,M,M,M,M,M,M,M,M,M,M,M,M,M,M,19.40,KWYS 040955Z AUTO 00000KT 10SM CLR M07/M07 A3003 RMK AO2,M
WYS,2024-05-04 10:55,17.60,17.60,100.00,0.00,0.00,0.00,30.03,M,10.00,M,CLR,M,M,M,M,M,M,M,M,M,M,M,M,M,M,17.60,KWYS 041055Z AUTO 00000KT 10SM CLR M08/M08 A3003 RMK AO2,M
WYS,2024-05-04 11:55,15.80,15.80,100.00,0.00,0.00,0.00,30.02,M,10.00,M,CLR,M,M,M,M,M,M,M,M,M,M,M,M,M,M,15.80,KWYS 041155Z AUTO 00000KT 10SM CLR M09/M09 A3002 RMK AO2,M
WYS,2024-05-04 12:55,19.40,19.40,100.00,0.00,0.00,0.00,30.01,M,10.00,M,CLR,M,M,M,M,M,M,M,M,M,M,M,M,M,M,19.40,KWYS 041255Z AUTO 00000KT 10SM CLR M07/M07 A3001 RMK AO2,M
WYS,2024-05-04 13:55,26.60,23.00,86.07,0.00,0.00,0.00,30.01,M,10.00,M,CLR,M,M,M,M,M,M,M,M,M,M,M,M,M,M,26.60,KWYS 041355Z AUTO 00000KT 10SM CLR M03/M05 A3001 RMK AO2,M
WYS,2024-05-04 14:55,32.00,23.00,69.04,0.00,0.00,0.00,29.99,M,10.00,M,CLR,M,M,M,M,M,M,M,M,M,M,M,M,M,M,32.00,KWYS 041455Z AUTO 00000KT 10SM CLR M00/M05 A2999 RMK AO2,M
WYS,2024-05-04 15:55,37.40,17.60,44.25,0.00,0.00,0.00,29.97,M,10.00,M,CLR,M,M,M,M,M,M,M,M,M,M,M,M,M,M,37.40,KWYS 041555Z AUTO 00000KT 10SM CLR 03/M08 A2997 RMK AO2,M
WYS,2024-05-04 16:55,42.80,17.60,35.87,40.00,4.00,0.00,29.95,M,10.00,M,CLR,M,M,M,M,M,M,M,M,M,M,M,M,M,M,40.03,KWYS 041655Z AUTO 04004KT 10SM CLR 06/M08 A2995 RMK AO2,M
WYS,2024-05-04 17:55,48.20,15.80,27.04,110.00,8.00,0.00,29.91,M,10.00,M,CLR,M,M,M,M,M,M,M,M,M,M,M,M,M,M,44.07,KWYS 041755Z AUTO 11008KT 10SM CLR 09/M09 A2991 RMK AO2,M
WYS,2024-05-04 18:55,50.00,10.40,19.93,220.00,11.00,0.00,29.88,M,10.00,17.00,CLR,M,M,M,M,M,M,M,M,M,M,M,M,M,M,50.00,KWYS 041855Z AUTO 22011G17KT 10SM CLR 10/M12 A2988 RMK AO2,M
WYS,2024-05-04 19:55,51.80,12.20,20.20,200.00,8.00,0.00,29.86,M,10.00,14.00,CLR,M,M,M,M,M,M,M,M,M,M,M,M,M,M,51.80,KWYS 041955Z AUTO 20008G14KT 170V230 10SM CLR 11/M11 A2986 RMK AO2,M
WYS,2024-05-04 20:55,55.40,12.20,17.70,220.00,10.00,0.00,29.83,M,10.00,M,CLR,M,M,M,M,M,M,M,M,M,M,M,M,M,M,55.40,KWYS 042055Z AUTO 22010KT 210V300 10SM CLR 13/M11 A2983 RMK AO2,M
WYS,2024-05-04 21:55,55.40,15.80,20.73,200.00,9.00,0.00,29.81,M,10.00,M,OVC,M,M,M,8000.00,M,M,M,M,M,M,M,M,M,M,55.40,KWYS 042155Z AUTO 20009KT 180V240 10SM OVC080 13/M09 A2981 RMK AO2,M
WYS,2024-05-04 22:55,57.20,23.00,26.42,230.00,10.00,0.00,29.79,M,10.00,M,FEW,SCT,BKN,M,7500.00,9000.00,12000.00,M,M,M,M,M,M,M,M,57.20,KWYS 042255Z AUTO 23010KT 10SM FEW075 SCT090 BKN120 14/M05 A2979 RMK AO2,M
WYS,2024-05-04 23:55,57.20,21.20,24.49,170.00,7.00,0.00,29.76,M,10.00,M,FEW,M,M,M,8500.00,M,M,M,M,M,M,M,M,M,M,57.20,KWYS 042355Z AUTO 17007KT 150V210 10SM FEW085 14/M06 A2976 RMK AO2,M
WYS,2024-05-05 00:55,57.20,23.00,26.42,220.00,7.00,0.00,29.74,M,10.00,M,SCT,M,M,M,9000.00,M,M,M,M,M,M,M,M,M,M,57.20,KWYS 050055Z AUTO 22007KT 10SM SCT090 14/M05 A2974 RMK AO2,M
WYS,2024-05-05 01:55,53.60,24.80,32.46,160.00,6.00,0.00,29.72,M,10.00,M,FEW,M,M,M,8500.00,M,M,M,M,M,M,M,M,M,M,53.60,KWYS 050155Z AUTO 16006KT 10SM FEW085 12/M04 A2972 RMK AO2,M
WYS,2024-05-05 02:55,50.00,30.20,46.31,0.00,0.00,0.00,29.71,M,10.00,M,CLR,M,M,M,M,M,M,M,M,M,M,M,M,M,M,50.00,KWYS 050255Z AUTO 00000KT 10SM CLR 10/M01 A2971 RMK AO2,M
WYS,2024-05-05 03:55,46.40,30.20,53.00,0.00,0.00,0.00,29.70,M,10.00,M,FEW,BKN,OVC,M,7000.00,7500.00,9000.00,M,M,M,M,M,M,M,M,46.40,KWYS 050355Z AUTO 00000KT 10SM FEW070 BKN075 OVC090 08/M01 A2970 RMK AO2,M
WYS,2024-05-05 04:55,46.40,32.00,57.00,320.00,6.00,0.00,29.68,M,10.00,M,FEW,BKN,OVC,M,6000.00,7500.00,8500.00,M,M,M,M,M,M,M,M,42.87,KWYS 050455Z AUTO 32006KT 10SM FEW060 BKN075 OVC085 08/M00 A2968 RMK AO2,M
WYS,2024-05-05 05:55,44.60,30.20,56.74,330.00,3.00,0.00,29.65,M,10.00,M,FEW,SCT,OVC,M,6500.00,8000.00,9000.00,M,M,M,M,M,M,M,M,43.09,KWYS 050555Z AUTO 33003KT 10SM FEW065 SCT080 OVC090 07/M01 A2965 RMK AO2,M
WYS,2024-05-05 06:55,48.20,26.60,42.73,60.00,7.00,0.00,29.63,M,10.00,M,SCT,OVC,M,M,7500.00,9000.00,M,M,M,M,M,M,M,M,M,44.53,KWYS 050655Z AUTO 06007KT 10SM SCT075 OVC090 09/M03 A2963 RMK AO2,M
WYS,2024-05-05 07:55,44.60,30.20,56.74,310.00,4.00,0.00,29.63,M,10.00,M,SCT,BKN,OVC,M,6000.00,6500.00,7500.00,M,M,M,M,M,M,M,M,42.13,KWYS 050755Z AUTO 31004KT 10SM SCT060 BKN065 OVC075 07/M01 A2963 RMK AO2,M
WYS,2024-05-05 08:55,46.40,30.20,53.00,110.00,5.00,0.00,29.61,M,10.00,M,FEW,SCT,OVC,M,4600.00,6000.00,7000.00,M,M,M,M,M,M,M,M,43.50,KWYS 050855Z AUTO 11005KT 10SM FEW046 SCT060 OVC070 08/M01 A2961 RMK AO2,M
WYS,2024-05-05 09:55,46.40,32.00,57.00,M,6.00,0.00,29.60,M,10.00,12.00,SCT,BKN,OVC,M,4500.00,5000.00,7000.00,M,M,M,M,M,M,M,M,42.87,KWYS 050955Z AUTO VRB06G12KT 10SM SCT045 BKN050 OVC070 08/00 A2960 RMK AO2,M
WYS,2024-05-05 10:55,44.60,35.60,70.48,210.00,10.00,0.00,29.61,M,10.00,M,FEW,SCT,BKN,M,3300.00,4100.00,4800.00,M,M,M,M,M,M,M,M,38.77,KWYS 051055Z AUTO 21010KT 10SM FEW033 SCT041 BKN048 07/02 A2961 RMK AO2,M
WYS,2024-05-05 11:55,42.80,42.80,100.00,230.00,3.00,0.00,29.61,M,10.00,M,FEW,BKN,OVC,M,4000.00,4700.00,6500.00,M,M,M,M,M,M,M,M,41.03,KWYS 051155Z AUTO 23003KT 10SM FEW040 BKN047 OVC065 06/06 A2961 RMK AO2,M
WYS,2024-05-05 12:55,42.80,42.80,100.00,0.00,0.00,0.00,29.59,M,10.00,M,FEW,BKN,OVC,M,2700.00,3300.00,10000.00,M,M,M,M,M,M,M,M,42.80,KWYS 051255Z AUTO 00000KT 10SM FEW027 BKN033 OVC100 06/06 A2959 RMK AO2,M
WYS,2024-05-05 13:55,44.60,42.80,93.35,60.00,4.00,0.00,29.57,M,10.00,M,FEW,SCT,BKN,M,3900.00,4800.00,5500.00,M,M,M,M,M,M,M,M,42.13,KWYS 051355Z AUTO 06004KT 10SM FEW039 SCT048 BKN055 07/06 A2957 RMK AO2,M
WYS,2024-05-05 14:55,46.40,41.00,81.34,M,5.00,0.00,29.55,M,10.00,M,BKN,BKN,OVC,M,5500.00,6500.00,8000.00,M,M,M,M,M,M,M,M,43.50,KWYS 051455Z AUTO VRB05KT 10SM BKN055 BKN065 OVC080 08/05 A2955 RMK AO2,M
WYS,2024-05-05 15:50,48.20,35.60,61.52,M,5.00,0.00,29.55,M,10.00,M,FEW,BKN,OVC,M,4300.00,5000.00,9000.00,M,M,M,M,M,M,M,M,45.63,KWYS 051550Z AUTO VRB05KT 10SM FEW043 BKN050 OVC090 09/02 A2955 RMK AO2,M
WYS,2024-05-05 16:55,42.80,42.80,100.00,240.00,9.00,0.00,29.56,M,7.00,M,FEW,SCT,BKN,M,1600.00,4200.00,5000.00,M,M,M,M,M,M,M,M,36.94,KWYS 051655Z AUTO 24009KT 7SM FEW016 SCT042 BKN050 06/06 A2956 RMK AO2,M
WYS,2024-05-05 17:50,42.80,42.80,100.00,220.00,17.00,0.00,29.58,M,9.00,22.00,SCT,BKN,OVC,M,1300.00,5500.00,6500.00,M,M,M,M,M,M,M,M,34.22,KWYS 051750Z AUTO 22017G22KT 9SM SCT013 BKN055 OVC065 06/06 A2958 RMK AO2,M
WYS,2024-05-05 18:55,37.40,37.40,100.00,210.00,6.00,0.00,29.60,M,6.00,13.00,FEW,FEW,M,M,3400.00,4800.00,M,M,BR,M,M,M,M,M,M,32.03,KWYS 051855Z AUTO 21006G13KT 6SM BR FEW034 FEW048 03/03 A2960 RMK AO2,M
WYS,2024-05-05 19:50,41.00,41.00,100.00,240.00,4.00,0.00,29.61,M,10.00,M,OVC,M,M,M,1400.00,M,M,M,M,M,M,M,M,M,M,37.93,KWYS 051950Z AUTO 24004KT 10SM OVC014 05/05 A2961 RMK AO2,M
WYS,2024-05-05 20:55,41.00,39.20,93.24,240.00,7.00,0.00,29.61,M,10.00,M,FEW,FEW,FEW,M,1300.00,6000.00,7500.00,M,M,M,M,M,M,M,M,35.75,KWYS 052055Z AUTO 24007KT 10SM FEW013 FEW060 FEW075 05/04 A2961 RMK AO2,M
WYS,2024-05-05 21:55,42.80,37.40,81.07,230.00,7.00,0.00,29.60,M,10.00,15.00,BKN,BKN,OVC,M,1800.00,2400.00,8000.00,M,M,M,M,M,M,M,M,37.94,KWYS 052155Z AUTO 23007G15KT 10SM BKN018 BKN024 OVC080 06/03 A2960 RMK AO2,M
WYS,2024-05-05 22:55,44.60,37.40,75.68,210.00,12.00,0.00,29.59,M,10.00,M,BKN,M,M,M,8000.00,M,M,M,M,M,M,M,M,M,M,38.04,KWYS 052255Z AUTO 21012KT 10SM BKN080 07/03 A2959 RMK AO2,M
WYS,2024-05-05 23:55,39.20,39.20,100.00,230.00,8.00,0.00,29.62,M,10.00,M,FEW,SCT,BKN,M,1300.00,2400.00,9000.00,M,M,M,M,M,M,M,M,32.98,KWYS 052355Z AUTO 23008KT 10SM FEW013 SCT024 BKN090 04/04 A2962 RMK AO2,M
WYS,2024-05-06 00:55,37.40,37.40,100.00,230.00,7.00,0.00,29.62,M,10.00,M,SCT,BKN,OVC,M,800.00,1300.00,9500.00,M,M,M,M,M,M,M,M,31.36,KWYS 060055Z AUTO 23007KT 10SM SCT008 BKN013 OVC095 03/03 A2962 RMK AO2,M
WYS,2024-05-06 01:55,35.60,35.60,100.00,200.00,7.00,0.00,29.63,M,10.00,13.00,OVC,M,M,M,600.00,M,M,M,M,M,M,M,M,M,M,29.17,KWYS 060155Z AUTO 20007G13KT 10SM OVC006 02/02 A2963 RMK AO2,M
WYS,2024-05-06 02:55,35.60,35.60,100.00,230.00,6.00,0.00,29.63,M,10.00,16.00,BKN,OVC,M,M,600.00,1300.00,M,M,M,M,M,M,M,M,M,29.87,KWYS 060255Z AUTO 23006G16KT 10SM BKN006 OVC013 02/02 A2963 RMK AO2,M
WYS,2024-05-06 03:55,33.80,33.80,100.00,220.00,12.00,0.00,29.64,M,4.00,M,OVC,M,M,M,700.00,M,M,M,BR,M,M,M,M,M,M,24.29,KWYS 060355Z AUTO 22012KT 4SM BR OVC007 01/01 A2964 RMK AO2,M
WYS,2024-05-06 04:55,33.80,33.80,100.00,220.00,8.00,0.00,29.64,M,10.00,M,OVC,M,M,M,900.00,M,M,M,M,M,M,M,M,M,M,26.33,KWYS 060455Z AUTO 22008KT 10SM OVC009 01/01 A2964 RMK AO2,M
WYS,2024-05-06 05:55,32.00,32.00,100.00,220.00,11.00,0.00,29.66,M,5.00,17.00,OVC,M,M,M,1100.00,M,M,M,BR,M,M,M,M,M,M,22.47,KWYS 060555Z AUTO 22011G17KT 5SM BR OVC011 00/00 A2966 RMK AO2,M
WYS,2024-05-06 06:55,32.00,32.00,100.00,210.00,6.00,0.00,29.64,M,10.00,M,OVC,M,M,M,900.00,M,M,M,M,M,M,M,M,M,M,25.53,KWYS 060655Z AUTO 21006KT 10SM OVC009 00/00 A2964 RMK AO2,M
WYS,2024-05-06 07:55,32.00,32.00,100.00,200.00,6.00,0.00,29.62,M,10.00,M,OVC,M,M,M,1600.00,M,M,M,M,M,M,M,M,M,M,25.53,KWYS 060755Z AUTO 20006KT 10SM OVC016 00/00 A2962 RMK AO2,M
WYS,2024-05-06 08:55,32.00,32.00,100.00,210.00,13.00,0.00,29.62,M,10.00,M,BKN,BKN,OVC,M,1400.00,2000.00,3400.00,M,M,M,M,M,M,M,M,21.57,KWYS 060855Z AUTO 21013KT 10SM BKN014 BKN020 OVC034 00/00 A2962 RMK AO2,M
WYS,2024-05-06 09:55,32.00,32.00,100.00,220.00,10.00,0.00,29.64,M,10.00,M,OVC,M,M,M,1200.00,M,M,M,M,M,M,M,M,M,M,22.97,KWYS 060955Z AUTO 22010KT 10SM OVC012 00/00 A2964 RMK AO2,M
WYS,2024-05-06 10:55,32.00,32.00,100.00,230.00,10.00,0.00,29.64,M,10.00,15.00,BKN,OVC,M,M,1200.00,1900.00,M,M,M,M,M,M,M,M,M,22.97,KWYS 061055Z AUTO 23010G15KT 10SM BKN012 OVC019 M00/M00 A2964 RMK AO2,M
WYS,2024-05-06 11:55,30.20,30.20,100.00,220.00,13.00,0.00,29.65,M,10.00,18.00,OVC,M,M,M,800.00,M,M,M,M,M,M,M,M,M,M,19.26,KWYS 061155Z AUTO 22013G18KT 10SM OVC008 M01/M01 A2965 RMK AO2,M
WYS,2024-05-06 12:55,30.20,32.00,M,230.00,6.00,0.00,29.65,M,10.00,M,OVC,M,M,M,800.00,M,M,M,M,M,M,M,M,M,M,M,KWYS 061255Z AUTO 23006KT 10SM OVC008 M01/M00 A2965 RMK AO2,M
WYS,2024-05-06 13:55,32.00,32.00,100.00,220.00,9.00,0.00,29.64,M,10.00,14.00,FEW,OVC,M,M,1300.00,3500.00,M,M,M,M,M,M,M,M,M,23.51,KWYS 061355Z AUTO 22009G14KT 10SM FEW013 OVC035 00/00 A2964 RMK AO2,M
WYS,2024-05-06 14:55,33.80,33.80,100.00,220.00,12.00,0.00,29.65,M,10.00,M,BKN,BKN,OVC,M,900.00,2800.00,3600.00,M,M,M,M,M,M,M,M,24.29,KWYS 061455Z AUTO 22012KT 10SM BKN009 BKN028 OVC036 01/01 A2965 RMK AO2,M
WYS,2024-05-06 15:55,33.80,33.80,100.00,220.00,10.00,0.00,29.64,M,10.00,M,FEW,FEW,OVC,M,600.00,1300.00,1900.00,M,M,M,M,M,M,M,M,25.23,KWYS 061555Z AUTO 22010KT 10SM FEW006 FEW013 OVC019 01/01 A2964 RMK AO2,M
WYS,2024-05-06 16:55,37.40,32.00,80.65,230.00,11.00,0.00,29.63,M,10.00,16.00,BKN,OVC,M,M,2200.00,2900.00,M,M,M,M,M,M,M,M,M,29.29,KWYS 061655Z AUTO 23011G16KT 10SM BKN022 OVC029 03/M00 A2963 RMK AO2,M
WYS,2024-05-06 17:55,39.20,30.20,69.88,280.00,8.00,0.00,29.65,M,7.00,13.00,SCT,BKN,OVC,M,2600.00,3900.00,4500.00,M,-UP,M,M,M,M,M,M,32.98,KWYS 061755Z AUTO 28008G13KT 7SM -UP SCT026 BKN039 OVC045 04/M01 A2965 RMK AO2,M
WYS,2024-05-06 18:55,39.20,26.60,60.29,M,5.00,0.00,29.66,M,10.00,11.00,OVC,M,M,M,4400.00,M,M,M,M,M,M,M,M,M,M,34.95,KWYS 061855Z AUTO VRB05G11KT 10SM OVC044 04/M03 A2966 RMK AO2,M
WYS,2024-05-06 19:55,39.20,26.60,60.29,280.00,7.00,0.00,29.66,M,10.00,14.00,OVC,M,M,M,4600.00,M,M,M,M,M,M,M,M,M,M,33.56,KWYS 061955Z AUTO 28007G14KT 240V320 10SM OVC046 04/M03 A2966 RMK AO2,M
WYS,2024-05-06 20:55,41.00,23.00,48.39,280.00,8.00,0.00,29.67,M,10.00,14.00,OVC,M,M,M,4700.00,M,M,M,M,M,M,M,M,M,M,35.20,KWYS 062055Z AUTO 28008G14KT 240V330 10SM OVC047 05/M05 A2967 RMK AO2,M
WYS,2024-05-06 21:55,41.00,24.80,52.17,M,4.00,0.00,29.68,M,10.00,10.00,BKN,BKN,M,M,5000.00,6500.00,M,M,-UP,M,M,M,M,M,M,37.93,KWYS 062155Z AUTO VRB04G10KT 10SM -UP BKN050 BKN065 05/M04 A2968 RMK AO2,M
WYS,2024-05-06 22:55,42.80,23.00,45.14,M,6.00,0.00,29.68,M,10.00,15.00,SCT,BKN,BKN,M,4700.00,5500.00,7000.00,M,M,M,M,M,M,M,M,38.54,KWYS 062255Z AUTO VRB06G15KT 10SM SCT047 BKN055 BKN070 06/M05 A2968 RMK AO2,M
WYS,2024-05-06 23:55,44.60,17.60,33.49,M,6.00,0.00,29.67,M,10.00,17.00,BKN,BKN,M,M,6000.00,7000.00,M,M,M,M,M,M,M,M,M,40.71,KWYS 062355Z AUTO VRB06G17KT 250V350 10SM BKN060 BKN070 07/M08 A2967 RMK AO2,M
WYS,2024-05-07 00:55,42.80,14.00,30.68,M,6.00,0.00,29.67,M,10.00,21.00,CLR,M,M,M,M,M,M,M,M,M,M,M,M,M,M,38.54,KWYS 070055Z AUTO VRB06G21KT 10SM CLR 06/M10 A2967 RMK AO2,M
WYS,2024-05-07 01:55,41.00,14.00,32.88,280.00,7.00,0.00,29.68,M,10.00,13.00,CLR,M,M,M,M,M,M,M,M,M,M,M,M,M,M,35.75,KWYS 070155Z AUTO 28007G13KT 230V300 10SM CLR 05/M10 A2968 RMK AO2,M
WYS,2024-05-07 02:55,37.40,15.80,40.93,M,5.00,0.00,29.69,M,10.00,10.00,SCT,SCT,M,M,6000.00,7000.00,M,M,M,M,M,M,M,M,M,32.81,KWYS 070255Z AUTO VRB05G10KT 10SM SCT060 SCT070 03/M09 A2969 RMK AO2,M
WYS,2024-05-07 03:55,33.80,15.80,47.22,240.00,3.00,0.00,29.69,M,10.00,M,CLR,M,M,M,M,M,M,M,M,M,M,M,M,M,M,30.75,KWYS 070355Z AUTO 24003KT 10SM CLR 01/M09 A2969 RMK AO2,M
WYS,2024-05-07 04:55,30.20,17.60,59.01,240.00,5.00,0.00,29.69,M,10.00,M,FEW,FEW,FEW,M,4300.00,4800.00,5500.00,M,M,M,M,M,M,M,M,24.26,KWYS 070455Z AUTO 24005KT 10SM FEW043 FEW048 FEW055 M01/M08 A2969 RMK AO2,M
WYS,2024-05-07 05:55,28.40,19.40,68.61,220.00,8.00,0.00,29.68,M,10.00,M,CLR,M,M,M,M,M,M,M,M,M,M,M,M,M,M,19.68,KWYS 070555Z AUTO 22008KT 10SM CLR M02/M07 A2968 RMK AO2,M
WYS,2024-05-07 06:55,30.20,23.00,74.26,210.00,5.00,0.00,29.68,M,10.00,M,CLR,M,M,M,M,M,M,M,M,M,M,M,M,M,M,24.26,KWYS 070655Z AUTO 21005KT 10SM CLR M01/M05 A2968 RMK AO2,M
WYS,2024-05-07 07:55,28.40,23.00,79.92,130.00,3.00,0.00,29.68,M,10.00,M,CLR,M,M,M,M,M,M,M,M,M,M,M,M,M,M,24.57,KWYS 070755Z AUTO 13003KT 10SM CLR M02/M05 A2968 RMK AO2,M
WYS,2024-05-07 08:55,28.40,23.00,79.92,230.00,5.00,0.00,29.68,M,10.00,M,SCT,M,M,M,11000.00,M,M,M,M,M,M,M,M,M,M,22.12,KWYS 070855Z AUTO 23005KT 10SM SCT110 M02/M05 A2968 RMK AO2,M
WYS,2024-05-07 09:55,28.40,24.80,86.18,240.00,5.00,0.00,29.68,M,10.00,M,FEW,FEW,OVC,M,3700.00,4300.00,12000.00,M,M,M,M,M,M,M,M,22.12,KWYS 070955Z AUTO 24005KT 10SM FEW037 FEW043 OVC120 M02/M04 A2968 RMK AO2,M
WYS,2024-05-07 10:55,28.40,26.60,92.86,210.00,6.00,0.00,29.68,M,10.00,M,OVC,M,M,M,4500.00,M,M,M,M,M,M,M,M,M,M,21.19,KWYS 071055Z AUTO 21006KT 10SM OVC045 M02/M03 A2968 RMK AO2,M
WYS,2024-05-07 11:55,28.40,24.80,86.18,0.00,0.00,0.00,29.67,M,10.00,M,SCT,M,M,M,4600.00,M,M,M,M,M,M,M,M,M,M,28.40,KWYS 071155Z AUTO 00000KT 10SM SCT046 M02/M04 A2967 RMK AO2,M
WYS,2024-05-07 12:55,28.40,24.80,86.18,220.00,9.00,0.00,29.66,M,10.00,M,BKN,M,M,M,4800.00,M,M,M,M,M,M,M,M,M,M,19.04,KWYS 071255Z AUTO 22009KT 10SM BKN048 M02/M04 A2966 RMK AO2,M
WYS,2024-05-07 13:55,32.00,21.20,63.99,230.00,9.00,0.00,29.66,M,10.00,14.00,OVC,M,M,M,5000.00,M,M,M,M,M,M,M,M,M,M,23.51,KWYS 071355Z AUTO 23009G14KT 10SM OVC050 00/M06 A2966 RMK AO2,M
WYS,2024-05-07 14:55,33.80,21.20,59.53,230.00,8.00,0.00,29.66,M,10.00,16.00,FEW,BKN,OVC,M,2300.00,4400.00,5000.00,M,M,M,M,M,M,M,M,26.33,KWYS 071455Z AUTO 23008G16KT 10SM FEW023 BKN044 OVC050 01/M06 A2966 RMK AO2,M
WYS,2024-05-07 15:55,33.80,19.40,55.14,M,5.00,0.00,29.66,M,10.00,13.00,SCT,BKN,BKN,M,3500.00,4000.00,4500.00,M,M,M,M,M,M,M,M,28.53,KWYS 071555Z AUTO VRB05G13KT 10SM SCT035 BKN040 BKN045 01/M07 A2966 RMK AO2,M
WYS,2024-05-07 16:55,37.40,17.60,44.25,270.00,9.00,0.00,29.65,M,10.00,M,FEW,FEW,OVC,M,4300.00,5000.00,6000.00,M,M,M,M,M,M,M,M,30.23,KWYS 071655Z AUTO 27009KT 230V310 10SM FEW043 FEW050 OVC060 03/M08 A2965 RMK AO2,M
WYS,2024-05-07 17:55,39.20,15.80,38.15,290.00,7.00,0.00,29.66,M,10.00,13.00,SCT,BKN,BKN,M,5000.00,6000.00,7000.00,M,M,M,M,M,M,M,M,33.56,KWYS 071755Z AUTO 29007G13KT 250V310 10SM SCT050 BKN060 BKN070 04/M09 A2966 RMK AO2,M
WYS,2024-05-07 18:55,39.20,15.80,38.15,310.00,7.00,0.00,29.66,M,10.00,18.00,FEW,SCT,BKN,M,4100.00,5500.00,7000.00,M,M,M,M,M,M,M,M,33.56,KWYS 071855Z AUTO 31007G18KT 250V030 10SM FEW041 SCT055 BKN070 04/M09 A2966 RMK AO2,M
WYS,2024-05-07 19:55,41.00,15.80,35.57,280.00,9.00,0.00,29.67,M,10.00,17.00,SCT,BKN,M,M,5500.00,7500.00,M,M,M,M,M,M,M,M,M,34.70,KWYS 071955Z AUTO 28009G17KT 240V310 10SM SCT055 BKN075 05/M09 A2967 RMK AO2,M
WYS,2024-05-07 20:55,39.20,15.80,38.15,260.00,9.00,0.00,29.67,M,10.00,M,BKN,OVC,M,M,5500.00,7500.00,M,M,M,M,M,M,M,M,M,32.47,KWYS 072055Z AUTO 26009KT 10SM BKN055 OVC075 04/M09 A2967 RMK AO2,M
WYS,2024-05-07 21:55,41.00,15.80,35.57,250.00,10.00,0.00,29.67,M,10.00,19.00,BKN,BKN,M,M,6000.00,7500.00,M,M,M,M,M,M,M,M,M,34.25,KWYS 072155Z AUTO 25010G19KT 10SM BKN060 BKN075 05/M09 A2967 RMK AO2,M
WYS,2024-05-07 22:55,41.00,12.20,30.38,300.00,10.00,0.00,29.68,M,10.00,17.00,SCT,BKN,BKN,M,6500.00,7500.00,11000.00,M,M,M,M,M,M,M,M,34.25,KWYS 072255Z AUTO 30010G17KT 240V340 10SM SCT065 BKN075 BKN110 05/M11 A2968 RMK AO2,M
WYS,2024-05-07 23:55,39.20,15.80,38.15,310.00,10.00,0.00,29.70,M,10.00,17.00,SCT,SCT,M,M,6000.00,7000.00,M,M,M,M,M,M,M,M,M,32.00,KWYS 072355Z AUTO 31010G17KT 10SM SCT060 SCT070 04/M09 A2970 RMK AO2,M
WYS,2024-05-08 00:55,35.60,19.40,51.33,330.00,10.00,0.00,29.74,M,10.00,18.00,SCT,M,M,M,8000.00,M,M,M,M,M,M,M,M,M,M,27.48,KWYS 080055Z AUTO 33010G18KT 300V360 10SM SCT080 02/M07 A2974 RMK AO2,M
WYS,2024-05-08 01:55,33.80,21.20,59.53,280.00,4.00,0.00,29.75,M,10.00,M,BKN,BKN,M,M,7500.00,9500.00,M,M,M,M,M,M,M,M,M,29.52,KWYS 080155Z AUTO 28004KT 10SM BKN075 BKN095 01/M06 A2975 RMK AO2,M
WYS,2024-05-08 02:55,32.00,23.00,69.04,M,5.00,0.00,29.77,M,10.00,M,BKN,OVC,M,M,6500.00,7500.00,M,M,M,M,M,M,M,M,M,26.40,KWYS 080255Z AUTO VRB05KT 10SM BKN065 OVC075 00/M05 A2977 RMK AO2,M
WYS,2024-05-08 03:55,32.00,21.20,63.99,M,5.00,0.00,29.79,M,10.00,M,SCT,BKN,OVC,M,4400.00,5500.00,7000.00,M,M,M,M,M,M,M,M,26.40,KWYS 080355Z AUTO VRB05KT 10SM SCT044 BKN055 OVC070 M00/M06 A2979 RMK AO2,M
WYS,2024-05-08 04:55,32.00,21.20,63.99,0.00,0.00,0.00,29.80,M,10.00,M,BKN,OVC,M,M,3200.00,3800.00,M,M,M,M,M,M,M,M,M,32.00,KWYS 080455Z AUTO 00000KT 10SM BKN032 OVC038 M00/M06 A2980 RMK AO2,M
WYS,2024-05-08 05:55,30.20,23.00,74.26,230.00,5.00,0.00,29.79,M,10.00,M,FEW,FEW,OVC,M,3200.00,4200.00,5500.00,M,M,M,M,M,M,M,M,24.26,KWYS 080555Z AUTO 23005KT 10SM FEW032 FEW042 OVC055 M01/M05 A2979 RMK AO2,M
WYS,2024-05-08 06:55,30.20,24.80,80.07,240.00,6.00,0.00,29.79,M,10.00,M,BKN,BKN,OVC,M,2700.00,3800.00,6000.00,M,M,M,M,M,M,M,M,23.36,KWYS 080655Z AUTO 24006KT 10SM BKN027 BKN038 OVC060 M01/M04 A2979 RMK AO2,M
WYS,2024-05-08 07:55,30.20,24.80,80.07,240.00,5.00,0.00,29.79,M,10.00,11.00,BKN,BKN,OVC,M,2600.00,3000.00,6000.00,M,M,M,M,M,M,M,M,24.26,KWYS 080755Z AUTO 24005G11KT 10SM BKN026 BKN030 OVC060 M01/M04 A2979 RMK AO2,M
WYS,2024-05-08 08:55,30.20,24.80,80.07,220.00,8.00,0.00,29.79,M,10.00,M,SCT,SCT,OVC,M,3000.00,3600.00,4400.00,M,M,M,M,M,M,M,M,21.90,KWYS 080855Z AUTO 22008KT 10SM SCT030 SCT036 OVC044 M01/M04 A2979 RMK AO2,M
WYS,2024-05-08 09:55,30.20,24.80,80.07,240.00,5.00,0.00,29.80,M,10.00,M,SCT,BKN,OVC,M,3400.00,4100.00,6000.00,M,M,M,M,M,M,M,M,24.26,KWYS 080955Z AUTO 24005KT 10SM SCT034 BKN041 OVC060 M01/M04 A2980 RMK AO2,M
WYS,2024-05-08 10:55,30.20,26.60,86.28,230.00,6.00,0.00,29.81,M,10.00,M,FEW,BKN,OVC,M,3900.00,5000.00,5500.00,M,M,M,M,M,M,M,M,23.36,KWYS 081055Z AUTO 23006KT 10SM FEW039 BKN050 OVC055 M01/M03 A2981 RMK AO2,M
WYS,2024-05-08 11:55,30.20,26.60,86.28,210.00,4.00,0.00,29.82,M,10.00,M,BKN,OVC,M,M,3500.00,4300.00,M,M,M,M,M,M,M,M,M,25.32,KWYS 081155Z AUTO 21004KT 10SM BKN035 OVC043 M01/M03 A2982 RMK AO2,M
WYS,2024-05-08 12:55,30.20,28.40,92.92,200.00,5.00,0.00,29.85,M,10.00,M,FEW,BKN,OVC,M,2300.00,3200.00,7000.00,M,M,M,M,M,M,M,M,24.26,KWYS 081255Z AUTO 20005KT 10SM FEW023 BKN032 OVC070 M01/M02 A2985 RMK AO2,M
WYS,2024-05-08 13:55,30.20,30.20,100.00,0.00,0.00,0.00,29.88,M,4.00,M,FEW,FEW,M,M,4400.00,8000.00,M,M,-UP,M,M,M,M,M,M,30.20,KWYS 081355Z AUTO 00000KT 4SM -UP FEW044 FEW080 M01/M01 A2988 RMK AO2,M
WYS,2024-05-08 14:55,33.80,28.40,80.36,0.00,0.00,0.00,29.90,M,10.00,M,FEW,SCT,BKN,M,3000.00,4500.00,6500.00,M,M,M,M,M,M,M,M,33.80,KWYS 081455Z AUTO 00000KT 10SM FEW030 SCT045 BKN065 01/M02 A2990 RMK AO2,M
WYS,2024-05-08 15:55,33.80,32.00,93.03,0.00,0.00,0.00,29.92,M,9.00,M,FEW,SCT,BKN,M,1800.00,7500.00,8500.00,M,M,M,M,M,M,M,M,33.80,KWYS 081555Z AUTO 00000KT 9SM FEW018 SCT075 BKN085 01/M00 A2992 RMK AO2,M
WYS,2024-05-08 16:55,33.80,32.00,93.03,30.00,6.00,0.00,29.94,M,2.50,M,FEW,FEW,FEW,M,3000.00,3600.00,4500.00,M,-SN,M,M,M,M,M,M,27.70,KWYS 081655Z AUTO 03006KT 2 1/2SM -SN FEW030 FEW036 FEW045 01/M00 A2994 RMK AO2,M
WYS,2024-05-08 17:55,35.60,32.00,86.59,0.00,0.00,0.00,29.95,M,8.00,M,SCT,BKN,BKN,M,2100.00,3200.00,4000.00,M,M,M,M,M,M,M,M,35.60,KWYS 081755Z AUTO 00000KT 8SM SCT021 BKN032 BKN040 02/M00 A2995 RMK AO2,M
WYS,2024-05-08 18:55,35.60,35.60,100.00,100.00,7.00,0.00,29.97,M,5.00,M,FEW,SCT,BKN,M,1500.00,2600.00,3100.00,M,-SN,M,M,M,M,M,M,29.17,KWYS 081855Z AUTO 10007KT 5SM -SN FEW015 SCT026 BKN031 02/02 A2997 RMK AO2,M
WYS,2024-05-08 19:55,37.40,32.00,80.65,0.00,0.00,0.00,30.00,M,10.00,M,FEW,BKN,OVC,M,1900.00,2700.00,3700.00,M,M,M,M,M,M,M,M,37.40,KWYS 081955Z AUTO 00000KT 10SM FEW019 BKN027 OVC037 03/M00 A3000 RMK AO2,M
WYS,2024-05-08 20:55,37.40,33.80,86.69,200.00,4.00,0.00,30.02,M,10.00,M,FEW,SCT,BKN,M,2500.00,3100.00,4300.00,M,M,M,M,M,M,M,M,33.73,KWYS 082055Z AUTO 20004KT 10SM FEW025 SCT031 BKN043 03/01 A3002 RMK AO2,M
WYS,2024-05-08 21:55,44.60,26.60,48.96,30.00,14.00,0.00,30.02,M,10.00,21.00,SCT,BKN,OVC,M,3500.00,4600.00,7000.00,M,M,M,M,M,M,M,M,37.40,KWYS 082155Z AUTO 03014G21KT 10SM SCT035 BKN046 OVC070 07/M03 A3002 RMK AO2,M
WYS,2024-05-08 22:55,42.80,24.80,48.67,40.00,17.00,0.00,30.05,M,10.00,M,SCT,OVC,M,M,4300.00,6000.00,M,M,M,M,M,M,M,M,M,34.22,KWYS 082255Z AUTO 04017KT 10SM SCT043 OVC060 06/M04 A3005 RMK AO2,M
WYS,2024-05-08 23:55,41.00,26.60,56.22,40.00,15.00,0.00,30.07,M,10.00,M,SCT,BKN,OVC,M,4000.00,4700.00,6000.00,M,M,M,M,M,M,M,M,32.45,KWYS 082355Z AUTO 04015KT 10SM SCT040 BKN047 OVC060 05/M03 A3007 RMK AO2,M
WYS,2024-05-09 00:55,41.00,26.60,56.22,40.00,12.00,0.00,30.09,M,10.00,17.00,FEW,BKN,BKN,M,4400.00,5500.00,6500.00,M,M,M,M,M,M,M,M,33.46,KWYS 090055Z AUTO 04012G17KT 10SM FEW044 BKN055 BKN065 05/M03 A3009 RMK AO2,M
WYS,2024-05-09 01:55,39.20,26.60,60.29,20.00,14.00,0.00,30.11,M,10.00,M,OVC,M,M,M,5000.00,M,M,M,M,M,M,M,M,M,M,30.44,KWYS 090155Z AUTO 02014KT 10SM OVC050 04/M03 A3011 RMK AO2,M
WYS,2024-05-09 02:55,35.60,28.40,74.80,30.00,7.00,0.00,30.14,M,10.00,M,BKN,OVC,M,M,5000.00,5500.00,M,M,M,M,M,M,M,M,M,29.17,KWYS 090255Z AUTO 03007KT 10SM BKN050 OVC055 02/M02 A3014 RMK AO2,M
WYS,2024-05-09 03:55,33.80,26.60,74.63,30.00,9.00,0.00,30.16,M,10.00,M,OVC,M,M,M,5000.00,M,M,M,M,M,M,M,M,M,M,25.75,KWYS 090355Z AUTO 03009KT 10SM OVC050 01/M03 A3016 RMK AO2,M
WYS,2024-05-09 04:55,32.00,28.40,86.39,10.00,5.00,0.00,30.17,M,10.00,M,FEW,BKN,OVC,M,3500.00,4400.00,8000.00,M,M,M,M,M,M,M,M,26.40,KWYS 090455Z AUTO 01005KT 10SM FEW035 BKN044 OVC080 M00/M02 A3017 RMK AO2,M
WYS,2024-05-09 05:55,32.00,28.40,86.39,350.00,4.00,0.00,30.18,M,10.00,M,FEW,SCT,BKN,M,3500.00,5000.00,6500.00,M,M,M,M,M,M,M,M,27.42,KWYS 090555Z AUTO 35004KT 10SM FEW035 SCT050 BKN065 M00/M02 A3018 RMK AO2,M
WYS,2024-05-09 06:55,32.00,28.40,86.39,20.00,5.00,0.00,30.18,M,10.00,M,BKN,OVC,M,M,6000.00,7000.00,M,M,M,M,M,M,M,M,M,26.40,KWYS 090655Z AUTO 02005KT 10SM BKN060 OVC070 00/M02 A3018 RMK AO2,M
WYS,2024-05-09 07:55,30.20,30.20,100.00,0.00,0.00,0.00,30.19,M,10.00,M,FEW,SCT,BKN,M,4800.00,5500.00,6500.00,M,M,M,M,M,M,M,M,30.20,KWYS 090755Z AUTO 00000KT 10SM FEW048 SCT055 BKN065 M01/M01 A3019 RMK AO2,M
WYS,2024-05-09 08:55,30.20,30.20,100.00,0.00,0.00,0.00,30.20,M,10.00,M,SCT,BKN,M,M,5500.00,8000.00,M,M,M,M,M,M,M,M,M,30.20,KWYS 090855Z AUTO 00000KT 10SM SCT055 BKN080 M01/M01 A3020 RMK AO2,M
WYS,2024-05-09 09:55,28.40,28.40,100.00,0.00,0.00,0.00,30.22,M,10.00,M,FEW,M,M,M,8000.00,M,M,M,M,M,M,M,M,M,M,28.40,KWYS 090955Z AUTO 00000KT 10SM FEW080 M02/M02 A3022 RMK AO2,M
WYS,2024-05-09 10:55,30.20,30.20,100.00,30.00,4.00,0.00,30.23,M,10.00,M,FEW,SCT,BKN,M,5500.00,7000.00,8500.00,M,M,M,M,M,M,M,M,25.32,KWYS 091055Z AUTO 03004KT 10SM FEW055 SCT070 BKN085 M01/M01 A3023 RMK AO2,M
WYS,2024-05-09 11:55,28.40,28.40,100.00,210.00,3.00,0.00,30.24,M,10.00,M,BKN,M,M,M,6000.00,M,M,M,M,M,M,M,M,M,M,24.57,KWYS 091155Z AUTO 21003KT 10SM BKN060 M02/M02 A3024 RMK AO2,M
WYS,2024-05-09 12:55,30.20,30.20,100.00,0.00,0.00,0.00,30.26,M,10.00,M,FEW,OVC,M,M,6000.00,7000.00,M,M,M,M,M,M,M,M,M,30.20,KWYS 091255Z AUTO 00000KT 10SM FEW060 OVC070 M01/M01 A3026 RMK AO2,M
WYS,2024-05-09 13:55,37.40,33.80,86.69,40.00,9.00,0.00,30.27,M,10.00,M,BKN,M,M,M,7500.00,M,M,M,M,M,M,M,M,M,M,30.23,KWYS 091355Z AUTO 04009KT 10SM BKN075 03/01 A3027 RMK AO2,M
WYS,2024-05-09 14:55,41.00,33.80,75.33,20.00,11.00,0.00,30.28,M,10.00,16.00,FEW,BKN,M,M,4700.00,6000.00,M,M,M,M,M,M,M,M,M,33.84,KWYS 091455Z AUTO 02011G16KT 10SM FEW047 BKN060 05/01 A3028 RMK AO2,M
WYS,2024-05-09 15:55,42.80,32.00,65.38,30.00,11.00,0.00,30.30,M,10.00,M,BKN,OVC,M,M,5000.00,6000.00,M,M,M,M,M,M,M,M,M,36.11,KWYS 091555Z AUTO 03011KT 10SM BKN050 OVC060 06/00 A3030 RMK AO2,M
WYS,2024-05-09 16:55,44.60,32.00,61.03,10.00,11.00,0.00,30.31,M,10.00,M,SCT,OVC,M,M,4700.00,5500.00,M,M,M,M,M,M,M,M,M,38.39,KWYS 091655Z AUTO 01011KT 10SM SCT047 OVC055 07/00 A3031 RMK AO2,M
WYS,2024-05-09 17:55,48.20,32.00,53.27,30.00,13.00,0.00,30.31,M,10.00,M,SCT,BKN,OVC,M,4500.00,5500.00,7000.00,M,M,M,M,M,M,M,M,42.32,KWYS 091755Z AUTO 03013KT 10SM SCT045 BKN055 OVC070 09/M00 A3031 RMK AO2,M
WYS,2024-05-09 18:55,50.00,30.20,46.31,30.00,17.00,0.00,30.31,M,10.00,M,FEW,BKN,OVC,M,4600.00,5000.00,7000.00,M,M,M,M,M,M,M,M,50.00,KWYS 091855Z AUTO 03017KT 10SM FEW046 BKN050 OVC070 10/M01 A3031 RMK AO2,M
WYS,2024-05-09 19:55,48.20,30.20,49.53,360.00,19.00,0.00,30.31,M,10.00,M,FEW,SCT,BKN,M,4200.00,5000.00,6500.00,M,M,M,M,M,M,M,M,40.86,KWYS 091955Z AUTO 36019KT 10SM FEW042 SCT050 BKN065 09/M01 A3031 RMK AO2,M
WYS,2024-05-09 20:55,50.00,28.40,43.03,360.00,14.00,0.00,30.32,M,10.00,21.00,BKN,OVC,M,M,7000.00,8000.00,M,M,M,M,M,M,M,M,M,50.00,KWYS 092055Z AUTO 36014G21KT 10SM BKN070 OVC080 10/M02 A3032 RMK AO2,M
WYS,2024-05-09 21:55,50.00,30.20,46.31,40.00,15.00,0.00,30.32,M,10.00,22.00,SCT,BKN,OVC,M,4900.00,5500.00,8000.00,M,M,M,M,M,M,M,M,50.00,KWYS 092155Z AUTO 04015G22KT 10SM SCT049 BKN055 OVC080 10/M01 A3032 RMK AO2,M
WYS,2024-05-09 22:55,50.00,30.20,46.31,40.00,18.00,0.00,30.33,M,10.00,M,FEW,SCT,OVC,M,4600.00,5500.00,6500.00,M,M,M,M,M,M,M,M,50.00,KWYS 092255Z AUTO 04018KT 10SM FEW046 SCT055 OVC065 10/M01 A3033 RMK AO2,M
WYS,2024-05-09 23:55,48.20,32.00,53.27,20.00,14.00,0.00,30.34,M,10.00,21.00,SCT,BKN,OVC,M,4800.00,5500.00,7500.00,M,M,M,M,M,M,M,M,42.04,KWYS 092355Z AUTO 02014G21KT 10SM SCT048 BKN055 OVC075 09/M00 A3034 RMK AO2,M
WYS,2024-05-10 00:55,44.60,35.60,70.48,M,5.00,0.00,30.36,M,10.00,12.00,BKN,BKN,OVC,M,3400.00,4900.00,8000.00,M,M,M,M,M,M,M,M,41.36,KWYS 100055Z AUTO VRB05G12KT 10SM BKN034 BKN049 OVC080 07/02 A3036 RMK AO2,M
WYS,2024-05-10 01:55,44.60,33.80,65.61,20.00,10.00,0.00,30.37,M,10.00,M,OVC,M,M,M,7000.00,M,M,M,M,M,M,M,M,M,M,38.77,KWYS 100155Z AUTO 02010KT 10SM OVC070 07/01 A3037 RMK AO2,M
WYS,2024-05-10 02:55,41.00,32.00,70.08,30.00,7.00,0.00,30.38,M,10.00,M,SCT,SCT,M,M,6000.00,7000.00,M,M,M,M,M,M,M,M,M,35.75,KWYS 100255Z AUTO 03007KT 10SM SCT060 SCT070 05/00 A3038 RMK AO2,M
WYS,2024-05-10 03:55,39.20,33.80,80.79,20.00,7.00,0.00,30.39,M,10.00,M,CLR,M,M,M,M,M,M,M,M,M,M,M,M,M,M,33.56,KWYS 100355Z AUTO 02007KT 10SM CLR 04/01 A3039 RMK AO2,M
WYS,2024-05-10 04:55,33.80,33.80,100.00,0.00,0.00,0.00,30.39,M,10.00,M,CLR,M,M,M,M,M,M,M,M,M,M,M,M,M,M,33.80,KWYS 100455Z AUTO 00000KT 10SM CLR 01/01 A3039 RMK AO2,M
WYS,2024-05-10 05:55,30.20,30.20,100.00,0.00,0.00,0.00,30.39,M,10.00,M,CLR,M,M,M,M,M,M,M,M,M,M,M,M,M,M,30.20,KWYS 100555Z AUTO 00000KT 10SM CLR M01/M01 A3039 RMK AO2,M
WYS,2024-05-10 06:55,26.60,26.60,100.00,200.00,5.00,0.00,30.37,M,10.00,M,CLR,M,M,M,M,M,M,M,M,M,M,M,M,M,M,19.98,KWYS 100655Z AUTO 20005KT 10SM CLR M03/M03 A3037 RMK AO2,M
WYS,2024-05-10 07:55,26.60,26.60,100.00,0.00,0.00,0.00,30.36,M,10.00,M,CLR,M,M,M,M,M,M,M,M,M,M,M,M,M,M,26.60,KWYS 100755Z AUTO 00000KT 10SM CLR M03/M03 A3036 RMK AO2,M
WYS,2024-05-10 08:55,26.60,26.60,100.00,0.00,0.00,0.00,30.36,M,10.00,M,CLR,M,M,M,M,M,M,M,M,M,M,M,M,M,M,26.60,KWYS 100855Z AUTO 00000KT 10SM CLR M03/M03 A3036 RMK AO2,M
WYS,2024-05-10 09:35,26.60,26.60,100.00,0.00,0.00,0.00,30.36,M,10.00,M,CLR,M,M,M,M,M,M,M,M,M,M,M,M,M,M,26.60,KWYS 100935Z AUTO 00000KT 10SM CLR M03/M03 A3036 RMK AO2,M
WYS,2024-05-10 10:55,24.80,24.80,100.00,210.00,3.00,0.00,30.37,M,10.00,M,CLR,M,M,M,M,M,M,M,M,M,M,M,M,M,M,20.46,KWYS 101055Z AUTO 21003KT 10SM CLR M04/M04 A3037 RMK AO2,M
WYS,2024-05-10 11:55,23.00,23.00,100.00,0.00,0.00,0.00,30.36,M,10.00,M,CLR,M,M,M,M,M,M,M,M,M,M,M,M,M,M,23.00,KWYS 101155Z AUTO 00000KT 10SM CLR M05/M05 A3036 RMK AO2,M
WYS,2024-05-10 12:55,24.80,24.80,100.00,0.00,0.00,0.00,30.37,M,10.00,M,CLR,M,M,M,M,M,M,M,M,M,M,M,M,M,M,24.80,KWYS 101255Z AUTO 00000KT 10SM CLR M04/M04 A3037 RMK AO2,M
WYS,2024-05-10 13:55,33.80,33.80,100.00,0.00,0.00,0.00,30.37,M,10.00,M,CLR,M,M,M,M,M,M,M,M,M,M,M,M,M,M,33.80,KWYS 101355Z AUTO 00000KT 10SM CLR 01/01 A3037 RMK AO2,M
WYS,2024-05-10 14:55,41.00,33.80,75.33,0.00,0.00,0.00,30.36,M,10.00,M,CLR,M,M,M,M,M,M,M,M,M,M,M,M,M,M,41.00,KWYS 101455Z AUTO 00000KT 10SM CLR 05/01 A3036 RMK AO2,M
WYS,2024-05-10 15:55,46.40,33.80,61.28,M,5.00,0.00,30.35,M,10.00,M,CLR,M,M,M,M,M,M,M,M,M,M,M,M,M,M,43.50,KWYS 101555Z AUTO VRB05KT 10SM CLR 08/01 A3035 RMK AO2,M
WYS,2024-05-10 16:55,50.00,30.20,46.31,M,3.00,0.00,30.32,M,10.00,M,CLR,M,M,M,M,M,M,M,M,M,M,M,M,M,M,50.00,KWYS 101655Z AUTO VRB03KT 10SM CLR 10/M01 A3032 RMK AO2,M
WYS,2024-05-10 17:55,51.80,26.60,37.38,0.00,0.00,0.00,30.30,M,10.00,M,CLR,M,M,M,M,M,M,M,M,M,M,M,M,M,M,51.80,KWYS 101755Z AUTO 00000KT 10SM CLR 11/M03 A3030 RMK AO2,M
WYS,2024-05-10 18:55,55.40,24.80,30.40,M,4.00,0.00,30.28,M,10.00,M,BKN,BKN,M,M,6000.00,7000.00,M,M,M,M,M,M,M,M,M,55.40,KWYS 101855Z AUTO VRB04KT 10SM BKN060 BKN070 13/M04 A3028 RMK AO2,M
WYS,2024-05-10 19:55,59.00,24.80,26.70,70.00,7.00,0.00,30.25,M,10.00,M,CLR,M,M,M,M,M,M,M,M,M,M,M,M,M,M,59.00,KWYS 101955Z AUTO 07007KT 10SM CLR 15/M04 A3025 RMK AO2,M
WYS,2024-05-10 20:55,59.00,24.80,26.70,M,4.00,0.00,30.22,M,10.00,10.00,FEW,M,M,M,7500.00,M,M,M,M,M,M,M,M,M,M,59.00,KWYS 102055Z AUTO VRB04G10KT 10SM FEW075 15/M04 A3022 RMK AO2,M
WYS,2024-05-10 21:55,60.80,24.80,25.04,60.00,6.00,0.00,30.20,M,10.00,12.00,FEW,M,M,M,8000.00,M,M,M,M,M,M,M,M,M,M,60.80,KWYS 102155Z AUTO 06006G12KT 10SM FEW080 16/M04 A3020 RMK AO2,M
WYS,2024-05-10 22:55,62.60,24.80,23.50,30.00,7.00,0.00,30.17,M,10.00,M,CLR,M,M,M,M,M,M,M,M,M,M,M,M,M,M,62.60,KWYS 102255Z AUTO 03007KT 350V050 10SM CLR 17/M04 A3017 RMK AO2,M
WYS,2024-05-10 23:55,62.60,23.00,21.79,30.00,5.00,0.00,30.16,M,10.00,12.00,CLR,M,M,M,M,M,M,M,M,M,M,M,M,M,M,62.60,KWYS 102355Z AUTO 03005G12KT 10SM CLR 17/M05 A3016 RMK AO2,M
WYS,2024-05-11 00:55,62.60,23.00,21.79,360.00,8.00,0.00,30.14,M,10.00,14.00,CLR,M,M,M,M,M,M,M,M,M,M,M,M,M,M,62.60,KWYS 110055Z AUTO 36008G14KT 10SM CLR 17/M05 A3014 RMK AO2,M
WYS,2024-05-11 01:55,60.80,23.00,23.23,70.00,5.00,0.00,30.14,M,10.00,M,CLR,M,M,M,M,M,M,M,M,M,M,M,M,M,M,60.80,KWYS 110155Z AUTO 07005KT 10SM CLR 16/M05 A3014 RMK AO2,M
WYS,2024-05-11 02:55,51.80,24.80,34.69,0.00,0.00,0.00,30.15,M,10.00,M,CLR,M,M,M,M,M,M,M,M,M,M,M,M,M,M,51.80,KWYS 110255Z AUTO 00000KT 10SM CLR 11/M04 A3015 RMK AO2,M
WYS,2024-05-11 03:55,42.80,30.20,60.79,0.00,0.00,0.00,30.17,M,10.00,M,CLR,M,M,M,M,M,M,M,M,M,M,M,M,M,M,42.80,KWYS 110355Z AUTO 00000KT 10SM CLR 06/M01 A3017 RMK AO2,M
WYS,2024-05-11 04:55,37.40,28.40,69.67,0.00,0.00,0.00,30.18,M,10.00,M,CLR,M,M,M,M,M,M,M,M,M,M,M,M,M,M,37.40,KWYS 110455Z AUTO 00000KT 10SM CLR 03/M02 A3018 RMK AO2,M
WYS,2024-05-11 05:55,33.80,30.20,86.49,0.00,0.00,0.00,30.17,M,10.00,M,CLR,M,M,M,M,M,M,M,M,M,M,M,M,M,M,33.80,KWYS 110555Z AUTO 00000KT 10SM CLR 01/M01 A3017 RMK AO2,M
WYS,2024-05-11 06:55,30.20,28.40,92.92,0.00,0.00,0.00,30.17,M,10.00,M,CLR,M,M,M,M,M,M,M,M,M,M,M,M,M,M,30.20,KWYS 110655Z AUTO 00000KT 10SM CLR M01/M02 A3017 RMK AO2,M
WYS,2024-05-11 07:55,28.40,28.40,100.00,0.00,0.00,0.00,30.16,M,10.00,M,CLR,M,M,M,M,M,M,M,M,M,M,M,M,M,M,28.40,KWYS 110755Z AUTO 00000KT 10SM CLR M02/M02 A3016 RMK AO2,M
WYS,2024-05-11 08:55,26.60,26.60,100.00,0.00,0.00,0.00,30.16,M,10.00,M,CLR,M,M,M,M,M,M,M,M,M,M,M,M,M,M,26.60,KWYS 110855Z AUTO 00000KT 10SM CLR M03/M03 A3016 RMK AO2,M
WYS,2024-05-11 09:55,26.60,26.60,100.00,0.00,0.00,0.00,30.15,M,10.00,M,CLR,M,M,M,M,M,M,M,M,M,M,M,M,M,M,26.60,KWYS 110955Z AUTO 00000KT 10SM CLR M03/M03 A3015 RMK AO2,M
WYS,2024-05-11 10:55,26.60,26.60,100.00,0.00,0.00,0.00,30.14,M,10.00,M,CLR,M,M,M,M,M,M,M,M,M,M,M,M,M,M,26.60,KWYS 111055Z AUTO 00000KT 10SM CLR M03/M03 A3014 RMK AO2,M
WYS,2024-05-11 11:55,24.80,24.80,100.00,0.00,0.00,0.00,30.14,M,10.00,M,CLR,M,M,M,M,M,M,M,M,M,M,M,M,M,M,24.80,KWYS 111155Z AUTO 00000KT 10SM CLR M04/M04 A3014 RMK AO2,M
WYS,2024-05-11 12:55,26.60,26.60,100.00,0.00,0.00,0.00,30.14,M,10.00,M,CLR,M,M,M,M,M,M,M,M,M,M,M,M,M,M,26.60,KWYS 111255Z AUTO 00000KT 10SM CLR M03/M03 A3014 RMK AO2,M
WYS,2024-05-11 13:55,35.60,32.00,86.59,0.00,0.00,0.00,30.15,M,10.00,M,CLR,M,M,M,M,M,M,M,M,M,M,M,M,M,M,35.60,KWYS 111355Z AUTO 00000KT 10SM CLR 02/M00 A3015 RMK AO2,M
WYS,2024-05-11 14:55,41.00,32.00,70.08,0.00,0.00,0.00,30.14,M,10.00,M,CLR,M,M,M,M,M,M,M,M,M,M,M,M,M,M,41.00,KWYS 111455Z AUTO 00000KT 10SM CLR 05/M00 A3014 RMK AO2,M
WYS,2024-05-11 15:55,50.00,30.20,46.31,0.00,0.00,0.00,30.11,M,10.00,M,CLR,M,M,M,M,M,M,M,M,M,M,M,M,M,M,50.00,KWYS 111555Z AUTO 00000KT 10SM CLR 10/M01 A3011 RMK AO2,M
WYS,2024-05-11 16:55,55.40,28.40,35.28,0.00,0.00,0.00,30.09,M,10.00,M,CLR,M,M,M,M,M,M,M,M,M,M,M,M,M,M,55.40,KWYS 111655Z AUTO 00000KT 10SM CLR 13/M02 A3009 RMK AO2,M
WYS,2024-05-11 17:55,60.80,28.40,29.06,M,5.00,0.00,30.07,M,10.00,11.00,CLR,M,M,M,M,M,M,M,M,M,M,M,M,M,M,60.80,KWYS 111755Z AUTO VRB05G11KT 10SM CLR 16/M02 A3007 RMK AO2,M
WYS,2024-05-11 18:55,62.60,26.60,25.32,M,6.00,0.00,30.06,M,10.00,11.00,CLR,M,M,M,M,M,M,M,M,M,M,M,M,M,M,62.60,KWYS 111855Z AUTO VRB06G11KT 10SM CLR 17/M03 A3006 RMK AO2,M
WYS,2024-05-11 19:55,64.40,26.60,23.77,M,5.00,0.00,30.03,M,10.00,13.00,CLR,M,M,M,M,M,M,M,M,M,M,M,M,M,M,64.40,KWYS 111955Z AUTO VRB05G13KT 10SM CLR 18/M03 A3003 RMK AO2,M
WYS,2024-05-11 20:55,62.60,23.00,21.79,M,5.00,0.00,30.02,M,10.00,10.00,FEW,M,M,M,8500.00,M,M,M,M,M,M,M,M,M,M,62.60,KWYS 112055Z AUTO VRB05G10KT 10SM FEW085 17/M05 A3002 RMK AO2,M
WYS,2024-05-11 21:55,64.40,21.20,18.96,M,3.00,0.00,30.00,M,10.00,13.00,CLR,M,M,M,M,M,M,M,M,M,M,M,M,M,M,64.40,KWYS 112155Z AUTO VRB03G13KT 10SM CLR 18/M06 A3000 RMK AO2,M
WYS,2024-05-11 22:55,66.20,15.80,14.13,310.00,4.00,0.00,29.99,M,10.00,13.00,CLR,M,M,M,M,M,M,M,M,M,M,M,M,M,M,66.20,KWYS 112255Z AUTO 31004G13KT 10SM CLR 19/M09 A2999 RMK AO2,M
WYS,2024-05-11 23:55,66.20,15.80,14.13,330.00,9.00,0.00,29.99,M,10.00,M,CLR,M,M,M,M,M,M,M,M,M,M,M,M,M,M,66.20,KWYS 112355Z AUTO 33009KT 10SM CLR 19/M09 A2999 RMK AO2,M
WYS,2024-05-12 00:55,64.40,19.40,17.56,330.00,7.00,0.00,29.99,M,10.00,13.00,CLR,M,M,M,M,M,M,M,M,M,M,M,M,M,M,64.40,KWYS 120055Z AUTO 33007G13KT 10SM CLR 18/M07 A2999 RMK AO2,M
WYS,2024-05-12 01:55,60.80,24.80,25.04,360.00,4.00,0.00,30.00,M,10.00,M,CLR,M,M,M,M,M,M,M,M,M,M,M,M,M,M,60.80,KWYS 120155Z AUTO 36004KT 10SM CLR 16/M04 A3000 RMK AO2,M
WYS,2024-05-12 02:55,51.80,28.40,40.25,0.00,0.00,0.00,30.00,M,10.00,M,CLR,M,M,M,M,M,M,M,M,M,M,M,M,M,M,51.80,KWYS 120255Z AUTO 00000KT 10SM CLR 11/M02 A3000 RMK AO2,M
WYS,2024-05-12 03:55,42.80,30.20,60.79,0.00,0.00,0.00,30.03,M,10.00,M,CLR,M,M,M,M,M,M,M,M,M,M,M,M,M,M,42.80,KWYS 120355Z AUTO 00000KT 10SM CLR 06/M01 A3003 RMK AO2,M
WYS,2024-05-12 04:55,39.20,30.20,69.88,0.00,0.00,0.00,30.03,M,10.00,M,CLR,M,M,M,M,M,M,M,M,M,M,M,M,M,M,39.20,KWYS 120455Z AUTO 00000KT 10SM CLR 04/M01 A3003 RMK AO2,M
WYS,2024-05-12 05:55,35.60,28.40,74.80,0.00,0.00,0.00,30.03,M,10.00,M,CLR,M,M,M,M,M,M,M,M,M,M,M,M,M,M,35.60,KWYS 120555Z AUTO 00000KT 10SM CLR 02/M02 A3003 RMK AO2,M
WYS,2024-05-12 06:55,32.00,30.20,92.97,0.00,0.00,0.00,30.03,M,10.00,M,CLR,M,M,M,M,M,M,M,M,M,M,M,M,M,M,32.00,KWYS 120655Z AUTO 00000KT 10SM CLR M00/M01 A3003 RMK AO2,M
WYS,2024-05-12 07:55,28.40,28.40,100.00,0.00,0.00,0.00,30.04,M,10.00,M,CLR,M,M,M,M,M,M,M,M,M,M,M,M,M,M,28.40,KWYS 120755Z AUTO 00000KT 10SM CLR M02/M02 A3004 RMK AO2,M
WYS,2024-05-12 08:55,28.40,28.40,100.00,0.00,0.00,0.00,30.04,M,10.00,M,CLR,M,M,M,M,M,M,M,M,M,M,M,M,M,M,28.40,KWYS 120855Z AUTO 00000KT 10SM CLR M02/M02 A3004 RMK AO2,M
WYS,2024-05-12 09:55,26.60,26.60,100.00,0.00,0.00,0.00,30.05,M,10.00,M,BKN,M,M,M,8500.00,M,M,M,M,M,M,M,M,M,M,26.60,KWYS 120955Z AUTO 00000KT 10SM BKN085 M03/M03 A3005 RMK AO2,M
WYS,2024-05-12 10:55,26.60,26.60,100.00,230.00,4.00,0.00,30.06,M,10.00,M,CLR,M,M,M,M,M,M,M,M,M,M,M,M,M,M,21.11,KWYS 121055Z AUTO 23004KT 10SM CLR M03/M03 A3006 RMK AO2,M
WYS,2024-05-12 11:55,24.80,24.80,100.00,0.00,0.00,0.00,30.06,M,10.00,M,CLR,M,M,M,M,M,M,M,M,M,M,M,M,M,M,24.80,KWYS 121155Z AUTO 00000KT 10SM CLR M04/M04 A3006 RMK AO2,M
WYS,2024-05-12 12:55,28.40,28.40,100.00,0.00,0.00,0.00,30.08,M,10.00,M,CLR,M,M,M,M,M,M,M,M,M,M,M,M,M,M,28.40,KWYS 121255Z AUTO 00000KT 10SM CLR M02/M02 A3008 RMK AO2,M
WYS,2024-05-12 13:55,35.60,32.00,86.59,0.00,0.00,0.00,30.08,M,10.00,M,CLR,M,M,M,M,M,M,M,M,M,M,M,M,M,M,35.60,KWYS 121355Z AUTO 00000KT 10SM CLR 02/00 A3008 RMK AO2,M
WYS,2024-05-12 14:55,42.80,30.20,60.79,70.00,3.00,0.00,30.07,M,10.00,M,CLR,M,M,M,M,M,M,M,M,M,M,M,M,M,M,41.03,KWYS 121455Z AUTO 07003KT 10SM CLR 06/M01 A3007 RMK AO2,M
WYS,2024-05-12 15:55,50.00,30.20,46.31,0.00,0.00,0.00,30.06,M,10.00,M,CLR,M,M,M,M,M,M,M,M,M,M,M,M,M,M,50.00,KWYS 121555Z AUTO 00000KT 10SM CLR 10/M01 A3006 RMK AO2,M
WYS,2024-05-12 16:55,59.00,30.20,33.35,0.00,0.00,0.00,30.04,M,10.00,M,CLR,M,M,M,M,M,M,M,M,M,M,M,M,M,M,59.00,KWYS 121655Z AUTO 00000KT 10SM CLR 15/M01 A3004 RMK AO2,M
WYS,2024-05-12 17:55,62.60,28.40,27.27,260.00,7.00,0.00,30.03,M,10.00,M,FEW,M,M,M,7000.00,M,M,M,M,M,M,M,M,M,M,62.60,KWYS 121755Z AUTO 26007KT 220V300 10SM FEW070 17/M02 A3003 RMK AO2,M
WYS,2024-05-12 18:55,64.40,28.40,25.60,210.00,11.00,0.00,30.01,M,10.00,18.00,BKN,BKN,M,M,7500.00,9000.00,M,M,M,M,M,M,M,M,M,64.40,KWYS 121855Z AUTO 21011G18KT 10SM BKN075 BKN090 18/M02 A3001 RMK AO2,M
WYS,2024-05-12 19:55,66.20,26.60,22.33,280.00,9.00,0.00,30.00,M,10.00,14.00,FEW,M,M,M,8000.00,M,M,M,M,M,M,M,M,M,M,66.20,KWYS 121955Z AUTO 28009G14KT 10SM FEW080 19/M03 A3000 RMK AO2,M
WYS,2024-05-12 20:55,68.00,26.60,20.98,200.00,10.00,0.00,29.98,M,10.00,M,FEW,M,M,M,9000.00,M,M,M,M,M,M,M,M,M,M,68.00,KWYS 122055Z AUTO 20010KT 10SM FEW090 20/M03 A2998 RMK AO2,M
WYS,2024-05-12 21:55,66.20,23.00,19.22,240.00,9.00,0.00,29.98,M,10.00,15.00,BKN,M,M,M,9500.00,M,M,M,M,M,M,M,M,M,M,66.20,KWYS 122155Z AUTO 24009G15KT 210V280 10SM BKN095 19/M05 A2998 RMK AO2,M
WYS,2024-05-12 22:55,68.00,21.20,16.74,0.00,0.00,0.00,29.97,M,10.00,12.00,SCT,M,M,M,10000.00,M,M,M,M,M,M,M,M,M,M,68.00,KWYS 122255Z AUTO 00000G12KT 10SM SCT100 20/M06 A2997 RMK AO2,M
WYS,2024-05-12 23:55,69.80,21.20,15.73,M,6.00,0.00,29.96,M,10.00,12.00,SCT,M,M,M,11000.00,M,M,M,M,M,M,M,M,M,M,69.80,KWYS 122355Z AUTO VRB06G12KT 10SM SCT110 21/M06 A2996 RMK AO2,M
WYS,2024-05-13 00:55,66.20,30.20,25.88,M,6.00,0.00,29.96,M,10.00,M,SCT,M,M,M,10000.00,M,M,M,M,M,M,M,M,M,M,66.20,KWYS 130055Z AUTO VRB06KT 10SM SCT100 19/M01 A2996 RMK AO2,M
WYS,2024-05-13 01:55,62.60,32.00,31.56,230.00,7.00,0.00,29.97,M,10.00,M,BKN,M,M,M,10000.00,M,M,M,M,M,M,M,M,M,M,62.60,KWYS 130155Z AUTO 23007KT 10SM BKN100 17/00 A2997 RMK AO2,M
WYS,2024-05-13 02:55,57.20,33.80,41.13,220.00,10.00,0.00,29.98,M,10.00,M,FEW,M,M,M,11000.00,M,M,M,M,M,M,M,M,M,M,57.20,KWYS 130255Z AUTO 22010KT 10SM FEW110 14/01 A2998 RMK AO2,M
WYS,2024-05-13 03:55,55.40,33.80,43.90,220.00,8.00,0.00,30.00,M,10.00,M,FEW,M,M,M,11000.00,M,M,M,M,M,M,M,M,M,M,55.40,KWYS 130355Z AUTO 22008KT 10SM FEW110 13/01 A3000 RMK AO2,M
WYS,2024-05-13 04:55,50.00,35.60,57.52,190.00,4.00,0.00,30.00,M,10.00,M,CLR,M,M,M,M,M,M,M,M,M,M,M,M,M,M,50.00,KWYS 130455Z AUTO 19004KT 10SM CLR 10/02 A3000 RMK AO2,M
WYS,2024-05-13 05:55,44.60,35.60,70.48,0.00,0.00,0.00,30.00,M,10.00,M,CLR,M,M,M,M,M,M,M,M,M,M,M,M,M,M,44.60,KWYS 130555Z AUTO 00000KT 10SM CLR 07/02 A3000 RMK AO2,M
WYS,2024-05-13 06:55,39.20,35.60,86.79,0.00,0.00,0.00,30.00,M,10.00,M,FEW,M,M,M,10000.00,M,M,M,M,M,M,M,M,M,M,39.20,KWYS 130655Z AUTO 00000KT 10SM FEW100 04/02 A3000 RMK AO2,M
WYS,2024-05-13 07:55,41.00,35.60,80.93,0.00,0.00,0.00,30.00,M,10.00,M,BKN,OVC,M,M,8500.00,11000.00,M,M,M,M,M,M,M,M,M,41.00,KWYS 130755Z AUTO 00000KT 10SM BKN085 OVC110 05/02 A3000 RMK AO2,M
WYS,2024-05-13 08:55,39.20,39.20,100.00,0.00,0.00,0.00,30.01,M,10.00,M,BKN,M,M,M,9000.00,M,M,M,M,M,M,M,M,M,M,39.20,KWYS 130855Z AUTO 00000KT 10SM BKN090 04/04 A3001 RMK AO2,M
WYS,2024-05-13 09:55,37.40,37.40,100.00,0.00,0.00,0.00,30.01,M,10.00,M,FEW,SCT,OVC,M,4600.00,7000.00,9000.00,M,M,M,M,M,M,M,M,37.40,KWYS 130955Z AUTO 00000KT 10SM FEW046 SCT070 OVC090 03/03 A3001 RMK AO2,M
WYS,2024-05-13 10:55,33.80,33.80,100.00,0.00,0.00,0.00,30.01,M,10.00,M,SCT,M,M,M,10000.00,M,M,M,M,M,M,M,M,M,M,33.80,KWYS 131055Z AUTO 00000KT 10SM SCT100 01/01 A3001 RMK AO2,M
WYS,2024-05-13 11:55,32.00,32.00,100.00,0.00,0.00,0.00,30.02,M,10.00,M,BKN,M,M,M,10000.00,M,M,M,M,M,M,M,M,M,M,32.00,KWYS 131155Z AUTO 00000KT 10SM BKN100 M00/M00 A3002 RMK AO2,M
WYS,2024-05-13 12:55,35.60,35.60,100.00,0.00,0.00,0.00,30.03,M,10.00,M,SCT,M,M,M,10000.00,M,M,M,M,M,M,M,M,M,M,35.60,KWYS 131255Z AUTO 00000KT 10SM SCT100 02/02 A3003 RMK AO2,M
WYS,2024-05-13 13:55,42.80,37.40,81.07,0.00,0.00,0.00,30.04,M,10.00,M,SCT,M,M,M,10000.00,M,M,M,M,M,M,M,M,M,M,42.80,KWYS 131355Z AUTO 00000KT 10SM SCT100 06/03 A3004 RMK AO2,M
WYS,2024-05-13 14:55,48.20,37.40,66.05,0.00,0.00,0.00,30.04,M,10.00,M,FEW,M,M,M,10000.00,M,M,M,M,M,M,M,M,M,M,48.20,KWYS 131455Z AUTO 00000KT 10SM FEW100 09/03 A3004 RMK AO2,M
WYS,2024-05-13 15:55,55.40,37.40,50.64,290.00,4.00,0.00,30.03,M,10.00,M,SCT,M,M,M,10000.00,M,M,M,M,M,M,M,M,M,M,55.40,KWYS 131555Z AUTO 29004KT 10SM SCT100 13/03 A3003 RMK AO2,M
WYS,2024-05-13 16:55,60.80,33.80,36.16,260.00,5.00,0.00,30.01,M,10.00,M,FEW,M,M,M,10000.00,M,M,M,M,M,M,M,M,M,M,60.80,KWYS 131655Z AUTO 26005KT 10SM FEW100 16/01 A3001 RMK AO2,M
WYS,2024-05-13 17:55,60.80,35.60,38.85,M,5.00,0.00,30.01,M,10.00,16.00,FEW,SCT,BKN,M,6000.00,9000.00,11000.00,M,M,M,M,M,M,M,M,60.80,KWYS 131755Z AUTO VRB05G16KT 10SM FEW060 SCT090 BKN110 16/02 A3001 RMK AO2,M
WYS,2024-05-13 18:55,64.40,32.00,29.63,230.00,10.00,0.00,29.99,M,10.00,21.00,FEW,FEW,M,M,6000.00,7500.00,M,M,M,M,M,M,M,M,M,64.40,KWYS 131855Z AUTO 23010G21KT 200V270 10SM FEW060 FEW075 18/M00 A2999 RMK AO2,M
WYS,2024-05-13 19:55,66.20,21.20,17.81,M,6.00,0.00,29.97,M,10.00,19.00,FEW,M,M,M,9000.00,M,M,M,M,M,M,M,M,M,M,66.20,KWYS 131955Z AUTO VRB06G19KT 160V260 10SM FEW090 19/M06 A2997 RMK AO2,M
WYS,2024-05-13 20:55,59.00,21.20,22.95,220.00,14.00,0.00,29.97,M,10.00,23.00,BKN,M,M,M,10000.00,M,M,M,M,M,M,M,M,M,M,59.00,KWYS 132055Z AUTO 22014G23KT 10SM BKN100 15/M06 A2997 RMK AO2,M
WYS,2024-05-13 21:55,55.40,32.00,40.84,230.00,15.00,0.00,29.98,M,10.00,25.00,CLR,M,M,M,M,M,M,M,M,M,M,M,M,M,M,55.40,KWYS 132155Z AUTO 23015G25KT 10SM CLR 13/M00 A2998 RMK AO2,M
WYS,2024-05-13 22:55,53.60,33.80,46.88,M,5.00,0.00,30.01,M,10.00,16.00,FEW,BKN,M,M,6000.00,7500.00,M,M,M,M,M,M,M,M,M,53.60,KWYS 132255Z AUTO VRB05G16KT 10SM FEW060 BKN075 12/01 A3001 RMK AO2,M
WYS,2024-05-13 23:55,53.60,35.60,50.36,180.00,7.00,0.00,29.99,M,10.00,M,FEW,SCT,M,M,8500.00,12000.00,M,M,M,M,M,M,M,M,M,53.60,KWYS 132355Z AUTO 18007KT 10SM FEW085 SCT120 12/02 A2999 RMK AO2,M
WYS,2024-05-14 00:55,51.80,37.40,57.77,0.00,0.00,0.00,29.98,M,10.00,M,SCT,OVC,M,M,7000.00,8500.00,M,M,M,M,M,M,M,M,M,51.80,KWYS 140055Z AUTO 00000KT 10SM SCT070 OVC085 11/03 A2998 RMK AO2,M
WYS,2024-05-14 01:55,51.80,35.60,53.81,170.00,9.00,0.00,29.97,M,10.00,M,FEW,SCT,BKN,M,3700.00,6500.00,10000.00,M,M,M,M,M,M,M,M,51.80,KWYS 140155Z AUTO 17009KT 10SM FEW037 SCT065 BKN100 11/02 A2997 RMK AO2,M
WYS,2024-05-14 02:55,46.40,37.40,70.68,230.00,4.00,0.00,29.98,M,10.00,M,FEW,BKN,M,M,9500.00,12000.00,M,M,M,M,M,M,M,M,M,44.24,KWYS 140255Z AUTO 23004KT 10SM FEW095 BKN120 08/03 A2998 RMK AO2,M
WYS,2024-05-14 03:55,48.20,37.40,66.05,0.00,0.00,0.00,30.01,M,10.00,M,BKN,BKN,OVC,M,6000.00,7000.00,12000.00,M,M,M,M,M,M,M,M,48.20,KWYS 140355Z AUTO 00000KT 10SM BKN060 BKN070 OVC120 09/03 A3001 RMK AO2,M
WYS,2024-05-14 04:55,46.40,39.20,75.84,240.00,6.00,0.00,30.01,M,10.00,M,BKN,BKN,OVC,M,6000.00,8500.00,12000.00,M,M,M,M,M,M,M,M,42.87,KWYS 140455Z AUTO 24006KT 10SM BKN060 BKN085 OVC120 08/04 A3001 RMK AO2,M
WYS,2024-05-14 05:55,46.40,42.80,87.19,210.00,5.00,0.00,30.00,M,10.00,M,SCT,OVC,M,M,5500.00,7000.00,M,M,M,M,M,M,M,M,M,43.50,KWYS 140555Z AUTO 21005KT 10SM SCT055 OVC070 08/06 A3000 RMK AO2,M
WYS,2024-05-14 06:55,44.60,44.60,100.00,220.00,5.00,0.00,30.00,M,10.00,M,BKN,OVC,M,M,6500.00,7500.00,M,M,M,M,M,M,M,M,M,41.36,KWYS 140655Z AUTO 22005KT 10SM BKN065 OVC075 07/07 A3000 RMK AO2,M
WYS,2024-05-14 07:55,42.80,42.80,100.00,220.00,7.00,0.00,30.00,M,10.00,M,OVC,M,M,M,6500.00,M,M,M,M,M,M,M,M,M,M,37.94,KWYS 140755Z AUTO 22007KT 10SM OVC065 06/06 A3000 RMK AO2,M
WYS,2024-05-14 08:55,41.00,41.00,100.00,0.00,0.00,0.00,29.99,M,10.00,M,SCT,BKN,OVC,M,6000.00,7500.00,9500.00,M,M,M,M,M,M,M,M,41.00,KWYS 140855Z AUTO 00000KT 10SM SCT060 BKN075 OVC095 05/05 A2999 RMK AO2,M
WYS,2024-05-14 09:55,39.20,39.20,100.00,210.00,3.00,0.00,30.00,M,10.00,M,OVC,M,M,M,9000.00,M,M,M,M,M,M,M,M,M,M,36.92,KWYS 140955Z AUTO 21003KT 10SM OVC090 04/04 A3000 RMK AO2,M
WYS,2024-05-14 10:55,37.40,37.40,100.00,M,4.00,0.00,30.00,M,10.00,M,OVC,M,M,M,8500.00,M,M,M,M,M,M,M,M,M,M,33.73,KWYS 141055Z AUTO VRB04KT 10SM OVC085 03/03 A3000 RMK AO2,M
WYS,2024-05-14 11:55,35.60,37.40,M,220.00,5.00,0.00,30.01,M,10.00,M,OVC,M,M,M,6000.00,M,M,M,M,M,M,M,M,M,M,M,KWYS 141155Z AUTO 22005KT 10SM OVC060 02/03 A3001 RMK AO2,M
WYS,2024-05-14 12:55,41.00,41.00,100.00,210.00,3.00,0.00,30.02,M,10.00,M,OVC,M,M,M,1200.00,M,M,M,M,M,M,M,M,M,M,38.98,KWYS 141255Z AUTO 21003KT 10SM OVC012 05/05 A3002 RMK AO2,M
WYS,2024-05-14 13:55,41.00,41.00,100.00,0.00,0.00,0.00,30.04,M,10.00,M,OVC,M,M,M,1400.00,M,M,M,M,M,M,M,M,M,M,41.00,KWYS 141355Z AUTO 00000KT 10SM OVC014 05/05 A3004 RMK AO2,M
WYS,2024-05-14 14:55,41.00,41.00,100.00,0.00,0.00,0.01,30.05,M,5.00,M,SCT,BKN,OVC,M,1500.00,2000.00,2700.00,M,-RA,M,M,M,M,M,M,41.00,KWYS 141455Z AUTO 00000KT 5SM -RA SCT015 BKN020 OVC027 05/05 A3005 RMK AO2 P0001,M
WYS,2024-05-14 15:55,41.00,41.00,100.00,0.00,0.00,0.06,30.07,M,2.50,M,FEW,BKN,OVC,M,600.00,1900.00,2500.00,M,-RA,M,M,M,M,M,M,41.00,KWYS 141555Z AUTO 00000KT 2 1/2SM -RA FEW006 BKN019 OVC025 05/05 A3007 RMK AO2 P0006,M
WYS,2024-05-14 16:55,39.20,39.20,100.00,180.00,3.00,0.08,30.07,M,5.00,M,FEW,FEW,M,M,2300.00,2900.00,M,M,-RA,M,M,M,M,M,M,36.92,KWYS 141655Z AUTO 18003KT 5SM -RA FEW023 FEW029 04/04 A3007 RMK AO2 P0008,M
WYS,2024-05-14 17:55,41.00,41.00,100.00,150.00,4.00,0.01,30.07,M,10.00,M,BKN,OVC,M,M,600.00,1200.00,M,M,M,M,M,M,M,M,M,37.93,KWYS 141755Z AUTO 15004KT 10SM BKN006 OVC012 05/05 A3007 RMK AO2 P0001,M
WYS,2024-05-14 18:55,42.80,42.80,100.00,170.00,4.00,0.00,30.06,M,10.00,M,SCT,M,M,M,1200.00,M,M,M,M,M,M,M,M,M,M,40.03,KWYS 141855Z AUTO 17004KT 10SM SCT012 06/06 A3006 RMK AO2,M
WYS,2024-05-14 19:55,44.60,41.00,87.09,0.00,0.00,0.00,30.05,M,10.00,M,FEW,M,M,M,1700.00,M,M,M,M,M,M,M,M,M,M,44.60,KWYS 141955Z AUTO 00000KT 10SM FEW017 07/05 A3005 RMK AO2,M
WYS,2024-05-14 20:55,51.80,39.20,61.99,20.00,5.00,0.00,30.04,M,10.00,M,SCT,SCT,BKN,M,2800.00,3900.00,7500.00,M,M,M,M,M,M,M,M,51.80,KWYS 142055Z AUTO 02005KT 10SM SCT028 SCT039 BKN075 11/04 A3004 RMK AO2,M
WYS,2024-05-14 21:55,46.40,46.40,100.00,0.00,0.00,0.01,30.04,M,4.00,M,FEW,SCT,SCT,M,1500.00,2500.00,3200.00,M,-RA,M,M,M,M,M,M,46.40,KWYS 142155Z AUTO 00000KT 4SM -RA FEW015 SCT025 SCT032 08/08 A3004 RMK AO2 P0001,M
WYS,2024-05-14 22:55,48.20,39.20,70.88,20.00,14.00,0.00,30.04,M,10.00,M,FEW,SCT,BKN,M,3200.00,4200.00,4800.00,M,M,M,M,M,M,M,M,42.04,KWYS 142255Z AUTO 02014KT 320V050 10SM FEW032 SCT042 BKN048 09/04 A3004 RMK AO2,M
WYS,2024-05-14 23:55,48.20,39.20,70.88,0.00,0.00,0.01,30.04,M,10.00,M,FEW,SCT,M,M,5500.00,9000.00,M,M,M,M,M,M,M,M,M,48.20,KWYS 142355Z AUTO 00000KT 10SM FEW055 SCT090 09/04 A3004 RMK AO2 P0001,M
WYS,2024-05-15 00:55,44.60,41.00,87.09,M,6.00,0.01,30.05,M,2.50,17.00,FEW,SCT,BKN,M,2300.00,3100.00,3900.00,M,-RA,M,M,M,M,M,M,40.71,KWYS 150055Z AUTO VRB06G17KT 2 1/2SM -RA FEW023 SCT031 BKN039 07/05 A3005 RMK AO2 P0001 VIS 1 1/2V3,M
WYS,2024-05-15 01:55,46.40,44.60,93.40,0.00,0.00,0.00,30.06,M,10.00,M,OVC,M,M,M,9000.00,M,M,M,M,M,M,M,M,M,M,46.40,KWYS 150155Z AUTO 00000KT 10SM OVC090 08/07 A3006 RMK AO2,M
WYS,2024-05-15 02:55,42.80,42.80,100.00,160.00,4.00,0.00,30.07,M,10.00,M,BKN,M,M,M,8500.00,M,M,M,M,M,M,M,M,M,M,40.03,KWYS 150255Z AUTO 16004KT 10SM BKN085 06/06 A3007 RMK AO2,M
WYS,2024-05-15 03:55,41.00,41.00,100.00,0.00,0.00,0.00,30.10,M,10.00,M,OVC,M,M,M,6000.00,M,M,M,M,M,M,M,M,M,M,41.00,KWYS 150355Z AUTO 00000KT 10SM OVC060 05/05 A3010 RMK AO2,M
WYS,2024-05-15 04:55,41.00,41.00,100.00,0.00,0.00,0.00,30.10,M,10.00,M,BKN,BKN,OVC,M,4800.00,5500.00,7000.00,M,M,M,M,M,M,M,M,41.00,KWYS 150455Z AUTO 00000KT 10SM BKN048 BKN055 OVC070 05/05 A3010 RMK AO2,M
WYS,2024-05-15 05:55,35.60,35.60,100.00,0.00,0.00,0.00,30.10,M,10.00,M,FEW,FEW,SCT,M,6500.00,8000.00,9000.00,M,M,M,M,M,M,M,M,35.60,KWYS 150555Z AUTO 00000KT 10SM FEW065 FEW080 SCT090 02/02 A3010 RMK AO2,M
WYS,2024-05-15 06:55,33.80,33.80,100.00,220.00,3.00,0.00,30.10,M,10.00,M,SCT,OVC,M,M,7000.00,8000.00,M,M,M,M,M,M,M,M,M,30.75,KWYS 150655Z AUTO 22003KT 10SM SCT070 OVC080 01/01 A3010 RMK AO2,M
WYS,2024-05-15 07:55,32.00,32.00,100.00,210.00,4.00,0.00,30.09,M,10.00,M,SCT,BKN,OVC,M,6500.00,8000.00,9000.00,M,M,M,M,M,M,M,M,27.42,KWYS 150755Z AUTO 21004KT 10SM SCT065 BKN080 OVC090 M00/M00 A3009 RMK AO2,M
WYS,2024-05-15 08:55,33.80,33.80,100.00,0.00,0.00,0.00,30.10,M,10.00,M,FEW,SCT,OVC,M,2900.00,6000.00,7500.00,M,M,M,M,M,M,M,M,33.80,KWYS 150855Z AUTO 00000KT 10SM FEW029 SCT060 OVC075 01/01 A3010 RMK AO2,M
WYS,2024-05-15 09:55,33.80,33.80,100.00,0.00,0.00,0.00,30.10,M,10.00,M,FEW,BKN,OVC,M,3900.00,6000.00,9000.00,M,M,M,M,M,M,M,M,33.80,KWYS 150955Z AUTO 00000KT 10SM FEW039 BKN060 OVC090 01/01 A3010 RMK AO2,M
WYS,2024-05-15 10:55,33.80,33.80,100.00,0.00,0.00,0.00,30.11,M,10.00,M,SCT,BKN,OVC,M,4600.00,5000.00,6500.00,M,M,M,M,M,M,M,M,33.80,KWYS 151055Z AUTO 00000KT 10SM SCT046 BKN050 OVC065 01/01 A3011 RMK AO2,M
WYS,2024-05-15 11:55,32.00,32.00,100.00,0.00,0.00,0.00,30.11,M,10.00,M,SCT,BKN,M,M,4800.00,6000.00,M,M,M,M,M,M,M,M,M,32.00,KWYS 151155Z AUTO 00000KT 10SM SCT048 BKN060 M00/M00 A3011 RMK AO2,M
WYS,2024-05-15 12:50,32.00,32.00,100.00,0.00,0.00,0.00,30.12,M,10.00,M,OVC,M,M,M,5000.00,M,M,M,M,M,M,M,M,M,M,32.00,KWYS 151250Z AUTO 00000KT 10SM OVC050 00/00 A3012 RMK AO2,M
WYS,2024-05-15 13:55,37.40,37.40,100.00,0.00,0.00,0.00,30.13,M,10.00,M,BKN,M,M,M,800.00,M,M,M,M,M,M,M,M,M,M,37.40,KWYS 151355Z AUTO 00000KT 10SM BKN008 03/03 A3013 RMK AO2,M
WYS,2024-05-15 14:55,42.80,42.80,100.00,0.00,0.00,0.00,30.13,M,10.00,M,FEW,M,M,M,900.00,M,M,M,M,M,M,M,M,M,M,42.80,KWYS 151455Z AUTO 00000KT 10SM FEW009 06/06 A3013 RMK AO2,M
WYS,2024-05-15 15:55,46.40,41.00,81.34,0.00,0.00,0.00,30.12,M,10.00,M,CLR,M,M,M,M,M,M,M,M,M,M,M,M,M,M,46.40,KWYS 151555Z AUTO 00000KT 10SM CLR 08/05 A3012 RMK AO2,M
WYS,2024-05-15 16:55,50.00,35.60,57.52,0.00,0.00,0.00,30.11,M,10.00,M,FEW,FEW,SCT,M,4100.00,4700.00,6000.00,M,M,M,M,M,M,M,M,50.00,KWYS 151655Z AUTO 00000KT 10SM FEW041 FEW047 SCT060 10/02 A3011 RMK AO2,M
WYS,2024-05-15 17:55,51.80,32.00,46.59,0.00,0.00,0.00,30.11,M,10.00,M,SCT,OVC,M,M,4500.00,5500.00,M,M,M,M,M,M,M,M,M,51.80,KWYS 151755Z AUTO 00000KT 10SM SCT045 OVC055 11/00 A3011 RMK AO2,M
WYS,2024-05-15 18:55,53.60,32.00,43.61,M,5.00,0.00,30.09,M,10.00,12.00,BKN,BKN,BKN,M,5500.00,6500.00,7500.00,M,M,M,M,M,M,M,M,53.60,KWYS 151855Z AUTO VRB05G12KT 10SM BKN055 BKN065 BKN075 12/M00 A3009 RMK AO2,M
WYS,2024-05-15 19:55,55.40,28.40,35.28,0.00,0.00,0.00,30.08,M,10.00,M,FEW,BKN,M,M,6000.00,8000.00,M,M,M,M,M,M,M,M,M,55.40,KWYS 151955Z AUTO 00000KT 10SM FEW060 BKN080 13/M02 A3008 RMK AO2,M
WYS,2024-05-15 20:55,59.00,28.40,30.98,M,4.00,0.00,30.06,M,10.00,15.00,SCT,M,M,M,7000.00,M,M,M,M,M,M,M,M,M,M,59.00,KWYS 152055Z AUTO VRB04G15KT 10SM SCT070 15/M02 A3006 RMK AO2,M
WYS,2024-05-15 21:55,59.00,28.40,30.98,230.00,8.00,0.00,30.04,M,10.00,17.00,BKN,BKN,M,M,7000.00,8000.00,M,M,M,M,M,M,M,M,M,59.00,KWYS 152155Z AUTO 23008G17KT 10SM BKN070 BKN080 15/M02 A3004 RMK AO2,M
WYS,2024-05-15 22:55,59.00,28.40,30.98,M,6.00,0.00,30.03,M,10.00,12.00,BKN,OVC,M,M,7000.00,8000.00,M,M,M,M,M,M,M,M,M,59.00,KWYS 152255Z AUTO VRB06G12KT 10SM BKN070 OVC080 15/M02 A3003 RMK AO2,M
WYS,2024-05-15 23:55,60.80,28.40,29.06,270.00,8.00,0.00,30.03,M,10.00,M,BKN,OVC,M,M,7500.00,8000.00,M,M,M,M,M,M,M,M,M,60.80,KWYS 152355Z AUTO 27008KT 240V300 10SM BKN075 OVC080 16/M02 A3003 RMK AO2,M
WYS,2024-05-16 00:55,59.00,26.60,28.77,340.00,8.00,0.00,30.04,M,10.00,13.00,BKN,BKN,M,M,7500.00,8500.00,M,M,M,M,M,M,M,M,M,59.00,KWYS 160055Z AUTO 34008G13KT 310V030 10SM BKN075 BKN085 15/M03 A3004 RMK AO2,M
WYS,2024-05-16 01:55,55.40,30.20,37.97,0.00,0.00,0.00,30.03,M,10.00,M,SCT,M,M,M,9000.00,M,M,M,M,M,M,M,M,M,M,55.40,KWYS 160155Z AUTO 00000KT 10SM SCT090 13/M01 A3003 RMK AO2,M
WYS,2024-05-16 02:55,50.00,35.60,57.52,0.00,0.00,0.00,30.03,M,10.00,M,SCT,M,M,M,8500.00,M,M,M,M,M,M,M,M,M,M,50.00,KWYS 160255Z AUTO 00000KT 10SM SCT085 10/02 A3003 RMK AO2,M
WYS,2024-05-16 03:55,44.60,35.60,70.48,190.00,3.00,0.00,30.05,M,10.00,M,SCT,M,M,M,12000.00,M,M,M,M,M,M,M,M,M,M,43.09,KWYS 160355Z AUTO 19003KT 10SM SCT120 07/02 A3005 RMK AO2,M
WYS,2024-05-16 04:55,42.80,33.80,70.28,220.00,4.00,0.00,30.05,M,10.00,M,CLR,M,M,M,M,M,M,M,M,M,M,M,M,M,M,40.03,KWYS 160455Z AUTO 22004KT 10SM CLR 06/01 A3005 RMK AO2,M
WYS,2024-05-16 05:55,39.20,33.80,80.79,0.00,0.00,0.00,30.04,M,10.00,M,CLR,M,M,M,M,M,M,M,M,M,M,M,M,M,M,39.20,KWYS 160555Z AUTO 00000KT 10SM CLR 04/01 A3004 RMK AO2,M
WYS,2024-05-16 06:55,37.40,35.60,93.14,220.00,3.00,0.00,30.05,M,10.00,M,CLR,M,M,M,M,M,M,M,M,M,M,M,M,M,M,34.86,KWYS 160655Z AUTO 22003KT 10SM CLR 03/02 A3005 RMK AO2,M
WYS,2024-05-16 07:55,35.60,35.60,100.00,0.00,0.00,0.00,30.04,M,10.00,M,CLR,M,M,M,M,M,M,M,M,M,M,M,M,M,M,35.60,KWYS 160755Z AUTO 00000KT 10SM CLR 02/02 A3004 RMK AO2,M
WYS,2024-05-16 08:55,32.00,32.00,100.00,0.00,0.00,0.00,30.03,M,10.00,M,CLR,M,M,M,M,M,M,M,M,M,M,M,M,M,M,32.00,KWYS 160855Z AUTO 00000KT 10SM CLR M00/M00 A3003 RMK AO2,M
WYS,2024-05-16 09:55,28.40,28.40,100.00,0.00,0.00,0.00,30.03,M,10.00,M,CLR,M,M,M,M,M,M,M,M,M,M,M,M,M,M,28.40,KWYS 160955Z AUTO 00000KT 10SM CLR M02/M02 A3003 RMK AO2,M
WYS,2024-05-16 10:55,28.40,28.40,100.00,0.00,0.00,0.00,30.03,M,10.00,M,CLR,M,M,M,M,M,M,M,M,M,M,M,M,M,M,28.40,KWYS 161055Z AUTO 00000KT 10SM CLR M02/M02 A3003 RMK AO2,M
WYS,2024-05-16 11:55,28.40,28.40,100.00,0.00,0.00,0.00,30.03,M,10.00,M,CLR,M,M,M,M,M,M,M,M,M,M,M,M,M,M,28.40,KWYS 161155Z AUTO 00000KT 10SM CLR M02/M02 A3003 RMK AO2,M
WYS,2024-05-16 12:55,30.20,30.20,100.00,0.00,0.00,0.00,30.04,M,10.00,M,CLR,M,M,M,M,M,M,M,M,M,M,M,M,M,M,30.20,KWYS 161255Z AUTO 00000KT 10SM CLR M01/M01 A3004 RMK AO2,M
WYS,2024-05-16 13:55,33.80,33.80,100.00,0.00,0.00,0.00,30.05,M,10.00,M,CLR,M,M,M,M,M,M,M,M,M,M,M,M,M,M,33.80,KWYS 161355Z AUTO 00000KT 10SM CLR 01/01 A3005 RMK AO2,M
WYS,2024-05-16 14:55,39.20,39.20,100.00,0.00,0.00,0.00,30.03,M,10.00,M,CLR,M,M,M,M,M,M,M,M,M,M,M,M,M,M,39.20,KWYS 161455Z AUTO 00000KT 10SM CLR 04/04 A3003 RMK AO2,M
WYS,2024-05-16 15:55,51.80,33.80,50.08,220.00,7.00,0.00,30.00,M,10.00,14.00,CLR,M,M,M,M,M,M,M,M,M,M,M,M,M,M,51.80,KWYS 161555Z AUTO 22007G14KT 10SM CLR 11/01 A3000 RMK AO2,M
WYS,2024-05-16 16:55,55.40,33.80,43.90,230.00,11.00,0.00,29.99,M,10.00,M,CLR,M,M,M,M,M,M,M,M,M,M,M,M,M,M,55.40,KWYS 161655Z AUTO 23011KT 10SM CLR 13/01 A2999 RMK AO2,M
WYS,2024-05-16 17:55,59.00,33.80,38.56,240.00,10.00,0.00,29.97,M,10.00,16.00,CLR,M,M,M,M,M,M,M,M,M,M,M,M,M,M,59.00,KWYS 161755Z AUTO 24010G16KT 220V280 10SM CLR 15/01 A2997 RMK AO2,M
WYS,2024-05-16 18:55,60.80,35.60,38.85,210.00,20.00,0.00,29.95,M,10.00,M,CLR,M,M,M,M,M,M,M,M,M,M,M,M,M,M,60.80,KWYS 161855Z AUTO 21020KT 10SM CLR 16/02 A2995 RMK AO2,M
WYS,2024-05-16 19:55,62.60,32.00,31.56,230.00,16.00,0.00,29.93,M,10.00,27.00,CLR,M,M,M,M,M,M,M,M,M,M,M,M,M,M,62.60,KWYS 161955Z AUTO 23016G27KT 10SM CLR 17/00 A2993 RMK AO2,M
WYS,2024-05-16 20:55,64.40,35.60,34.22,230.00,17.00,0.00,29.90,M,10.00,28.00,SCT,M,M,M,9500.00,M,M,M,M,M,M,M,M,M,M,64.40,KWYS 162055Z AUTO 23017G28KT 10SM SCT095 18/02 A2990 RMK AO2,M
WYS,2024-05-16 21:55,64.40,33.80,31.85,220.00,16.00,0.00,29.88,M,10.00,23.00,FEW,M,M,M,9000.00,M,M,M,M,M,M,M,M,M,M,64.40,KWYS 162155Z AUTO 22016G23KT 10SM FEW090 18/01 A2988 RMK AO2,M
WYS,2024-05-16 22:55,62.60,37.40,39.14,220.00,14.00,0.00,29.86,M,10.00,21.00,FEW,FEW,M,M,8000.00,9000.00,M,M,M,M,M,M,M,M,M,62.60,KWYS 162255Z AUTO 22014G21KT 10SM FEW080 FEW090 17/03 A2986 RMK AO2,M
WYS,2024-05-16 23:55,64.40,35.60,34.22,210.00,21.00,0.00,29.84,M,10.00,30.00,FEW,M,M,M,8000.00,M,M,M,M,M,M,M,M,M,M,64.40,KWYS 162355Z AUTO 21021G30KT 10SM FEW080 18/02 A2984 RMK AO2,M
WYS,2024-05-17 00:55,62.60,33.80,33.93,210.00,18.00,0.00,29.83,M,10.00,23.00,FEW,M,M,M,9000.00,M,M,M,M,M,M,M,M,M,M,62.60,KWYS 170055Z AUTO 21018G23KT 10SM FEW090 17/01 A2983 RMK AO2,M
WYS,2024-05-17 01:55,60.80,35.60,38.85,200.00,11.00,0.00,29.82,M,10.00,17.00,BKN,OVC,M,M,10000.00,12000.00,M,M,M,M,M,M,M,M,M,60.80,KWYS 170155Z AUTO 20011G17KT 10SM BKN100 OVC120 16/02 A2982 RMK AO2,M
WYS,2024-05-17 02:55,59.00,32.00,35.87,210.00,17.00,0.00,29.81,M,10.00,22.00,OVC,M,M,M,9000.00,M,M,M,M,M,M,M,M,M,M,59.00,KWYS 170255Z AUTO 21017G22KT 10SM OVC090 15/00 A2981 RMK AO2,M
WYS,2024-05-17 03:55,55.40,32.00,40.84,200.00,13.00,0.00,29.82,M,10.00,M,FEW,M,M,M,9500.00,M,M,M,M,M,M,M,M,M,M,55.40,KWYS 170355Z AUTO 20013KT 10SM FEW095 13/00 A2982 RMK AO2,M
WYS,2024-05-17 04:55,51.80,32.00,46.59,200.00,9.00,0.00,29.83,M,10.00,M,CLR,M,M,M,M,M,M,M,M,M,M,M,M,M,M,51.80,KWYS 170455Z AUTO 20009KT 10SM CLR 11/00 A2983 RMK AO2,M
WYS,2024-05-17 05:55,51.80,32.00,46.59,190.00,8.00,0.00,29.83,M,10.00,M,CLR,M,M,M,M,M,M,M,M,M,M,M,M,M,M,51.80,KWYS 170555Z AUTO 19008KT 10SM CLR 11/00 A2983 RMK AO2,M
WYS,2024-05-17 06:55,50.00,32.00,49.81,180.00,10.00,0.00,29.82,M,10.00,M,CLR,M,M,M,M,M,M,M,M,M,M,M,M,M,M,50.00,KWYS 170655Z AUTO 18010KT 10SM CLR 10/M00 A2982 RMK AO2,M
WYS,2024-05-17 07:55,48.20,32.00,53.27,230.00,6.00,0.00,29.82,M,10.00,M,CLR,M,M,M,M,M,M,M,M,M,M,M,M,M,M,45.04,KWYS 170755Z AUTO 23006KT 10SM CLR 09/00 A2982 RMK AO2,M
WYS,2024-05-17 08:55,46.40,33.80,61.28,210.00,9.00,0.00,29.81,M,10.00,M,CLR,M,M,M,M,M,M,M,M,M,M,M,M,M,M,41.42,KWYS 170855Z AUTO 21009KT 10SM CLR 08/01 A2981 RMK AO2,M
WYS,2024-05-17 09:55,44.60,35.60,70.48,230.00,6.00,0.00,29.80,M,10.00,M,CLR,M,M,M,M,M,M,M,M,M,M,M,M,M,M,40.71,KWYS 170955Z AUTO 23006KT 10SM CLR 07/02 A2980 RMK AO2,M
WYS,2024-05-17 10:35,42.80,37.40,81.07,210.00,10.00,0.00,29.79,M,10.00,M,CLR,M,M,M,M,M,M,M,M,M,M,M,M,M,M,36.51,KWYS 171035Z AUTO 21010KT 10SM CLR 06/03 A2979 RMK AO2,M
WYS,2024-05-17 11:55,42.80,37.40,81.07,160.00,9.00,0.00,29.77,M,10.00,M,CLR,M,M,M,M,M,M,M,M,M,M,M,M,M,M,36.94,KWYS 171155Z AUTO 16009KT 10SM CLR 06/03 A2977 RMK AO2,M
WYS,2024-05-17 12:55,44.60,35.60,70.48,0.00,0.00,0.00,29.77,M,10.00,M,CLR,M,M,M,M,M,M,M,M,M,M,M,M,M,M,44.60,KWYS 171255Z AUTO 00000KT 10SM CLR 07/02 A2977 RMK AO2,M
WYS,2024-05-17 13:55,51.80,37.40,57.77,220.00,15.00,0.00,29.75,M,10.00,21.00,CLR,M,M,M,M,M,M,M,M,M,M,M,M,M,M,51.80,KWYS 171355Z AUTO 22015G21KT 10SM CLR 11/03 A2975 RMK AO2,M
WYS,2024-05-17 14:55,53.60,37.40,54.07,220.00,21.00,0.00,29.74,M,10.00,M,CLR,M,M,M,M,M,M,M,M,M,M,M,M,M,M,53.60,KWYS 171455Z AUTO 22021KT 10SM CLR 12/03 A2974 RMK AO2,M
WYS,2024-05-17 15:55,57.20,35.60,44.19,220.00,23.00,0.00,29.74,M,10.00,30.00,CLR,M,M,M,M,M,M,M,M,M,M,M,M,M,M,57.20,KWYS 171555Z AUTO 22023G30KT 10SM CLR 14/02 A2974 RMK AO2,M
WYS,2024-05-17 16:55,59.00,33.80,38.56,220.00,25.00,0.00,29.72,M,10.00,30.00,FEW,M,M,M,5000.00,M,M,M,M,M,M,M,M,M,M,59.00,KWYS 171655Z AUTO 22025G30KT 10SM FEW050 15/01 A2972 RMK AO2,M
WYS,2024-05-17 17:55,57.20,28.40,33.05,230.00,17.00,0.00,29.72,M,10.00,25.00,SCT,BKN,M,M,7500.00,9000.00,M,M,M,M,M,M,M,M,M,57.20,KWYS 171755Z AUTO 23017G25KT 10SM SCT075 BKN090 14/M02 A2972 RMK AO2,M
WYS,2024-05-17 18:55,62.60,23.00,21.79,250.00,12.00,0.00,29.71,M,10.00,18.00,FEW,FEW,FEW,M,5000.00,7000.00,9000.00,M,M,M,M,M,M,M,M,62.60,KWYS 171855Z AUTO 25012G18KT 220V290 10SM FEW050 FEW070 FEW090 17/M05 A2971 RMK AO2,M
WYS,2024-05-17 19:55,60.80,12.20,14.58,240.00,16.00,0.00,29.70,M,10.00,36.00,SCT,SCT,M,M,10000.00,12000.00,M,M,M,M,M,M,M,M,M,60.80,KWYS 171955Z AUTO 24016G36KT 10SM SCT100 SCT120 16/M11 A2970 RMK AO2,M
WYS,2024-05-17 20:55,62.60,8.60,11.65,250.00,14.00,0.00,29.70,M,10.00,27.00,CLR,M,M,M,M,M,M,M,M,M,M,M,M,M,M,62.60,KWYS 172055Z AUTO 25014G27KT 230V290 10SM CLR 17/M13 A2970 RMK AO2,M
WYS,2024-05-17 21:55,62.60,8.60,11.65,270.00,14.00,0.00,29.71,M,10.00,29.00,CLR,M,M,M,M,M,M,M,M,M,M,M,M,M,M,62.60,KWYS 172155Z AUTO 27014G29KT 230V300 10SM CLR 17/M13 A2971 RMK AO2,M
WYS,2024-05-17 22:55,60.80,8.60,12.42,250.00,13.00,0.00,29.71,M,10.00,25.00,SCT,M,M,M,11000.00,M,M,M,M,M,M,M,M,M,M,60.80,KWYS 172255Z AUTO 25013G25KT 220V280 10SM SCT110 16/M13 A2971 RMK AO2,M
WYS,2024-05-17 23:55,60.80,5.00,10.55,270.00,18.00,0.00,29.73,M,10.00,35.00,CLR,M,M,M,M,M,M,M,M,M,M,M,M,M,M,60.80,KWYS 172355Z AUTO 27018G35KT 230V300 10SM CLR 16/M15 A2973 RMK AO2,M
WYS,2024-05-18 00:55,57.20,8.60,14.12,280.00,11.00,0.00,29.76,M,10.00,26.00,CLR,M,M,M,M,M,M,M,M,M,M,M,M,M,M,57.20,KWYS 180055Z AUTO 28011G26KT 10SM CLR 14/M13 A2976 RMK AO2,M
WYS,2024-05-18 01:55,51.80,15.80,23.65,300.00,8.00,0.00,29.79,M,10.00,18.00,CLR,M,M,M,M,M,M,M,M,M,M,M,M,M,M,51.80,KWYS 180155Z AUTO 30008G18KT 240V340 10SM CLR 11/M09 A2979 RMK AO2,M
WYS,2024-05-18 02:55,42.80,14.00,30.68,340.00,13.00,0.00,29.88,M,10.00,20.00,CLR,M,M,M,M,M,M,M,M,M,M,M,M,M,M,35.40,KWYS 180255Z AUTO 34013G20KT 10SM CLR 06/M10 A2988 RMK AO2,M
WYS,2024-05-18 03:55,39.20,14.00,35.26,320.00,9.00,0.00,29.94,M,10.00,17.00,CLR,M,M,M,M,M,M,M,M,M,M,M,M,M,M,32.47,KWYS 180355Z AUTO 32009G17KT 10SM CLR 04/M10 A2994 RMK AO2,M
WYS,2024-05-18 04:55,37.40,12.20,34.96,M,4.00,0.00,29.97,M,10.00,10.00,CLR,M,M,M,M,M,M,M,M,M,M,M,M,M,M,33.73,KWYS 180455Z AUTO VRB04G10KT 10SM CLR 03/M11 A2997 RMK AO2,M
WYS,2024-05-18 05:55,33.80,12.20,40.32,0.00,0.00,0.00,30.00,M,10.00,M,CLR,M,M,M,M,M,M,M,M,M,M,M,M,M,M,33.80,KWYS 180555Z AUTO 00000KT 10SM CLR 01/M11 A3000 RMK AO2,M
WYS,2024-05-18 06:55,28.40,12.20,50.17,0.00,0.00,0.00,30.01,M,10.00,M,CLR,M,M,M,M,M,M,M,M,M,M,M,M,M,M,28.40,KWYS 180655Z AUTO 00000KT 10SM CLR M02/M11 A3001 RMK AO2,M
WYS,2024-05-18 07:55,30.20,12.20,46.62,230.00,7.00,0.00,30.01,M,10.00,M,CLR,M,M,M,M,M,M,M,M,M,M,M,M,M,M,22.59,KWYS 180755Z AUTO 23007KT 10SM CLR M01/M11 A3001 RMK AO2,M
WYS,2024-05-18 08:55,28.40,14.00,54.31,0.00,0.00,0.00,30.02,M,10.00,M,CLR,M,M,M,M,M,M,M,M,M,M,M,M,M,M,28.40,KWYS 180855Z AUTO 00000KT 10SM CLR M02/M10 A3002 RMK AO2,M
WYS,2024-05-18 09:55,26.60,17.60,68.40,0.00,0.00,0.00,30.02,M,10.00,M,OVC,M,M,M,10000.00,M,M,M,M,M,M,M,M,M,M,26.60,KWYS 180955Z AUTO 00000KT 10SM OVC100 M03/M08 A3002 RMK AO2,M
WYS,2024-05-18 10:55,30.20,15.80,54.59,220.00,6.00,0.00,30.03,M,10.00,M,OVC,M,M,M,9500.00,M,M,M,M,M,M,M,M,M,M,23.36,KWYS 181055Z AUTO 22006KT 10SM OVC095 M01/M09 A3003 RMK AO2,M
WYS,2024-05-18 11:55,30.20,15.80,54.59,0.00,0.00,0.00,30.03,M,10.00,M,OVC,M,M,M,9000.00,M,M,M,M,M,M,M,M,M,M,30.20,KWYS 181155Z AUTO 00000KT 10SM OVC090 M01/M09 A3003 RMK AO2,M
WYS,2024-05-18 12:55,30.20,17.60,59.01,0.00,0.00,0.00,30.04,M,10.00,M,OVC,M,M,M,8000.00,M,M,M,M,M,M,M,M,M,M,30.20,KWYS 181255Z AUTO 00000KT 10SM OVC080 M01/M08 A3004 RMK AO2,M
WYS,2024-05-18 13:55,37.40,14.00,37.84,220.00,6.00,0.00,30.05,M,10.00,M,CLR,M,M,M,M,M,M,M,M,M,M,M,M,M,M,32.03,KWYS 181355Z AUTO 22006KT 10SM CLR 03/M10 A3005 RMK AO2,M
WYS,2024-05-18 14:55,41.00,14.00,32.88,M,5.00,0.00,30.04,M,10.00,M,CLR,M,M,M,M,M,M,M,M,M,M,M,M,M,M,37.08,KWYS 181455Z AUTO VRB05KT 10SM CLR 05/M10 A3004 RMK AO2,M
WYS,2024-05-18 15:55,44.60,14.00,28.64,220.00,10.00,0.00,30.03,M,10.00,19.00,CLR,M,M,M,M,M,M,M,M,M,M,M,M,M,M,38.77,KWYS 181555Z AUTO 22010G19KT 10SM CLR 07/M10 A3003 RMK AO2,M
WYS,2024-05-18 16:55,44.60,14.00,28.64,210.00,16.00,0.00,30.02,M,10.00,24.00,CLR,M,M,M,M,M,M,M,M,M,M,M,M,M,M,36.84,KWYS 181655Z AUTO 21016G24KT 10SM CLR 07/M10 A3002 RMK AO2,M
WYS,2024-05-18 17:55,48.20,14.00,24.99,210.00,15.00,0.00,30.01,M,10.00,M,CLR,M,M,M,M,M,M,M,M,M,M,M,M,M,M,41.78,KWYS 181755Z AUTO 21015KT 10SM CLR 09/M10 A3001 RMK AO2,M
WYS,2024-05-18 18:55,50.00,14.00,23.37,240.00,12.00,0.00,29.99,M,10.00,25.00,FEW,M,M,M,7000.00,M,M,M,M,M,M,M,M,M,M,50.00,KWYS 181855Z AUTO 24012G25KT 10SM FEW070 10/M10 A2999 RMK AO2,M
WYS,2024-05-18 19:55,53.60,15.80,22.13,210.00,15.00,0.00,29.96,M,10.00,M,FEW,M,M,M,8000.00,M,M,M,M,M,M,M,M,M,M,53.60,KWYS 181955Z AUTO 21015KT 10SM FEW080 12/M09 A2996 RMK AO2,M
WYS,2024-05-18 20:55,53.60,17.60,23.93,240.00,19.00,0.00,29.94,M,10.00,29.00,CLR,M,M,M,M,M,M,M,M,M,M,M,M,M,M,53.60,KWYS 182055Z AUTO 24019G29KT 10SM CLR 12/M08 A2994 RMK AO2,M
WYS,2024-05-18 21:55,55.40,15.80,20.73,210.00,27.00,0.00,29.91,M,10.00,39.00,CLR,M,M,M,M,M,M,M,M,M,M,M,M,M,M,55.40,KWYS 182155Z AUTO 21027G39KT 10SM CLR 13/M09 A2991 RMK AO2,M
WYS,2024-05-18 22:55,57.20,19.40,22.68,220.00,15.00,0.00,29.91,M,10.00,26.00,CLR,M,M,M,M,M,M,M,M,M,M,M,M,M,M,57.20,KWYS 182255Z AUTO 22015G26KT 210V270 10SM CLR 14/M07 A2991 RMK AO2,M
WYS,2024-05-18 23:55,55.40,15.80,20.73,230.00,15.00,0.00,29.89,M,10.00,24.00,CLR,M,M,M,M,M,M,M,M,M,M,M,M,M,M,55.40,KWYS 182355Z AUTO 23015G24KT 10SM CLR 13/M09 A2989 RMK AO2,M
WYS,2024-05-19 00:55,53.60,19.40,25.85,210.00,9.00,0.00,29.87,M,10.00,14.00,FEW,M,M,M,9500.00,M,M,M,M,M,M,M,M,M,M,53.60,KWYS 190055Z AUTO 21009G14KT 10SM FEW095 12/M07 A2987 RMK AO2,M
WYS,2024-05-19 01:55,51.80,23.00,32.17,200.00,4.00,0.00,29.86,M,10.00,M,BKN,M,M,M,10000.00,M,M,M,M,M,M,M,M,M,M,51.80,KWYS 190155Z AUTO 20004KT 10SM BKN100 11/M05 A2986 RMK AO2,M
WYS,2024-05-19 02:55,48.20,24.80,39.66,210.00,4.00,0.00,29.85,M,10.00,M,CLR,M,M,M,M,M,M,M,M,M,M,M,M,M,M,46.34,KWYS 190255Z AUTO 21004KT 10SM CLR 09/M04 A2985 RMK AO2,M
WYS,2024-05-19 03:55,50.00,21.20,31.87,220.00,8.00,0.00,29.85,M,10.00,M,OVC,M,M,M,11000.00,M,M,M,M,M,M,M,M,M,M,50.00,KWYS 190355Z AUTO 22008KT 10SM OVC110 10/M06 A2985 RMK AO2,M
WYS,2024-05-19 04:55,48.20,23.00,36.78,200.00,4.00,0.00,29.86,M,10.00,M,FEW,OVC,M,M,7000.00,9500.00,M,M,M,M,M,M,M,M,M,46.34,KWYS 190455Z AUTO 20004KT 10SM FEW070 OVC095 09/M05 A2986 RMK AO2,M
WYS,2024-05-19 05:55,46.40,23.00,39.36,200.00,10.00,0.00,29.85,M,10.00,M,SCT,OVC,M,M,7500.00,9500.00,M,M,M,M,M,M,M,M,M,41.03,KWYS 190555Z AUTO 20010KT 10SM SCT075 OVC095 08/M05 A2985 RMK AO2,M
WYS,2024-05-19 06:55,48.20,23.00,36.78,200.00,8.00,0.00,29.84,M,10.00,M,FEW,FEW,OVC,M,4900.00,6500.00,7500.00,M,M,M,M,M,M,M,M,44.07,KWYS 190655Z AUTO 20008KT 10SM FEW049 FEW065 OVC075 09/M05 A2984 RMK AO2,M
WYS,2024-05-19 07:55,46.40,23.00,39.36,190.00,6.00,0.00,29.84,M,10.00,M,FEW,BKN,OVC,M,6000.00,7000.00,8000.00,M,M,M,M,M,M,M,M,42.87,KWYS 190755Z AUTO 19006KT 10SM FEW060 BKN070 OVC080 08/M05 A2984 RMK AO2,M
WYS,2024-05-19 08:55,44.60,26.60,48.96,220.00,3.00,0.00,29.81,M,10.00,M,OVC,M,M,M,7500.00,M,M,M,M,M,M,M,M,M,M,43.09,KWYS 190855Z AUTO 22003KT 10SM OVC075 07/M03 A2981 RMK AO2,M
WYS,2024-05-19 09:55,44.60,24.80,45.44,80.00,6.00,0.00,29.80,M,10.00,12.00,FEW,BKN,OVC,M,6000.00,7500.00,8500.00,M,M,M,M,M,M,M,M,40.71,KWYS 190955Z AUTO 08006G12KT 10SM FEW060 BKN075 OVC085 07/M04 A2980 RMK AO2,M
WYS,2024-05-19 10:55,42.80,28.40,56.48,120.00,5.00,0.00,29.79,M,10.00,M,SCT,BKN,OVC,M,6500.00,7500.00,9000.00,M,M,M,M,M,M,M,M,39.22,KWYS 191055Z AUTO 12005KT 10SM SCT065 BKN075 OVC090 06/M02 A2979 RMK AO2,M
WYS,2024-05-19 11:55,41.00,30.20,65.16,0.00,0.00,0.00,29.78,M,10.00,M,BKN,OVC,M,M,8000.00,9000.00,M,M,M,M,M,M,M,M,M,41.00,KWYS 191155Z AUTO 00000KT 10SM BKN080 OVC090 05/M01 A2978 RMK AO2,M
WYS,2024-05-19 12:55,37.40,30.20,74.98,0.00,0.00,0.00,29.78,M,10.00,M,BKN,M,M,M,10000.00,M,M,M,M,M,M,M,M,M,M,37.40,KWYS 191255Z AUTO 00000KT 10SM BKN100 03/M01 A2978 RMK AO2,M
WYS,2024-05-19 13:55,46.40,28.40,49.24,210.00,15.00,0.00,29.79,M,10.00,20.00,FEW,SCT,M,M,9000.00,11000.00,M,M,M,M,M,M,M,M,M,39.45,KWYS 191355Z AUTO 21015G20KT 10SM FEW090 SCT110 08/M02 A2979 RMK AO2,M
WYS,2024-05-19 14:55,48.20,23.00,36.78,250.00,11.00,0.00,29.81,M,10.00,17.00,SCT,M,M,M,9000.00,M,M,M,M,M,M,M,M,M,M,42.94,KWYS 191455Z AUTO 25011G17KT 10SM SCT090 09/M05 A2981 RMK AO2,M
WYS,2024-05-19 15:55,46.40,23.00,39.36,240.00,12.00,0.00,29.85,M,10.00,18.00,SCT,SCT,M,M,8000.00,9500.00,M,M,M,M,M,M,M,M,M,40.33,KWYS 191555Z AUTO 24012G18KT 10SM SCT080 SCT095 08/M05 A2985 RMK AO2,M
WYS,2024-05-19 16:55,44.60,23.00,42.14,250.00,8.00,0.00,29.88,M,10.00,15.00,OVC,M,M,M,6000.00,M,M,M,M,M,M,M,M,M,M,39.63,KWYS 191655Z AUTO 25008G15KT 10SM OVC060 07/M05 A2988 RMK AO2,M
WYS,2024-05-19 17:55,46.40,21.20,36.48,270.00,9.00,0.00,29.91,M,10.00,22.00,BKN,M,M,M,6000.00,M,M,M,M,M,M,M,M,M,M,41.42,KWYS 191755Z AUTO 27009G22KT 240V320 10SM BKN060 08/M06 A2991 RMK AO2,M
WYS,2024-05-19 18:55,48.20,19.40,31.57,260.00,11.00,0.00,29.92,M,10.00,21.00,CLR,M,M,M,M,M,M,M,M,M,M,M,M,M,M,42.94,KWYS 191855Z AUTO 26011G21KT 220V280 10SM CLR 09/M07 A2992 RMK AO2,M
WYS,2024-05-19 19:55,48.20,17.60,29.23,290.00,10.00,0.00,29.94,M,10.00,16.00,FEW,SCT,M,M,6000.00,7000.00,M,M,M,M,M,M,M,M,M,43.28,KWYS 191955Z AUTO 29010G16KT 260V330 10SM FEW060 SCT070 09/M08 A2994 RMK AO2,M
WYS,2024-05-19 20:55,48.20,19.40,31.57,200.00,10.00,0.00,29.94,M,10.00,15.00,FEW,SCT,BKN,M,3200.00,4200.00,5000.00,M,M,M,M,M,M,M,M,43.28,KWYS 192055Z AUTO 20010G15KT 10SM FEW032 SCT042 BKN050 09/M07 A2994 RMK AO2,M
WYS,2024-05-19 21:55,46.40,23.00,39.36,200.00,17.00,0.00,29.94,M,10.00,M,OVC,M,M,M,6500.00,M,M,M,M,M,M,M,M,M,M,38.94,KWYS 192155Z AUTO 20017KT 10SM OVC065 08/M05 A2994 RMK AO2,M
WYS,2024-05-19 22:55,48.20,24.80,39.66,210.00,12.00,0.00,29.95,M,10.00,18.00,FEW,FEW,FEW,M,4700.00,6000.00,7000.00,M,M,M,M,M,M,M,M,42.62,KWYS 192255Z AUTO 21012G18KT 170V240 10SM FEW047 FEW060 FEW070 09/M04 A2995 RMK AO2,M
WYS,2024-05-19 23:55,46.40,24.80,42.44,190.00,15.00,0.00,29.96,M,10.00,21.00,BKN,OVC,M,M,7000.00,8000.00,M,M,M,M,M,M,M,M,M,39.45,KWYS 192355Z AUTO 19015G21KT 10SM BKN070 OVC080 08/M04 A2996 RMK AO2,M
WYS,2024-05-20 00:55,41.00,28.40,60.54,210.00,17.00,0.00,29.99,M,10.00,M,SCT,SCT,SCT,M,4500.00,6000.00,7500.00,M,M,M,M,M,M,M,M,31.87,KWYS 200055Z AUTO 21017KT 10SM SCT045 SCT060 SCT075 05/M02 A2999 RMK AO2,M
WYS,2024-05-20 01:55,39.20,28.40,64.93,220.00,7.00,0.00,30.00,M,10.00,13.00,SCT,BKN,OVC,M,3500.00,4400.00,5500.00,M,M,M,M,M,M,M,M,33.56,KWYS 200155Z AUTO 22007G13KT 10SM SCT035 BKN044 OVC055 04/M02 A3000 RMK AO2,M
WYS,2024-05-20 02:55,39.20,26.60,60.29,310.00,4.00,0.00,30.01,M,9.00,M,BKN,OVC,M,M,2600.00,3300.00,M,M,-UP,M,M,M,M,M,M,35.83,KWYS 200255Z AUTO 31004KT 9SM -UP BKN026 OVC033 04/M03 A3001 RMK AO2,M
WYS,2024-05-20 03:55,35.60,32.00,86.59,310.00,3.00,0.00,30.02,M,10.00,M,FEW,SCT,BKN,M,500.00,2000.00,3100.00,M,-UP,M,M,M,M,M,M,32.80,KWYS 200355Z AUTO 31003KT 10SM -UP FEW005 SCT020 BKN031 02/00 A3002 RMK AO2,M
WYS,2024-05-20 04:55,35.60,35.60,100.00,0.00,0.00,0.00,30.02,M,10.00,M,SCT,OVC,M,M,1800.00,2400.00,M,M,M,M,M,M,M,M,M,35.60,KWYS 200455Z AUTO 00000KT 10SM SCT018 OVC024 02/02 A3002 RMK AO2,M
WYS,2024-05-20 05:55,33.80,33.80,100.00,0.00,0.00,0.00,30.01,M,10.00,M,FEW,BKN,OVC,M,600.00,4600.00,6500.00,M,M,M,M,M,M,M,M,33.80,KWYS 200555Z AUTO 00000KT 10SM FEW006 BKN046 OVC065 01/01 A3001 RMK AO2,M
WYS,2024-05-20 06:55,32.00,32.00,100.00,0.00,0.00,0.00,30.01,M,10.00,M,BKN,OVC,M,M,6500.00,7500.00,M,M,M,M,M,M,M,M,M,32.00,KWYS 200655Z AUTO 00000KT 10SM BKN065 OVC075 00/00 A3001 RMK AO2,M
WYS,2024-05-20 07:55,32.00,32.00,100.00,0.00,0.00,0.00,30.01,M,10.00,M,SCT,BKN,OVC,M,2500.00,3100.00,4100.00,M,M,M,M,M,M,M,M,32.00,KWYS 200755Z AUTO 00000KT 10SM SCT025 BKN031 OVC041 00/00 A3001 RMK AO2,M
WYS,2024-05-20 08:55,28.40,28.40,100.00,0.00,0.00,0.00,29.98,M,10.00,M,FEW,FEW,BKN,M,3600.00,6500.00,9000.00,M,M,M,M,M,M,M,M,28.40,KWYS 200855Z AUTO 00000KT 10SM FEW036 FEW065 BKN090 M02/M02 A2998 RMK AO2,M
WYS,2024-05-20 09:55,28.40,28.40,100.00,0.00,0.00,0.00,29.97,M,10.00,M,BKN,M,M,M,3700.00,M,M,M,M,M,M,M,M,M,M,28.40,KWYS 200955Z AUTO 00000KT 10SM BKN037 M02/M02 A2997 RMK AO2,M
WYS,2024-05-20 10:55,26.60,26.60,100.00,0.00,0.00,0.00,29.96,M,10.00,M,BKN,BKN,M,M,3800.00,7500.00,M,M,M,M,M,M,M,M,M,26.60,KWYS 201055Z AUTO 00000KT 10SM BKN038 BKN075 M03/M03 A2996 RMK AO2,M
WYS,2024-05-20 11:55,24.80,26.60,M,0.00,0.00,0.00,29.96,M,10.00,M,BKN,M,M,M,7000.00,M,M,M,M,M,M,M,M,M,M,M,KWYS 201155Z AUTO 00000KT 10SM BKN070 M04/M03 A2996 RMK AO2,M
WYS,2024-05-20 12:55,28.40,28.40,100.00,0.00,0.00,0.00,29.97,M,10.00,M,CLR,M,M,M,M,M,M,M,M,M,M,M,M,M,M,28.40,KWYS 201255Z AUTO 00000KT 10SM CLR M02/M02 A2997 RMK AO2,M
WYS,2024-05-20 13:55,33.80,32.00,93.03,110.00,5.00,0.00,29.96,M,10.00,M,OVC,M,M,M,6000.00,M,M,M,M,M,M,M,M,M,M,28.53,KWYS 201355Z AUTO 11005KT 10SM OVC060 01/M00 A2996 RMK AO2,M
WYS,2024-05-20 14:55,37.40,28.40,69.67,30.00,5.00,0.00,29.96,M,10.00,M,SCT,BKN,OVC,M,3700.00,5000.00,6000.00,M,M,M,M,M,M,M,M,32.81,KWYS 201455Z AUTO 03005KT 10SM SCT037 BKN050 OVC060 03/M02 A2996 RMK AO2,M
WYS,2024-05-20 15:55,39.20,21.20,48.10,220.00,6.00,0.00,29.95,M,10.00,M,FEW,BKN,OVC,M,3900.00,4800.00,6000.00,M,M,M,M,M,M,M,M,34.20,KWYS 201555Z AUTO 22006KT 10SM FEW039 BKN048 OVC060 04/M06 A2995 RMK AO2,M
WYS,2024-05-20 16:55,41.00,21.20,44.85,M,4.00,0.00,29.94,M,10.00,11.00,BKN,BKN,BKN,M,4700.00,6000.00,6500.00,M,M,M,M,M,M,M,M,37.93,KWYS 201655Z AUTO VRB04G11KT 10SM BKN047 BKN060 BKN065 05/M06 A2994 RMK AO2,M
WYS,2024-05-20 17:55,42.80,21.20,41.84,230.00,10.00,0.00,29.93,M,10.00,16.00,BKN,BKN,BKN,M,4900.00,5500.00,6500.00,M,M,M,M,M,M,M,M,36.51,KWYS 201755Z AUTO 23010G16KT 10SM BKN049 BKN055 BKN065 06/M06 A2993 RMK AO2,M
WYS,2024-05-20 18:55,39.20,26.60,60.29,210.00,17.00,0.00,29.95,M,6.00,24.00,SCT,SCT,BKN,M,5500.00,7500.00,9000.00,M,HZ,M,M,M,M,M,M,29.51,KWYS 201855Z AUTO 21017G24KT 6SM HZ SCT055 SCT075 BKN090 04/M03 A2995 RMK AO2,M
WYS,2024-05-20 19:55,39.20,32.00,75.16,250.00,10.00,0.00,29.95,M,10.00,15.00,FEW,SCT,BKN,M,2000.00,5000.00,8000.00,M,M,M,M,M,M,M,M,32.00,KWYS 201955Z AUTO 25010G15KT 10SM FEW020 SCT050 BKN080 04/M00 A2995 RMK AO2,M
WYS,2024-05-20 20:55,42.80,26.60,52.45,260.00,10.00,0.00,29.94,M,10.00,M,FEW,FEW,SCT,M,3200.00,4800.00,5500.00,M,M,M,M,M,M,M,M,36.51,KWYS 202055Z AUTO 26010KT 210V320 10SM FEW032 FEW048 SCT055 06/M03 A2994 RMK AO2,M
WYS,2024-05-20 21:55,41.00,28.40,60.54,350.00,10.00,0.00,29.94,M,10.00,M,FEW,BKN,OVC,M,2900.00,3500.00,6000.00,M,M,M,M,M,M,M,M,34.25,KWYS 202155Z AUTO 35010KT 330V030 10SM FEW029 BKN035 OVC060 05/M02 A2994 RMK AO2,M
WYS,2024-05-20 22:55,39.20,26.60,60.29,250.00,5.00,0.00,29.95,M,10.00,M,SCT,BKN,BKN,M,4400.00,5000.00,6000.00,M,M,M,M,M,M,M,M,34.95,KWYS 202255Z AUTO 25005KT 10SM SCT044 BKN050 BKN060 04/M03 A2995 RMK AO2,M
WYS,2024-05-20 23:55,32.00,32.00,100.00,0.00,0.00,0.00,29.97,M,0.50,M,OVC,M,M,M,300.00,M,M,M,-SN,M,M,M,M,M,M,32.00,KWYS 202355Z AUTO 00000KT 1/2SM -SN OVC003 00/00 A2997 RMK AO2,M
WYS,2024-05-21 00:55,32.00,32.00,100.00,160.00,5.00,0.00,29.98,M,2.50,M,FEW,FEW,M,M,300.00,700.00,M,M,-SN,M,M,M,M,M,M,26.40,KWYS 210055Z AUTO 16005KT 2 1/2SM -SN FEW003 FEW007 00/00 A2998 RMK AO2,M
WYS,2024-05-21 01:55,32.00,32.00,100.00,90.00,5.00,0.00,29.99,M,2.00,M,BKN,BKN,OVC,M,400.00,800.00,6000.00,M,-SN,M,M,M,M,M,M,26.40,KWYS 210155Z AUTO 09005KT 2SM -SN BKN004 BKN008 OVC060 00/00 A2999 RMK AO2,M
WYS,2024-05-21 02:55,33.80,33.80,100.00,220.00,3.00,0.00,29.99,M,10.00,M,SCT,BKN,M,M,500.00,11000.00,M,M,M,M,M,M,M,M,M,30.75,KWYS 210255Z AUTO 22003KT 10SM SCT005 BKN110 01/01 A2999 RMK AO2,M
WYS,2024-05-21 03:55,32.00,32.00,100.00,0.00,0.00,0.00,30.00,M,10.00,M,FEW,BKN,M,M,8000.00,11000.00,M,M,M,M,M,M,M,M,M,32.00,KWYS 210355Z AUTO 00000KT 10SM FEW080 BKN110 M00/M00 A3000 RMK AO2,M
WYS,2024-05-21 04:55,30.20,30.20,100.00,240.00,3.00,0.00,30.01,M,10.00,M,CLR,M,M,M,M,M,M,M,M,M,M,M,M,M,M,26.63,KWYS 210455Z AUTO 24003KT 10SM CLR M01/M01 A3001 RMK AO2,M
WYS,2024-05-21 05:55,30.20,30.20,100.00,0.00,0.00,0.00,30.00,M,10.00,M,SCT,BKN,M,M,5000.00,6000.00,M,M,M,M,M,M,M,M,M,30.20,KWYS 210555Z AUTO 00000KT 10SM SCT050 BKN060 M01/M01 A3000 RMK AO2,M
WYS,2024-05-21 06:55,28.40,28.40,100.00,0.00,0.00,0.00,30.00,M,8.00,M,OVC,M,M,M,300.00,M,M,M,M,M,M,M,M,M,M,28.40,KWYS 210655Z AUTO 00000KT 8SM OVC003 M02/M02 A3000 RMK AO2,M
WYS,2024-05-21 07:55,26.60,26.60,100.00,0.00,0.00,0.00,30.00,M,0.50,M,OVC,M,M,M,200.00,M,M,M,BR,M,M,M,M,M,M,26.60,KWYS 210755Z AUTO 00000KT 1/2SM BR OVC002 M03/M03 A3000 RMK AO2,M
WYS,2024-05-21 08:55,26.60,28.40,M,0.00,0.00,0.00,30.00,M,10.00,M,OVC,M,M,M,500.00,M,M,M,M,M,M,M,M,M,M,M,KWYS 210855Z AUTO 00000KT 10SM OVC005 M03/M02 A3000 RMK AO2,M
WYS,2024-05-21 09:55,26.60,26.60,100.00,190.00,3.00,0.00,30.00,M,10.00,M,OVC,M,M,M,400.00,M,M,M,M,M,M,M,M,M,M,22.52,KWYS 210955Z AUTO 19003KT 10SM OVC004 M03/M03 A3000 RMK AO2,M
WYS,2024-05-21 10:55,26.60,26.60,100.00,0.00,0.00,0.00,30.01,M,9.00,M,OVC,M,M,M,300.00,M,M,M,M,M,M,M,M,M,M,26.60,KWYS 211055Z AUTO 00000KT 9SM OVC003 M03/M03 A3001 RMK AO2,M
WYS,2024-05-21 11:55,28.40,28.40,100.00,0.00,0.00,0.00,30.03,M,0.75,M,OVC,M,M,M,300.00,M,M,M,BR,M,M,M,M,M,M,28.40,KWYS 211155Z AUTO 00000KT 3/4SM BR OVC003 M02/M02 A3003 RMK AO2,M
WYS,2024-05-21 12:55,28.40,28.40,100.00,0.00,0.00,0.00,30.03,M,0.25,M,OVC,M,M,M,300.00,M,M,M,FZFG,M,M,M,M,M,M,28.40,KWYS 211255Z AUTO 00000KT M1/4SM FZFG OVC003 M02/M02 A3003 RMK AO2,M
WYS,2024-05-21 13:55,28.40,28.40,100.00,0.00,0.00,0.00,30.04,M,0.25,M,OVC,M,M,M,300.00,M,M,M,FZFG,M,M,M,M,M,M,28.40,KWYS 211355Z AUTO 00000KT 1/4SM FZFG OVC003 M02/M02 A3004 RMK AO2,M
WYS,2024-05-21 14:55,30.20,30.20,100.00,0.00,0.00,0.01,30.05,M,9.00,M,OVC,M,M,M,400.00,M,M,M,M,M,M,M,M,M,M,30.20,KWYS 211455Z AUTO 00000KT 9SM OVC004 M01/M01 A3005 RMK AO2 P0001,M
WYS,2024-05-21 15:55,35.60,35.60,100.00,50.00,3.00,0.00,30.04,M,10.00,M,CLR,M,M,M,M,M,M,M,M,M,M,M,M,M,M,32.80,KWYS 211555Z AUTO 05003KT 10SM CLR 02/02 A3004 RMK AO2,M
WYS,2024-05-21 16:55,41.00,28.40,60.54,M,6.00,0.01,30.03,M,10.00,M,SCT,SCT,M,M,6000.00,7000.00,M,M,M,M,M,M,M,M,M,36.37,KWYS 211655Z AUTO VRB06KT 10SM SCT060 SCT070 05/M02 A3003 RMK AO2 P0001,M
WYS,2024-05-21 17:55,42.80,23.00,45.14,340.00,5.00,0.00,30.03,M,10.00,M,OVC,M,M,M,7000.00,M,M,M,M,M,M,M,M,M,M,39.22,KWYS 211755Z AUTO 34005KT 10SM OVC070 06/M05 A3003 RMK AO2,M
WYS,2024-05-21 18:55,44.60,19.40,36.18,240.00,7.00,0.00,30.01,M,10.00,M,SCT,OVC,M,M,6000.00,7000.00,M,M,M,M,M,M,M,M,M,40.14,KWYS 211855Z AUTO 24007KT 10SM SCT060 OVC070 07/M07 A3001 RMK AO2,M
WYS,2024-05-21 19:55,46.40,17.60,31.28,M,5.00,0.00,30.00,M,10.00,12.00,BKN,OVC,M,M,6000.00,7500.00,M,M,M,M,M,M,M,M,M,43.50,KWYS 211955Z AUTO VRB05G12KT 10SM BKN060 OVC075 08/M08 A3000 RMK AO2,M
WYS,2024-05-21 20:55,48.20,19.40,31.57,M,6.00,0.00,30.00,M,10.00,M,SCT,OVC,M,M,6500.00,8000.00,M,M,M,M,M,M,M,M,M,45.04,KWYS 212055Z AUTO VRB06KT 10SM SCT065 OVC080 09/M07 A3000 RMK AO2,M
WYS,2024-05-21 21:55,46.40,19.40,33.79,240.00,9.00,0.00,29.99,M,10.00,15.00,OVC,M,M,M,9000.00,M,M,M,M,M,M,M,M,M,M,41.42,KWYS 212155Z AUTO 24009G15KT 10SM OVC090 08/M07 A2999 RMK AO2,M
WYS,2024-05-21 22:55,48.20,21.20,34.09,240.00,9.00,0.00,29.98,M,10.00,16.00,SCT,BKN,OVC,M,6500.00,7500.00,9500.00,M,M,M,M,M,M,M,M,43.66,KWYS 212255Z AUTO 24009G16KT 10SM SCT065 BKN075 OVC095 09/M06 A2998 RMK AO2,M
WYS,2024-05-21 23:55,48.20,21.20,34.09,230.00,13.00,0.00,29.98,M,10.00,19.00,BKN,M,M,M,10000.00,M,M,M,M,M,M,M,M,M,M,42.32,KWYS 212355Z AUTO 23013G19KT 10SM BKN100 09/M06 A2998 RMK AO2,M
WYS,2024-05-22 00:55,46.40,21.20,36.48,240.00,7.00,0.00,29.98,M,10.00,M,FEW,SCT,BKN,M,6000.00,7000.00,8000.00,M,M,M,M,M,M,M,M,42.33,KWYS 220055Z AUTO 24007KT 10SM FEW060 SCT070 BKN080 08/M06 A2998 RMK AO2,M
WYS,2024-05-22 01:55,44.60,24.80,45.44,M,3.00,0.00,29.97,M,10.00,M,BKN,M,M,M,10000.00,M,M,M,M,M,M,M,M,M,M,43.09,KWYS 220155Z AUTO VRB03KT 10SM BKN100 07/M04 A2997 RMK AO2,M
WYS,2024-05-22 02:55,42.80,23.00,45.14,180.00,6.00,0.00,29.97,M,10.00,M,FEW,OVC,M,M,6500.00,7500.00,M,M,M,M,M,M,M,M,M,38.54,KWYS 220255Z AUTO 18006KT 10SM FEW065 OVC075 06/M05 A2997 RMK AO2,M
WYS,2024-05-22 03:55,41.00,24.80,52.17,230.00,4.00,0.00,29.98,M,10.00,M,OVC,M,M,M,7000.00,M,M,M,M,M,M,M,M,M,M,37.93,KWYS 220355Z AUTO 23004KT 10SM OVC070 05/M04 A2998 RMK AO2,M
WYS,2024-05-22 04:55,41.00,26.60,56.22,250.00,3.00,0.00,29.97,M,10.00,M,OVC,M,M,M,7500.00,M,M,M,M,M,M,M,M,M,M,38.98,KWYS 220455Z AUTO 25003KT 10SM OVC075 05/M03 A2997 RMK AO2,M
WYS,2024-05-22 05:55,39.20,24.80,55.95,0.00,0.00,0.00,29.96,M,10.00,M,OVC,M,M,M,8000.00,M,M,M,M,M,M,M,M,M,M,39.20,KWYS 220555Z AUTO 00000KT 10SM OVC080 04/M04 A2996 RMK AO2,M
WYS,2024-05-22 06:55,35.60,24.80,64.46,0.00,0.00,0.00,29.95,M,10.00,M,OVC,M,M,M,7500.00,M,M,M,M,M,M,M,M,M,M,35.60,KWYS 220655Z AUTO 00000KT 10SM OVC075 02/M04 A2995 RMK AO2,M
WYS,2024-05-22 07:55,39.20,19.40,44.55,230.00,9.00,0.00,29.93,M,10.00,M,OVC,M,M,M,7500.00,M,M,M,M,M,M,M,M,M,M,32.47,KWYS 220755Z AUTO 23009KT 10SM OVC075 04/M07 A2993 RMK AO2,M
WYS,2024-05-22 08:55,39.20,17.60,41.24,220.00,9.00,0.00,29.92,M,10.00,M,OVC,M,M,M,7500.00,M,M,M,M,M,M,M,M,M,M,32.47,KWYS 220855Z AUTO 22009KT 10SM OVC075 04/M08 A2992 RMK AO2,M
WYS,2024-05-22 09:55,37.40,19.40,47.80,230.00,5.00,0.00,29.91,M,10.00,M,BKN,BKN,OVC,M,4700.00,5500.00,8000.00,M,M,M,M,M,M,M,M,32.81,KWYS 220955Z AUTO 23005KT 10SM BKN047 BKN055 OVC080 03/M07 A2991 RMK AO2,M
WYS,2024-05-22 10:55,37.40,21.20,51.61,220.00,3.00,0.00,29.89,M,10.00,M,BKN,OVC,M,M,4100.00,4800.00,M,M,M,M,M,M,M,M,M,34.86,KWYS 221055Z AUTO 22003KT 10SM BKN041 OVC048 03/M06 A2989 RMK AO2,M
WYS,2024-05-22 11:55,37.40,19.40,47.80,220.00,9.00,0.00,29.87,M,10.00,M,FEW,SCT,BKN,M,4800.00,5500.00,6500.00,M,M,M,M,M,M,M,M,30.23,KWYS 221155Z AUTO 22009KT 10SM FEW048 SCT055 BKN065 03/M07 A2987 RMK AO2,M
WYS,2024-05-22 12:55,37.40,26.60,64.70,220.00,10.00,0.00,29.87,M,7.00,20.00,FEW,SCT,BKN,M,2100.00,2700.00,3400.00,M,-UP,M,M,M,M,M,M,29.74,KWYS 221255Z AUTO 22010G20KT 7SM -UP FEW021 SCT027 BKN034 03/M03 A2987 RMK AO2,M
WYS,2024-05-22 13:55,37.40,33.80,86.69,220.00,13.00,0.00,29.87,M,10.00,M,FEW,BKN,BKN,M,2500.00,3100.00,3700.00,M,M,M,M,M,M,M,M,28.49,KWYS 221355Z AUTO 22013KT 10SM FEW025 BKN031 BKN037 03/01 A2987 RMK AO2,M
WYS,2024-05-22 14:55,37.40,37.40,100.00,210.00,12.00,0.00,29.86,M,7.00,M,BKN,BKN,M,M,1800.00,3100.00,M,M,M,M,M,M,M,M,M,28.87,KWYS 221455Z AUTO 21012KT 7SM BKN018 BKN031 03/03 A2986 RMK AO2,M
WYS,2024-05-22 15:55,37.40,37.40,100.00,220.00,9.00,0.01,29.85,M,5.00,M,FEW,FEW,SCT,M,1400.00,1800.00,2600.00,M,-UP,M,M,M,M,M,M,30.23,KWYS 221555Z AUTO 22009KT 5SM -UP FEW014 FEW018 SCT026 03/03 A2985 RMK AO2 P0001,M
WYS,2024-05-22 16:55,39.20,39.20,100.00,210.00,15.00,0.01,29.84,M,6.00,21.00,FEW,SCT,BKN,M,1600.00,3000.00,3600.00,M,BR,M,M,M,M,M,M,30.11,KWYS 221655Z AUTO 21015G21KT 6SM BR FEW016 SCT030 BKN036 04/04 A2984 RMK AO2 P0001,M
WYS,2024-05-22 17:55,37.40,37.40,100.00,210.00,9.00,0.01,29.83,M,2.50,16.00,FEW,FEW,M,M,1300.00,1900.00,M,M,-RA,M,M,M,M,M,M,30.23,KWYS 221755Z AUTO 21009G16KT 2 1/2SM -RA FEW013 FEW019 03/03 A2983 RMK AO2 P0001,M
WYS,2024-05-22 18:55,39.20,39.20,100.00,210.00,12.00,0.04,29.83,M,4.00,17.00,FEW,FEW,M,M,800.00,1300.00,M,M,BR,M,M,M,M,M,M,31.17,KWYS 221855Z AUTO 21012G17KT 4SM BR FEW008 FEW013 04/04 A2983 RMK AO2 P0004,M
WYS,2024-05-22 19:55,37.40,37.40,100.00,230.00,9.00,0.01,29.81,M,5.00,14.00,BKN,M,M,M,1200.00,M,M,M,-RA,M,M,M,M,M,M,30.23,KWYS 221955Z AUTO 23009G14KT 210V270 5SM -RA BKN012 03/03 A2981 RMK AO2 P0001,M
WYS,2024-05-22 20:55,39.20,39.20,100.00,200.00,14.00,0.01,29.79,M,5.00,21.00,BKN,BKN,BKN,M,1500.00,2000.00,2400.00,M,-UP,M,M,M,M,M,M,30.44,KWYS 222055Z AUTO 20014G21KT 5SM -UP BKN015 BKN020 BKN024 04/04 A2979 RMK AO2 P0001,M
WYS,2024-05-22 21:55,39.20,39.20,100.00,200.00,18.00,0.01,29.79,M,7.00,M,OVC,M,M,M,1400.00,M,M,M,M,M,M,M,M,M,M,29.23,KWYS 222155Z AUTO 20018KT 7SM OVC014 04/04 A2979 RMK AO2 P0001,M
WYS,2024-05-22 22:55,41.00,41.00,100.00,M,3.00,0.00,29.76,M,10.00,M,OVC,M,M,M,1600.00,M,M,M,M,M,M,M,M,M,M,38.98,KWYS 222255Z AUTO VRB03KT 10SM OVC016 05/05 A2976 RMK AO2,M
WYS,2024-05-22 23:55,41.00,41.00,100.00,230.00,6.00,0.00,29.74,M,10.00,15.00,BKN,BKN,OVC,M,2200.00,2800.00,3800.00,M,-RA,M,M,M,M,M,M,36.37,KWYS 222355Z AUTO 23006G15KT 10SM -RA BKN022 BKN028 OVC038 05/05 A2974 RMK AO2,M
WYS,2024-05-23 00:55,35.60,35.60,100.00,140.00,6.00,0.08,29.73,M,10.00,M,FEW,SCT,BKN,M,700.00,1800.00,6000.00,M,M,M,M,M,M,M,M,29.87,KWYS 230055Z AUTO 14006KT 10SM FEW007 SCT018 BKN060 02/02 A2973 RMK AO2 P0008,M
WYS,2024-05-23 01:55,37.40,37.40,100.00,220.00,3.00,0.00,29.76,M,10.00,M,FEW,SCT,BKN,M,1200.00,1600.00,2400.00,M,M,M,M,M,M,M,M,34.86,KWYS 230155Z AUTO 22003KT 10SM FEW012 SCT016 BKN024 03/03 A2976 RMK AO2,M
WYS,2024-05-23 02:55,39.20,39.20,100.00,M,3.00,0.00,29.75,M,10.00,M,BKN,OVC,M,M,1300.00,1900.00,M,M,M,M,M,M,M,M,M,36.92,KWYS 230255Z AUTO VRB03KT 10SM BKN013 OVC019 04/04 A2975 RMK AO2,M
WYS,2024-05-23 03:55,37.40,37.40,100.00,170.00,4.00,0.00,29.73,M,10.00,M,BKN,OVC,M,M,6500.00,7500.00,M,M,M,M,M,M,M,M,M,33.73,KWYS 230355Z AUTO 17004KT 10SM BKN065 OVC075 03/03 A2973 RMK AO2,M
WYS,2024-05-23 04:55,37.40,37.40,100.00,220.00,9.00,0.00,29.75,M,10.00,M,FEW,FEW,OVC,M,1200.00,4300.00,5500.00,M,M,M,M,M,M,M,M,30.23,KWYS 230455Z AUTO 22009KT 10SM FEW012 FEW043 OVC055 03/03 A2975 RMK AO2,M
WYS,2024-05-23 05:55,33.80,33.80,100.00,210.00,7.00,0.01,29.77,M,1.00,12.00,OVC,M,M,M,300.00,M,M,M,-SN,M,M,M,M,M,M,26.97,KWYS 230555Z AUTO 21007G12KT 1SM -SN OVC003 01/01 A2977 RMK AO2 P0001,M
WYS,2024-05-23 06:55,33.80,33.80,100.00,210.00,10.00,0.01,29.74,M,10.00,M,FEW,SCT,BKN,M,400.00,1700.00,3300.00,M,M,M,M,M,M,M,M,25.23,KWYS 230655Z AUTO 21010KT 10SM FEW004 SCT017 BKN033 01/01 A2974 RMK AO2 P0001,M
WYS,2024-05-23 07:55,33.80,33.80,100.00,220.00,16.00,0.01,29.73,M,10.00,M,FEW,SCT,BKN,M,3000.00,3800.00,4900.00,M,M,M,M,M,M,M,M,22.76,KWYS 230755Z AUTO 22016KT 10SM FEW030 SCT038 BKN049 01/01 A2973 RMK AO2 P0001,M
WYS,2024-05-23 08:55,32.00,32.00,100.00,210.00,16.00,0.00,29.75,M,9.00,M,FEW,BKN,OVC,M,1800.00,3300.00,4400.00,M,M,M,M,M,M,M,M,20.42,KWYS 230855Z AUTO 21016KT 9SM FEW018 BKN033 OVC044 00/00 A2975 RMK AO2,M
WYS,2024-05-23 09:55,30.20,32.00,M,210.00,10.00,0.00,29.76,M,10.00,M,BKN,OVC,M,M,1600.00,2200.00,M,M,M,M,M,M,M,M,M,M,KWYS 230955Z AUTO 21010KT 10SM BKN016 OVC022 M01/M00 A2976 RMK AO2,M
WYS,2024-05-23 10:55,30.20,30.20,100.00,220.00,6.00,0.00,29.76,M,10.00,12.00,BKN,BKN,OVC,M,1800.00,2400.00,3000.00,M,M,M,M,M,M,M,M,23.36,KWYS 231055Z AUTO 22006G12KT 10SM BKN018 BKN024 OVC030 M01/M01 A2976 RMK AO2,M
WYS,2024-05-23 11:55,30.20,30.20,100.00,210.00,6.00,0.00,29.75,M,9.00,M,FEW,BKN,OVC,M,300.00,1800.00,3000.00,M,-SN,M,M,M,M,M,M,23.36,KWYS 231155Z AUTO 21006KT 9SM -SN FEW003 BKN018 OVC030 M01/M01 A2975 RMK AO2,M
WYS,2024-05-23 12:55,30.20,30.20,100.00,210.00,8.00,0.00,29.75,M,10.00,M,OVC,M,M,M,1000.00,M,M,M,M,M,M,M,M,M,M,21.90,KWYS 231255Z AUTO 21008KT 10SM OVC010 M01/M01 A2975 RMK AO2,M
WYS,2024-05-23 13:55,30.20,30.20,100.00,230.00,11.00,0.00,29.75,M,3.00,17.00,SCT,BKN,OVC,M,1400.00,3700.00,4200.00,M,-UP,M,M,M,M,M,M,20.19,KWYS 231355Z AUTO 23011G17KT 3SM -UP SCT014 BKN037 OVC042 M01/M01 A2975 RMK AO2,M
WYS,2024-05-23 14:55,30.20,30.20,100.00,240.00,8.00,0.00,29.78,M,10.00,14.00,OVC,M,M,M,1800.00,M,M,M,M,M,M,M,M,M,M,21.90,KWYS 231455Z AUTO 24008G14KT 10SM OVC018 M01/M01 A2978 RMK AO2,M
WYS,2024-05-23 15:55,30.20,30.20,100.00,220.00,13.00,0.00,29.79,M,1.00,M,FEW,SCT,SCT,M,400.00,1400.00,2000.00,M,-SN,M,M,M,M,M,M,19.26,KWYS 231555Z AUTO 22013KT 1SM -SN FEW004 SCT014 SCT020 M01/M01 A2979 RMK AO2,M
WYS,2024-05-23 16:55,30.20,30.20,100.00,220.00,11.00,0.00,29.81,M,3.00,M,FEW,FEW,SCT,M,1500.00,2000.00,3200.00,M,BR,M,M,M,M,M,M,20.19,KWYS 231655Z AUTO 22011KT 3SM BR FEW015 FEW020 SCT032 M01/M01 A2981 RMK AO2,M
WYS,2024-05-23 17:55,30.20,30.20,100.00,220.00,17.00,0.00,29.84,M,1.75,22.00,SCT,SCT,SCT,M,1300.00,2600.00,3400.00,M,-UP,M,M,M,M,M,M,17.72,KWYS 231755Z AUTO 22017G22KT 1 3/4SM -UP SCT013 SCT026 SCT034 M01/M01 A2984 RMK AO2,M
WYS,2024-05-23 18:55,32.00,32.00,100.00,210.00,12.00,0.00,29.87,M,2.00,M,FEW,FEW,SCT,M,1100.00,1500.00,2100.00,M,BR,M,M,M,M,M,M,22.00,KWYS 231855Z AUTO 21012KT 2SM BR FEW011 FEW015 SCT021 00/00 A2987 RMK AO2,M
WYS,2024-05-23 19:55,33.80,33.80,100.00,240.00,9.00,0.00,29.89,M,1.50,14.00,CLR,M,M,M,M,M,M,M,-SN,M,M,M,M,M,M,25.75,KWYS 231955Z AUTO 24009G14KT 1 1/2SM -SN CLR 01/01 A2989 RMK AO2,M
WYS,2024-05-23 20:55,33.80,35.60,M,220.00,9.00,0.00,29.92,M,3.00,15.00,CLR,M,M,M,M,M,M,M,-SN,M,M,M,M,M,M,M,KWYS 232055Z AUTO 22009G15KT 3SM -SN CLR 01/02 A2992 RMK AO2,M
WYS,2024-05-23 21:55,37.40,37.40,100.00,210.00,10.00,0.01,29.94,M,6.00,M,FEW,BKN,M,M,800.00,6000.00,M,M,BR,M,M,M,M,M,M,29.74,KWYS 232155Z AUTO 21010KT 6SM BR FEW008 BKN060 03/03 A2994 RMK AO2 P0001,M
WYS,2024-05-23 22:55,37.40,39.20,M,180.00,10.00,0.00,29.96,M,10.00,M,FEW,BKN,OVC,M,2100.00,2900.00,4500.00,M,M,M,M,M,M,M,M,M,KWYS 232255Z AUTO 18010KT 10SM FEW021 BKN029 OVC045 03/04 A2996 RMK AO2,M
WYS,2024-05-23 23:55,37.40,37.40,100.00,200.00,8.00,0.00,29.98,M,10.00,M,BKN,OVC,M,M,3800.00,4500.00,M,M,M,M,M,M,M,M,M,30.76,KWYS 232355Z AUTO 20008KT 10SM BKN038 OVC045 03/03 A2998 RMK AO2,M
WYS,2024-05-24 00:55,37.40,35.60,93.14,M,5.00,0.00,30.00,M,10.00,M,FEW,BKN,OVC,M,2600.00,3700.00,4500.00,M,-UP,M,M,M,M,M,M,32.81,KWYS 240055Z AUTO VRB05KT 10SM -UP FEW026 BKN037 OVC045 03/02 A3000 RMK AO2,M
WYS,2024-05-24 01:55,37.40,37.40,100.00,220.00,4.00,0.00,30.02,M,10.00,M,BKN,OVC,M,M,4000.00,6000.00,M,M,M,M,M,M,M,M,M,33.73,KWYS 240155Z AUTO 22004KT 10SM BKN040 OVC060 03/03 A3002 RMK AO2,M
WYS,2024-05-24 02:55,33.80,33.80,100.00,220.00,6.00,0.00,30.04,M,10.00,M,SCT,SCT,M,M,4900.00,5500.00,M,M,M,M,M,M,M,M,M,27.70,KWYS 240255Z AUTO 22006KT 10SM SCT049 SCT055 01/01 A3004 RMK AO2,M
WYS,2024-05-24 03:55,30.20,30.20,100.00,200.00,7.00,0.00,30.05,M,10.00,M,SCT,SCT,M,M,5000.00,6000.00,M,M,M,M,M,M,M,M,M,22.59,KWYS 240355Z AUTO 20007KT 10SM SCT050 SCT060 M01/M01 A3005 RMK AO2,M
WYS,2024-05-24 04:55,30.20,32.00,M,0.00,0.00,0.00,30.05,M,10.00,M,OVC,M,M,M,5000.00,M,M,M,M,M,M,M,M,M,M,M,KWYS 240455Z AUTO 00000KT 10SM OVC050 M01/M00 A3005 RMK AO2,M
WYS,2024-05-24 05:55,32.00,32.00,100.00,0.00,0.00,0.00,30.05,M,10.00,M,BKN,M,M,M,5500.00,M,M,M,M,M,M,M,M,M,M,32.00,KWYS 240555Z AUTO 00000KT 10SM BKN055 M00/M00 A3005 RMK AO2,M
WYS,2024-05-24 06:55,30.20,30.20,100.00,0.00,0.00,0.00,30.04,M,10.00,M,BKN,BKN,OVC,M,3300.00,5000.00,5500.00,M,M,M,M,M,M,M,M,30.20,KWYS 240655Z AUTO 00000KT 10SM BKN033 BKN050 OVC055 M01/M01 A3004 RMK AO2,M
WYS,2024-05-24 07:55,32.00,32.00,100.00,0.00,0.00,0.00,30.03,M,10.00,M,FEW,BKN,OVC,M,1300.00,3600.00,5000.00,M,M,M,M,M,M,M,M,32.00,KWYS 240755Z AUTO 00000KT 10SM FEW013 BKN036 OVC050 M00/M00 A3003 RMK AO2,M
WYS,2024-05-24 08:55,32.00,32.00,100.00,0.00,0.00,0.00,30.02,M,10.00,M,OVC,M,M,M,1200.00,M,M,M,M,M,M,M,M,M,M,32.00,KWYS 240855Z AUTO 00000KT 10SM OVC012 00/00 A3002 RMK AO2,M
WYS,2024-05-24 09:55,33.80,33.80,100.00,0.00,0.00,0.00,30.00,M,10.00,M,OVC,M,M,M,1300.00,M,M,M,M,M,M,M,M,M,M,33.80,KWYS 240955Z AUTO 00000KT 10SM OVC013 01/01 A3000 RMK AO2,M
WYS,2024-05-24 10:55,33.80,33.80,100.00,230.00,8.00,0.00,29.99,M,10.00,M,OVC,M,M,M,1500.00,M,M,M,M,M,M,M,M,M,M,26.33,KWYS 241055Z AUTO 23008KT 10SM OVC015 01/01 A2999 RMK AO2,M
WYS,2024-05-24 11:55,32.00,32.00,100.00,230.00,7.00,0.00,29.99,M,10.00,M,BKN,M,M,M,2500.00,M,M,M,M,M,M,M,M,M,M,24.78,KWYS 241155Z AUTO 23007KT 10SM BKN025 00/00 A2999 RMK AO2,M
WYS,2024-05-24 12:55,33.80,33.80,100.00,230.00,5.00,0.00,29.98,M,10.00,12.00,FEW,OVC,M,M,2200.00,4200.00,M,M,M,M,M,M,M,M,M,28.53,KWYS 241255Z AUTO 23005G12KT 10SM FEW022 OVC042 01/01 A2998 RMK AO2,M
WYS,2024-05-24 13:55,35.60,35.60,100.00,M,4.00,0.00,29.98,M,10.00,M,BKN,BKN,OVC,M,1800.00,2400.00,3200.00,M,M,M,M,M,M,M,M,31.62,KWYS 241355Z AUTO VRB04KT 10SM BKN018 BKN024 OVC032 02/02 A2998 RMK AO2,M
WYS,2024-05-24 14:55,37.40,33.80,86.69,230.00,10.00,0.00,29.97,M,10.00,18.00,FEW,BKN,M,M,2000.00,2800.00,M,M,M,M,M,M,M,M,M,29.74,KWYS 241455Z AUTO 23010G18KT 10SM FEW020 BKN028 03/01 A2997 RMK AO2,M
WYS,2024-05-24 15:55,41.00,33.80,75.33,220.00,17.00,0.00,29.96,M,10.00,23.00,OVC,M,M,M,2100.00,M,M,M,M,M,M,M,M,M,M,31.87,KWYS 241555Z AUTO 22017G23KT 10SM OVC021 05/01 A2996 RMK AO2,M
WYS,2024-05-24 16:55,41.00,33.80,75.33,230.00,11.00,0.00,29.96,M,10.00,18.00,BKN,BKN,M,M,2100.00,2700.00,M,M,M,M,M,M,M,M,M,33.84,KWYS 241655Z AUTO 23011G18KT 10SM BKN021 BKN027 05/01 A2996 RMK AO2,M
WYS,2024-05-24 17:55,42.80,32.00,65.38,230.00,17.00,0.00,29.95,M,10.00,24.00,FEW,SCT,M,M,2300.00,3100.00,M,M,M,M,M,M,M,M,M,34.22,KWYS 241755Z AUTO 23017G24KT 10SM FEW023 SCT031 06/00 A2995 RMK AO2,M
WYS,2024-05-24 18:55,46.40,33.80,61.28,210.00,20.00,0.00,29.93,M,10.00,26.00,CLR,M,M,M,M,M,M,M,M,M,M,M,M,M,M,38.26,KWYS 241855Z AUTO 21020G26KT 10SM CLR 08/01 A2993 RMK AO2,M
WYS,2024-05-24 19:55,44.60,33.80,65.61,210.00,13.00,0.00,29.93,M,10.00,19.00,SCT,BKN,OVC,M,3000.00,5000.00,6500.00,M,M,M,M,M,M,M,M,37.71,KWYS 241955Z AUTO 21013G19KT 10SM SCT030 BKN050 OVC065 07/01 A2993 RMK AO2,M
WYS,2024-05-24 20:55,50.00,32.00,49.81,220.00,11.00,0.00,29.90,M,10.00,17.00,FEW,SCT,BKN,M,3500.00,4000.00,6000.00,M,M,M,M,M,M,M,M,50.00,KWYS 242055Z AUTO 22011G17KT 10SM FEW035 SCT040 BKN060 10/M00 A2990 RMK AO2,M
WYS,2024-05-24 21:55,50.00,30.20,46.31,210.00,15.00,0.00,29.88,M,10.00,26.00,FEW,FEW,BKN,M,4500.00,5000.00,8000.00,M,M,M,M,M,M,M,M,50.00,KWYS 242155Z AUTO 21015G26KT 10SM FEW045 FEW050 BKN080 10/M01 A2988 RMK AO2,M
WYS,2024-05-24 22:55,51.80,28.40,40.25,230.00,15.00,0.00,29.85,M,10.00,22.00,FEW,SCT,BKN,M,5000.00,7000.00,7500.00,M,M,M,M,M,M,M,M,51.80,KWYS 242255Z AUTO 23015G22KT 10SM FEW050 SCT070 BKN075 11/M02 A2985 RMK AO2,M
WYS,2024-05-24 23:55,51.80,26.60,37.38,210.00,14.00,0.00,29.83,M,10.00,23.00,CLR,M,M,M,M,M,M,M,M,M,M,M,M,M,M,51.80,KWYS 242355Z AUTO 21014G23KT 10SM CLR 11/M03 A2983 RMK AO2,M
WYS,2024-05-25 00:55,53.60,26.60,34.98,210.00,16.00,0.00,29.81,M,10.00,M,CLR,M,M,M,M,M,M,M,M,M,M,M,M,M,M,53.60,KWYS 250055Z AUTO 21016KT 10SM CLR 12/M03 A2981 RMK AO2,M
WYS,2024-05-25 01:55,50.00,24.80,37.08,210.00,12.00,0.00,29.81,M,10.00,M,SCT,BKN,M,M,8000.00,9500.00,M,M,M,M,M,M,M,M,M,50.00,KWYS 250155Z AUTO 21012KT 10SM SCT080 BKN095 10/M04 A2981 RMK AO2,M
WYS,2024-05-25 02:55,46.40,26.60,45.73,200.00,9.00,0.00,29.80,M,10.00,15.00,BKN,M,M,M,10000.00,M,M,M,M,M,M,M,M,M,M,41.42,KWYS 250255Z AUTO 20009G15KT 10SM BKN100 08/M03 A2980 RMK AO2,M
WYS,2024-05-25 03:55,41.00,28.40,60.54,0.00,0.00,0.00,29.81,M,10.00,M,FEW,M,M,M,6500.00,M,M,M,M,M,M,M,M,M,M,41.00,KWYS 250355Z AUTO 00000KT 10SM FEW065 05/M02 A2981 RMK AO2,M
WYS,2024-05-25 04:55,41.00,28.40,60.54,190.00,4.00,0.00,29.80,M,10.00,M,FEW,BKN,BKN,M,8000.00,9000.00,11000.00,M,M,M,M,M,M,M,M,37.93,KWYS 250455Z AUTO 19004KT 10SM FEW080 BKN090 BKN110 05/M02 A2980 RMK AO2,M
WYS,2024-05-25 05:55,39.20,30.20,69.88,0.00,0.00,0.00,29.80,M,10.00,M,OVC,M,M,M,10000.00,M,M,M,M,M,M,M,M,M,M,39.20,KWYS 250555Z AUTO 00000KT 10SM OVC100 04/M01 A2980 RMK AO2,M
WYS,2024-05-25 06:55,37.40,28.40,69.67,220.00,3.00,0.00,29.79,M,10.00,M,SCT,OVC,M,M,8500.00,11000.00,M,M,M,M,M,M,M,M,M,34.86,KWYS 250655Z AUTO 22003KT 10SM SCT085 OVC110 03/M02 A2979 RMK AO2,M
WYS,2024-05-25 07:55,33.80,30.20,86.49,0.00,0.00,0.00,29.78,M,10.00,M,BKN,BKN,M,M,8000.00,9000.00,M,M,M,M,M,M,M,M,M,33.80,KWYS 250755Z AUTO 00000KT 10SM BKN080 BKN090 01/M01 A2978 RMK AO2,M
WYS,2024-05-25 08:55,33.80,30.20,86.49,180.00,4.00,0.00,29.78,M,10.00,M,CLR,M,M,M,M,M,M,M,M,M,M,M,M,M,M,29.52,KWYS 250855Z AUTO 18004KT 10SM CLR 01/M01 A2978 RMK AO2,M
WYS,2024-05-25 09:55,32.00,30.20,92.97,0.00,0.00,0.00,29.77,M,10.00,M,CLR,M,M,M,M,M,M,M,M,M,M,M,M,M,M,32.00,KWYS 250955Z AUTO 00000KT 10SM CLR 00/M01 A2977 RMK AO2,M
WYS,2024-05-25 10:55,28.40,28.40,100.00,320.00,3.00,0.00,29.77,M,10.00,M,CLR,M,M,M,M,M,M,M,M,M,M,M,M,M,M,24.57,KWYS 251055Z AUTO 32003KT 10SM CLR M02/M02 A2977 RMK AO2,M
WYS,2024-05-25 11:55,28.40,28.40,100.00,0.00,0.00,0.00,29.77,M,10.00,M,OVC,M,M,M,7000.00,M,M,M,M,M,M,M,M,M,M,28.40,KWYS 251155Z AUTO 00000KT 10SM OVC070 M02/M02 A2977 RMK AO2,M
WYS,2024-05-25 12:55,32.00,32.00,100.00,0.00,0.00,0.00,29.77,M,10.00,M,CLR,M,M,M,M,M,M,M,M,M,M,M,M,M,M,32.00,KWYS 251255Z AUTO 00000KT 10SM CLR M00/M00 A2977 RMK AO2,M
WYS,2024-05-25 13:55,37.40,32.00,80.65,0.00,0.00,0.00,29.77,M,10.00,M,CLR,M,M,M,M,M,M,M,M,M,M,M,M,M,M,37.40,KWYS 251355Z AUTO 00000KT 10SM CLR 03/00 A2977 RMK AO2,M
WYS,2024-05-25 14:55,42.80,30.20,60.79,0.00,0.00,0.00,29.77,M,10.00,M,CLR,M,M,M,M,M,M,M,M,M,M,M,M,M,M,42.80,KWYS 251455Z AUTO 00000KT 10SM CLR 06/M01 A2977 RMK AO2,M
WYS,2024-05-25 15:55,51.80,30.20,43.32,210.00,13.00,0.00,29.75,M,10.00,M,CLR,M,M,M,M,M,M,M,M,M,M,M,M,M,M,51.80,KWYS 251555Z AUTO 21013KT 10SM CLR 11/M01 A2975 RMK AO2,M
WYS,2024-05-25 16:55,51.80,32.00,46.59,220.00,17.00,0.00,29.75,M,10.00,23.00,SCT,SCT,BKN,M,4700.00,5500.00,11000.00,M,M,M,M,M,M,M,M,51.80,KWYS 251655Z AUTO 22017G23KT 10SM SCT047 SCT055 BKN110 11/M00 A2975 RMK AO2,M
WYS,2024-05-25 17:55,46.40,33.80,61.28,220.00,13.00,0.00,29.77,M,10.00,18.00,OVC,M,M,M,7500.00,M,M,M,M,M,M,M,M,M,M,40.02,KWYS 251755Z AUTO 22013G18KT 10SM OVC075 08/01 A2977 RMK AO2,M
WYS,2024-05-25 18:55,48.20,33.80,57.26,230.00,9.00,0.00,29.77,M,10.00,M,FEW,SCT,BKN,M,3800.00,7000.00,8500.00,M,M,M,M,M,M,M,M,43.66,KWYS 251855Z AUTO 23009KT 10SM FEW038 SCT070 BKN085 09/01 A2977 RMK AO2,M
WYS,2024-05-25 19:55,46.40,37.40,70.68,M,7.00,0.01,29.77,M,6.00,M,BKN,BKN,OVC,M,3600.00,4800.00,6500.00,M,-RA,M,M,M,M,M,M,42.33,KWYS 251955Z AUTO VRB07KT 6SM -RA BKN036 BKN048 OVC065 08/03 A2977 RMK AO2 P0001,M
WYS,2024-05-25 20:55,50.00,35.60,57.52,210.00,15.00,0.01,29.76,M,10.00,M,FEW,SCT,BKN,M,4300.00,6000.00,8500.00,M,M,M,M,M,M,M,M,50.00,KWYS 252055Z AUTO 21015KT 10SM FEW043 SCT060 BKN085 10/02 A2976 RMK AO2 P0001,M
WYS,2024-05-25 21:55,50.00,33.80,53.54,230.00,11.00,0.00,29.76,M,10.00,17.00,BKN,M,M,M,8500.00,M,M,M,M,M,M,M,M,M,M,50.00,KWYS 252155Z AUTO 23011G17KT 10SM BKN085 10/01 A2976 RMK AO2,M
WYS,2024-05-25 22:55,44.60,42.80,93.35,180.00,14.00,0.00,29.78,M,8.00,21.00,FEW,SCT,BKN,M,300.00,3200.00,4000.00,M,-RA,M,M,M,M,M,M,37.40,KWYS 252255Z AUTO 18014G21KT 8SM -RA FEW003 SCT032 BKN040 07/06 A2978 RMK AO2,M
WYS,2024-05-25 23:55,41.00,41.00,100.00,190.00,12.00,0.00,29.81,M,2.50,21.00,FEW,SCT,BKN,M,2600.00,3100.00,3700.00,M,-UP,M,M,M,M,M,M,33.46,KWYS 252355Z AUTO 19012G21KT 2 1/2SM -UP FEW026 SCT031 BKN037 05/05 A2981 RMK AO2 VIS 1 1/2V5,M
WYS,2024-05-26 00:55,44.60,44.60,100.00,M,5.00,0.01,29.80,M,10.00,M,SCT,BKN,BKN,M,5000.00,6000.00,8500.00,M,M,M,M,M,M,M,M,41.36,KWYS 260055Z AUTO VRB05KT 10SM SCT050 BKN060 BKN085 07/07 A2980 RMK AO2 P0001,M
WYS,2024-05-26 01:55,42.80,42.80,100.00,360.00,4.00,0.00,29.83,M,10.00,10.00,SCT,BKN,OVC,M,1800.00,3300.00,6500.00,M,M,M,M,M,M,M,M,40.03,KWYS 260155Z AUTO 36004G10KT 10SM SCT018 BKN033 OVC065 06/06 A2983 RMK AO2,M
WYS,2024-05-26 02:55,41.00,41.00,100.00,200.00,5.00,0.00,29.84,M,10.00,M,SCT,BKN,OVC,M,3300.00,6000.00,9000.00,M,M,M,M,M,M,M,M,37.08,KWYS 260255Z AUTO 20005KT 10SM SCT033 BKN060 OVC090 05/05 A2984 RMK AO2,M
WYS,2024-05-26 03:55,41.00,41.00,100.00,M,3.00,0.00,29.86,M,10.00,M,BKN,OVC,M,M,4600.00,5500.00,M,M,M,M,M,M,M,M,M,38.98,KWYS 260355Z AUTO VRB03KT 10SM BKN046 OVC055 05/05 A2986 RMK AO2,M
WYS,2024-05-26 04:55,39.20,39.20,100.00,220.00,5.00,0.00,29.86,M,10.00,12.00,FEW,OVC,M,M,1500.00,6000.00,M,M,M,M,M,M,M,M,M,34.95,KWYS 260455Z AUTO 22005G12KT 10SM FEW015 OVC060 04/04 A2986 RMK AO2,M
WYS,2024-05-26 05:55,39.20,39.20,100.00,M,5.00,0.00,29.87,M,10.00,M,BKN,OVC,M,M,3400.00,4200.00,M,M,M,M,M,M,M,M,M,34.95,KWYS 260555Z AUTO VRB05KT 10SM BKN034 OVC042 04/04 A2987 RMK AO2,M
WYS,2024-05-26 06:55,39.20,39.20,100.00,210.00,5.00,0.00,29.87,M,9.00,M,FEW,BKN,OVC,M,1000.00,2600.00,3100.00,M,-UP,M,M,M,M,M,M,34.95,KWYS 260655Z AUTO 21005KT 9SM -UP FEW010 BKN026 OVC031 04/04 A2987 RMK AO2,M
WYS,2024-05-26 07:55,37.40,37.40,100.00,200.00,12.00,0.00,29.87,M,8.00,M,BKN,BKN,OVC,M,2700.00,3500.00,6000.00,M,-UP,M,M,M,M,M,M,28.87,KWYS 260755Z AUTO 20012KT 8SM -UP BKN027 BKN035 OVC060 03/03 A2987 RMK AO2,M
WYS,2024-05-26 08:55,37.40,37.40,100.00,220.00,8.00,0.02,29.88,M,10.00,M,SCT,BKN,OVC,M,2300.00,3300.00,7500.00,M,M,M,M,M,M,M,M,30.76,KWYS 260855Z AUTO 22008KT 10SM SCT023 BKN033 OVC075 03/03 A2988 RMK AO2 P0002,M
WYS,2024-05-26 09:55,37.40,37.40,100.00,210.00,9.00,0.00,29.90,M,9.00,M,FEW,SCT,BKN,M,1900.00,2400.00,4800.00,M,M,M,M,M,M,M,M,30.23,KWYS 260955Z AUTO 21009KT 9SM FEW019 SCT024 BKN048 03/03 A2990 RMK AO2,M
WYS,2024-05-26 10:55,35.60,35.60,100.00,220.00,9.00,0.00,29.91,M,10.00,M,BKN,BKN,OVC,M,4600.00,6500.00,7500.00,M,M,M,M,M,M,M,M,27.99,KWYS 261055Z AUTO 22009KT 10SM BKN046 BKN065 OVC075 02/02 A2991 RMK AO2,M
WYS,2024-05-26 11:55,35.60,35.60,100.00,220.00,9.00,0.00,29.93,M,10.00,M,FEW,M,M,M,5000.00,M,M,M,M,M,M,M,M,M,M,27.99,KWYS 261155Z AUTO 22009KT 10SM FEW050 02/02 A2993 RMK AO2,M
WYS,2024-05-26 12:55,39.20,39.20,100.00,220.00,13.00,0.01,29.95,M,10.00,M,BKN,BKN,M,M,5000.00,6000.00,M,M,M,M,M,M,M,M,M,30.79,KWYS 261255Z AUTO 22013KT 10SM BKN050 BKN060 04/04 A2995 RMK AO2 P0001,M
WYS,2024-05-26 13:55,39.20,39.20,100.00,200.00,8.00,0.00,29.97,M,10.00,M,FEW,FEW,M,M,5000.00,6500.00,M,M,M,M,M,M,M,M,M,32.98,KWYS 261355Z AUTO 20008KT 10SM FEW050 FEW065 04/04 A2997 RMK AO2,M
WYS,2024-05-26 14:55,42.80,39.20,86.99,230.00,10.00,0.00,29.99,M,10.00,M,BKN,M,M,M,5500.00,M,M,M,M,M,M,M,M,M,M,36.51,KWYS 261455Z AUTO 23010KT 10SM BKN055 06/04 A2999 RMK AO2,M
WYS,2024-05-26 15:55,46.40,37.40,70.68,210.00,16.00,0.00,29.99,M,10.00,21.00,SCT,BKN,BKN,M,2400.00,4800.00,6000.00,M,M,M,M,M,M,M,M,39.19,KWYS 261555Z AUTO 21016G21KT 10SM SCT024 BKN048 BKN060 08/03 A2999 RMK AO2,M
WYS,2024-05-26 16:55,46.40,37.40,70.68,220.00,14.00,0.00,30.00,M,10.00,20.00,FEW,BKN,M,M,2700.00,6000.00,M,M,M,M,M,M,M,M,M,39.72,KWYS 261655Z AUTO 22014G20KT 10SM FEW027 BKN060 08/03 A3000 RMK AO2,M
WYS,2024-05-26 17:55,46.40,37.40,70.68,220.00,15.00,0.00,30.01,M,10.00,20.00,OVC,M,M,M,6000.00,M,M,M,M,M,M,M,M,M,M,39.45,KWYS 261755Z AUTO 22015G20KT 10SM OVC060 08/03 A3001 RMK AO2,M
WYS,2024-05-26 18:55,48.20,39.20,70.88,200.00,17.00,0.00,30.01,M,10.00,23.00,BKN,BKN,M,M,6500.00,7500.00,M,M,M,M,M,M,M,M,M,41.30,KWYS 261855Z AUTO 20017G23KT 10SM BKN065 BKN075 09/04 A3001 RMK AO2,M
WYS,2024-05-26 19:55,48.20,37.40,66.05,220.00,14.00,0.00,30.01,M,10.00,M,FEW,SCT,BKN,M,4800.00,6000.00,7000.00,M,M,M,M,M,M,M,M,42.04,KWYS 261955Z AUTO 22014KT 10SM FEW048 SCT060 BKN070 09/03 A3001 RMK AO2,M
WYS,2024-05-26 20:55,48.20,35.60,61.52,230.00,15.00,0.00,30.02,M,9.00,21.00,FEW,SCT,BKN,M,5500.00,7000.00,8500.00,M,M,M,M,M,M,M,M,41.78,KWYS 262055Z AUTO 23015G21KT 9SM FEW055 SCT070 BKN085 09/02 A3002 RMK AO2,M
WYS,2024-05-26 21:55,50.00,35.60,57.52,220.00,17.00,0.00,30.03,M,10.00,M,FEW,SCT,BKN,M,3700.00,5500.00,6500.00,M,M,M,M,M,M,M,M,50.00,KWYS 262155Z AUTO 22017KT 10SM FEW037 SCT055 BKN065 10/02 A3003 RMK AO2,M
WYS,2024-05-26 22:55,50.00,35.60,57.52,230.00,8.00,0.00,30.04,M,10.00,13.00,SCT,BKN,BKN,M,6000.00,7000.00,9000.00,M,M,M,M,M,M,M,M,50.00,KWYS 262255Z AUTO 23008G13KT 10SM SCT060 BKN070 BKN090 10/02 A3004 RMK AO2,M
WYS,2024-05-26 23:55,51.80,32.00,46.59,230.00,12.00,0.00,30.05,M,10.00,M,FEW,BKN,BKN,M,6000.00,7500.00,8500.00,M,M,M,M,M,M,M,M,51.80,KWYS 262355Z AUTO 23012KT 10SM FEW060 BKN075 BKN085 11/00 A3005 RMK AO2,M
WYS,2024-05-27 00:55,51.80,32.00,46.59,240.00,6.00,0.00,30.06,M,10.00,M,FEW,BKN,M,M,6500.00,7500.00,M,M,M,M,M,M,M,M,M,51.80,KWYS 270055Z AUTO 24006KT 10SM FEW065 BKN075 11/00 A3006 RMK AO2,M
WYS,2024-05-27 01:55,51.80,32.00,46.59,0.00,0.00,0.00,30.07,M,10.00,10.00,CLR,M,M,M,M,M,M,M,M,M,M,M,M,M,M,51.80,KWYS 270155Z AUTO 00000G10KT 10SM CLR 11/00 A3007 RMK AO2,M
WYS,2024-05-27 02:55,44.60,37.40,75.68,0.00,0.00,0.00,30.09,M,10.00,M,CLR,M,M,M,M,M,M,M,M,M,M,M,M,M,M,44.60,KWYS 270255Z AUTO 00000KT 10SM CLR 07/03 A3009 RMK AO2,M
WYS,2024-05-27 03:55,41.00,37.40,86.89,200.00,5.00,0.00,30.12,M,10.00,M,CLR,M,M,M,M,M,M,M,M,M,M,M,M,M,M,37.08,KWYS 270355Z AUTO 20005KT 10SM CLR 05/03 A3012 RMK AO2,M
WYS,2024-05-27 04:55,39.20,35.60,86.79,220.00,7.00,0.00,30.12,M,10.00,M,SCT,M,M,M,9000.00,M,M,M,M,M,M,M,M,M,M,33.56,KWYS 270455Z AUTO 22007KT 10SM SCT090 04/02 A3012 RMK AO2,M
WYS,2024-05-27 05:55,37.40,33.80,86.69,0.00,0.00,0.00,30.14,M,10.00,M,SCT,M,M,M,8000.00,M,M,M,M,M,M,M,M,M,M,37.40,KWYS 270555Z AUTO 00000KT 10SM SCT080 03/01 A3014 RMK AO2,M
WYS,2024-05-27 06:55,33.80,33.80,100.00,0.00,0.00,0.00,30.14,M,10.00,M,SCT,M,M,M,8500.00,M,M,M,M,M,M,M,M,M,M,33.80,KWYS 270655Z AUTO 00000KT 10SM SCT085 01/01 A3014 RMK AO2,M
WYS,2024-05-27 07:55,30.20,30.20,100.00,0.00,0.00,0.00,30.16,M,10.00,M,FEW,M,M,M,9000.00,M,M,M,M,M,M,M,M,M,M,30.20,KWYS 270755Z AUTO 00000KT 10SM FEW090 M01/M01 A3016 RMK AO2,M
WYS,2024-05-27 08:55,26.60,26.60,100.00,0.00,0.00,0.00,30.17,M,10.00,M,FEW,M,M,M,8500.00,M,M,M,M,M,M,M,M,M,M,26.60,KWYS 270855Z AUTO 00000KT 10SM FEW085 M03/M03 A3017 RMK AO2,M
WYS,2024-05-27 09:55,26.60,26.60,100.00,0.00,0.00,0.00,30.19,M,10.00,M,CLR,M,M,M,M,M,M,M,M,M,M,M,M,M,M,26.60,KWYS 270955Z AUTO 00000KT 10SM CLR M03/M03 A3019 RMK AO2,M
WYS,2024-05-27 10:55,26.60,26.60,100.00,0.00,0.00,0.00,30.20,M,10.00,M,CLR,M,M,M,M,M,M,M,M,M,M,M,M,M,M,26.60,KWYS 271055Z AUTO 00000KT 10SM CLR M03/M03 A3020 RMK AO2,M
WYS,2024-05-27 11:55,26.60,26.60,100.00,0.00,0.00,0.00,30.22,M,10.00,M,CLR,M,M,M,M,M,M,M,M,M,M,M,M,M,M,26.60,KWYS 271155Z AUTO 00000KT 10SM CLR M03/M03 A3022 RMK AO2,M
WYS,2024-05-27 12:55,30.20,30.20,100.00,0.00,0.00,0.00,30.23,M,10.00,M,CLR,M,M,M,M,M,M,M,M,M,M,M,M,M,M,30.20,KWYS 271255Z AUTO 00000KT 10SM CLR M01/M01 A3023 RMK AO2,M
WYS,2024-05-27 13:55,37.40,33.80,86.69,0.00,0.00,0.00,30.25,M,10.00,M,CLR,M,M,M,M,M,M,M,M,M,M,M,M,M,M,37.40,KWYS 271355Z AUTO 00000KT 10SM CLR 03/01 A3025 RMK AO2,M
WYS,2024-05-27 14:55,44.60,32.00,61.03,0.00,0.00,0.00,30.25,M,10.00,M,CLR,M,M,M,M,M,M,M,M,M,M,M,M,M,M,44.60,KWYS 271455Z AUTO 00000KT 10SM CLR 07/00 A3025 RMK AO2,M
WYS,2024-05-27 15:55,51.80,28.40,40.25,240.00,3.00,0.00,30.25,M,10.00,M,CLR,M,M,M,M,M,M,M,M,M,M,M,M,M,M,51.80,KWYS 271555Z AUTO 24003KT 10SM CLR 11/M02 A3025 RMK AO2,M
WYS,2024-05-27 16:55,53.60,28.40,37.67,210.00,7.00,0.00,30.25,M,10.00,13.00,SCT,M,M,M,5500.00,M,M,M,M,M,M,M,M,M,M,53.60,KWYS 271655Z AUTO 21007G13KT 10SM SCT055 12/M02 A3025 RMK AO2,M
WYS,2024-05-27 17:55,57.20,28.40,33.05,M,5.00,0.00,30.25,M,10.00,M,BKN,M,M,M,6500.00,M,M,M,M,M,M,M,M,M,M,57.20,KWYS 271755Z AUTO VRB05KT 10SM BKN065 14/M02 A3025 RMK AO2,M
WYS,2024-05-27 18:55,59.00,26.60,28.77,240.00,10.00,0.00,30.24,M,10.00,M,FEW,M,M,M,7000.00,M,M,M,M,M,M,M,M,M,M,59.00,KWYS 271855Z AUTO 24010KT 10SM FEW070 15/M03 A3024 RMK AO2,M
WYS,2024-05-27 19:55,60.80,26.60,26.98,200.00,9.00,0.00,30.23,M,10.00,23.00,FEW,M,M,M,7000.00,M,M,M,M,M,M,M,M,M,M,60.80,KWYS 271955Z AUTO 20009G23KT 170V230 10SM FEW070 16/M03 A3023 RMK AO2,M
WYS,2024-05-27 20:55,60.80,28.40,29.06,240.00,10.00,0.00,30.23,M,10.00,16.00,CLR,M,M,M,M,M,M,M,M,M,M,M,M,M,M,60.80,KWYS 272055Z AUTO 24010G16KT 10SM CLR 16/M02 A3023 RMK AO2,M
WYS,2024-05-27 21:55,62.60,26.60,25.32,290.00,8.00,0.00,30.22,M,10.00,15.00,CLR,M,M,M,M,M,M,M,M,M,M,M,M,M,M,62.60,KWYS 272155Z AUTO 29008G15KT 240V320 10SM CLR 17/M03 A3022 RMK AO2,M
WYS,2024-05-27 22:55,62.60,26.60,25.32,300.00,7.00,0.00,30.22,M,10.00,16.00,FEW,M,M,M,8000.00,M,M,M,M,M,M,M,M,M,M,62.60,KWYS 272255Z AUTO 30007G16KT 270V330 10SM FEW080 17/M03 A3022 RMK AO2,M
WYS,2024-05-27 23:55,62.60,26.60,25.32,220.00,11.00,0.00,30.21,M,10.00,M,CLR,M,M,M,M,M,M,M,M,M,M,M,M,M,M,62.60,KWYS 272355Z AUTO 22011KT 10SM CLR 17/M03 A3021 RMK AO2,M
WYS,2024-05-28 00:55,64.40,28.40,25.60,260.00,7.00,0.00,30.22,M,10.00,17.00,FEW,M,M,M,8000.00,M,M,M,M,M,M,M,M,M,M,64.40,KWYS 280055Z AUTO 26007G17KT 230V290 10SM FEW080 18/M02 A3022 RMK AO2,M
WYS,2024-05-28 01:55,60.80,30.20,31.28,230.00,7.00,0.00,30.23,M,10.00,13.00,CLR,M,M,M,M,M,M,M,M,M,M,M,M,M,M,60.80,KWYS 280155Z AUTO 23007G13KT 10SM CLR 16/M01 A3023 RMK AO2,M
WYS,2024-05-28 02:55,55.40,33.80,43.90,220.00,5.00,0.00,30.23,M,10.00,M,CLR,M,M,M,M,M,M,M,M,M,M,M,M,M,M,55.40,KWYS 280255Z AUTO 22005KT 10SM CLR 13/01 A3023 RMK AO2,M
WYS,2024-05-28 03:55,48.20,33.80,57.26,210.00,4.00,0.00,30.25,M,10.00,M,CLR,M,M,M,M,M,M,M,M,M,M,M,M,M,M,46.34,KWYS 280355Z AUTO 21004KT 10SM CLR 09/01 A3025 RMK AO2,M
WYS,2024-05-28 04:55,46.40,33.80,61.28,0.00,0.00,0.00,30.27,M,10.00,M,CLR,M,M,M,M,M,M,M,M,M,M,M,M,M,M,46.40,KWYS 280455Z AUTO 00000KT 10SM CLR 08/01 A3027 RMK AO2,M
WYS,2024-05-28 05:55,41.00,33.80,75.33,0.00,0.00,0.00,30.27,M,10.00,M,CLR,M,M,M,M,M,M,M,M,M,M,M,M,M,M,41.00,KWYS 280555Z AUTO 00000KT 10SM CLR 05/01 A3027 RMK AO2,M
WYS,2024-05-28 06:55,35.60,33.80,93.08,0.00,0.00,0.00,30.28,M,10.00,M,CLR,M,M,M,M,M,M,M,M,M,M,M,M,M,M,35.60,KWYS 280655Z AUTO 00000KT 10SM CLR 02/01 A3028 RMK AO2,M
WYS,2024-05-28 07:55,33.80,33.80,100.00,0.00,0.00,0.00,30.27,M,10.00,M,CLR,M,M,M,M,M,M,M,M,M,M,M,M,M,M,33.80,KWYS 280755Z AUTO 00000KT 10SM CLR 01/01 A3027 RMK AO2,M
WYS,2024-05-28 08:55,30.20,30.20,100.00,0.00,0.00,0.00,30.27,M,10.00,M,CLR,M,M,M,M,M,M,M,M,M,M,M,M,M,M,30.20,KWYS 280855Z AUTO 00000KT 10SM CLR M01/M01 A3027 RMK AO2,M
WYS,2024-05-28 09:55,28.40,28.40,100.00,0.00,0.00,0.00,30.28,M,10.00,M,CLR,M,M,M,M,M,M,M,M,M,M,M,M,M,M,28.40,KWYS 280955Z AUTO 00000KT 10SM CLR M02/M02 A3028 RMK AO2,M
WYS,2024-05-28 10:55,28.40,28.40,100.00,0.00,0.00,0.00,30.28,M,10.00,M,CLR,M,M,M,M,M,M,M,M,M,M,M,M,M,M,28.40,KWYS 281055Z AUTO 00000KT 10SM CLR M02/M02 A3028 RMK AO2,M
WYS,2024-05-28 11:55,26.60,26.60,100.00,0.00,0.00,0.00,30.28,M,10.00,M,CLR,M,M,M,M,M,M,M,M,M,M,M,M,M,M,26.60,KWYS 281155Z AUTO 00000KT 10SM CLR M03/M03 A3028 RMK AO2,M
WYS,2024-05-28 12:55,32.00,32.00,100.00,0.00,0.00,0.00,30.29,M,10.00,M,CLR,M,M,M,M,M,M,M,M,M,M,M,M,M,M,32.00,KWYS 281255Z AUTO 00000KT 10SM CLR 00/00 A3029 RMK AO2,M
WYS,2024-05-28 13:55,39.20,35.60,86.79,0.00,0.00,0.00,30.28,M,10.00,M,CLR,M,M,M,M,M,M,M,M,M,M,M,M,M,M,39.20,KWYS 281355Z AUTO 00000KT 10SM CLR 04/02 A3028 RMK AO2,M
WYS,2024-05-28 14:55,46.40,35.60,65.83,0.00,0.00,0.00,30.27,M,10.00,M,CLR,M,M,M,M,M,M,M,M,M,M,M,M,M,M,46.40,KWYS 281455Z AUTO 00000KT 10SM CLR 08/02 A3027 RMK AO2,M
WYS,2024-05-28 15:55,53.60,33.80,46.88,70.00,5.00,0.00,30.25,M,10.00,M,CLR,M,M,M,M,M,M,M,M,M,M,M,M,M,M,53.60,KWYS 281555Z AUTO 07005KT 10SM CLR 12/01 A3025 RMK AO2,M
WYS,2024-05-28 16:55,59.00,33.80,38.56,0.00,0.00,0.00,30.23,M,10.00,M,CLR,M,M,M,M,M,M,M,M,M,M,M,M,M,M,59.00,KWYS 281655Z AUTO 00000KT 10SM CLR 15/01 A3023 RMK AO2,M
WYS,2024-05-28 17:55,66.20,24.80,20.72,200.00,11.00,0.00,30.21,M,10.00,17.00,CLR,M,M,M,M,M,M,M,M,M,M,M,M,M,M,66.20,KWYS 281755Z AUTO 20011G17KT 10SM CLR 19/M04 A3021 RMK AO2,M
WYS,2024-05-28 18:55,68.00,24.80,19.47,220.00,14.00,0.00,30.19,M,10.00,M,CLR,M,M,M,M,M,M,M,M,M,M,M,M,M,M,68.00,KWYS 281855Z AUTO 22014KT 10SM CLR 20/M04 A3019 RMK AO2,M
WYS,2024-05-28 19:55,69.80,24.80,18.30,170.00,9.00,0.00,30.17,M,10.00,M,CLR,M,M,M,M,M,M,M,M,M,M,M,M,M,M,69.80,KWYS 281955Z AUTO 17009KT 140V200 10SM CLR 21/M04 A3017 RMK AO2,M
WYS,2024-05-28 20:55,69.80,23.00,16.98,230.00,12.00,0.00,30.15,M,10.00,17.00,CLR,M,M,M,M,M,M,M,M,M,M,M,M,M,M,69.80,KWYS 282055Z AUTO 23012G17KT 10SM CLR 21/M05 A3015 RMK AO2,M
WYS,2024-05-28 21:55,69.80,24.80,18.30,180.00,14.00,0.00,30.13,M,10.00,M,CLR,M,M,M,M,M,M,M,M,M,M,M,M,M,M,69.80,KWYS 282155Z AUTO 18014KT 10SM CLR 21/M04 A3013 RMK AO2,M
WYS,2024-05-28 22:55,71.60,26.60,18.55,210.00,14.00,0.00,30.11,M,10.00,24.00,CLR,M,M,M,M,M,M,M,M,M,M,M,M,M,M,71.60,KWYS 282255Z AUTO 21014G24KT 10SM CLR 22/M03 A3011 RMK AO2,M
WYS,2024-05-28 23:55,71.60,24.80,17.22,220.00,11.00,0.00,30.09,M,10.00,19.00,FEW,M,M,M,10000.00,M,M,M,M,M,M,M,M,M,M,71.60,KWYS 282355Z AUTO 22011G19KT 10SM FEW100 22/M04 A3009 RMK AO2,M
WYS,2024-05-29 00:55,69.80,28.40,21.24,230.00,8.00,0.00,30.08,M,10.00,13.00,FEW,M,M,M,10000.00,M,M,M,M,M,M,M,M,M,M,69.80,KWYS 290055Z AUTO 23008G13KT 10SM FEW100 21/M02 A3008 RMK AO2,M
WYS,2024-05-29 01:55,64.40,30.20,27.55,230.00,3.00,0.00,30.07,M,10.00,M,CLR,M,M,M,M,M,M,M,M,M,M,M,M,M,M,64.40,KWYS 290155Z AUTO 23003KT 10SM CLR 18/M01 A3007 RMK AO2,M
WYS,2024-05-29 02:55,59.00,35.60,41.42,230.00,9.00,0.00,30.08,M,10.00,M,SCT,SCT,M,M,9000.00,11000.00,M,M,M,M,M,M,M,M,M,59.00,KWYS 290255Z AUTO 23009KT 10SM SCT090 SCT110 15/02 A3008 RMK AO2,M
WYS,2024-05-29 03:55,51.80,48.20,87.47,M,4.00,0.01,30.11,M,10.00,M,SCT,M,M,M,10000.00,M,M,M,M,M,M,M,M,M,M,51.80,KWYS 290355Z AUTO VRB04KT 10SM SCT100 11/09 A3011 RMK AO2 P0001,M
WYS,2024-05-29 04:55,51.80,44.60,76.34,0.00,0.00,0.00,30.12,M,10.00,M,FEW,SCT,BKN,M,4200.00,7000.00,7500.00,M,M,M,M,M,M,M,M,51.80,KWYS 290455Z AUTO 00000KT 10SM FEW042 SCT070 BKN075 11/07 A3012 RMK AO2,M
WYS,2024-05-29 05:55,51.80,41.00,66.48,60.00,4.00,0.00,30.07,M,10.00,M,SCT,M,M,M,12000.00,M,M,M,M,M,M,M,M,M,M,51.80,KWYS 290555Z AUTO 06004KT 10SM SCT120 11/05 A3007 RMK AO2,M
WYS,2024-05-29 06:55,44.60,44.60,100.00,0.00,0.00,0.00,30.05,M,10.00,M,CLR,M,M,M,M,M,M,M,M,M,M,M,M,M,M,44.60,KWYS 290655Z AUTO 00000KT 10SM CLR 07/07 A3005 RMK AO2,M
WYS,2024-05-29 07:55,41.00,41.00,100.00,0.00,0.00,0.00,30.05,M,10.00,M,FEW,M,M,M,10000.00,M,M,M,M,M,M,M,M,M,M,41.00,KWYS 290755Z AUTO 00000KT 10SM FEW100 05/05 A3005 RMK AO2,M
WYS,2024-05-29 08:55,41.00,41.00,100.00,0.00,0.00,0.00,30.03,M,10.00,M,CLR,M,M,M,M,M,M,M,M,M,M,M,M,M,M,41.00,KWYS 290855Z AUTO 00000KT 10SM CLR 05/05 A3003 RMK AO2,M
WYS,2024-05-29 09:55,39.20,39.20,100.00,0.00,0.00,0.00,30.03,M,10.00,M,BKN,M,M,M,11000.00,M,M,M,M,M,M,M,M,M,M,39.20,KWYS 290955Z AUTO 00000KT 10SM BKN110 04/04 A3003 RMK AO2,M
WYS,2024-05-29 10:55,37.40,37.40,100.00,60.00,5.00,0.00,30.04,M,10.00,M,SCT,BKN,M,M,8500.00,11000.00,M,M,M,M,M,M,M,M,M,32.81,KWYS 291055Z AUTO 06005KT 10SM SCT085 BKN110 03/03 A3004 RMK AO2,M
WYS,2024-05-29 11:55,48.20,39.20,70.88,360.00,4.00,0.00,30.04,M,10.00,M,FEW,FEW,M,M,8000.00,12000.00,M,M,M,M,M,M,M,M,M,46.34,KWYS 291155Z AUTO 36004KT 10SM FEW080 FEW120 09/04 A3004 RMK AO2,M
WYS,2024-05-29 12:55,48.20,39.20,70.88,0.00,0.00,0.00,30.04,M,10.00,M,FEW,M,M,M,11000.00,M,M,M,M,M,M,M,M,M,M,48.20,KWYS 291255Z AUTO 00000KT 10SM FEW110 09/04 A3004 RMK AO2,M
WYS,2024-05-29 13:55,50.00,42.80,76.18,0.00,0.00,0.00,30.03,M,10.00,M,FEW,M,M,M,10000.00,M,M,M,M,M,M,M,M,M,M,50.00,KWYS 291355Z AUTO 00000KT 10SM FEW100 10/06 A3003 RMK AO2,M
WYS,2024-05-29 14:55,57.20,39.20,50.91,0.00,0.00,0.00,30.03,M,10.00,M,CLR,M,M,M,M,M,M,M,M,M,M,M,M,M,M,57.20,KWYS 291455Z AUTO 00000KT 10SM CLR 14/04 A3003 RMK AO2,M
WYS,2024-05-29 15:55,55.40,42.80,62.46,210.00,16.00,0.00,30.02,M,10.00,M,BKN,OVC,M,M,6500.00,9500.00,M,M,M,M,M,M,M,M,M,55.40,KWYS 291555Z AUTO 21016KT 10SM BKN065 OVC095 13/06 A3002 RMK AO2,M
WYS,2024-05-29 16:55,51.80,46.40,81.74,210.00,16.00,0.00,30.04,M,10.00,M,BKN,BKN,OVC,M,1800.00,2300.00,7500.00,M,M,M,M,M,M,M,M,51.80,KWYS 291655Z AUTO 21016KT 10SM BKN018 BKN023 OVC075 11/08 A3004 RMK AO2,M
WYS,2024-05-29 17:55,50.00,50.00,100.00,190.00,16.00,0.00,30.05,M,10.00,22.00,BKN,OVC,M,M,900.00,1300.00,M,M,M,M,M,M,M,M,M,50.00,KWYS 291755Z AUTO 19016G22KT 10SM BKN009 OVC013 10/10 A3005 RMK AO2,M
WYS,2024-05-29 18:55,53.60,46.40,76.50,200.00,18.00,0.00,30.04,M,10.00,M,BKN,OVC,M,M,1500.00,2000.00,M,M,M,M,M,M,M,M,M,53.60,KWYS 291855Z AUTO 20018KT 10SM BKN015 OVC020 12/08 A3004 RMK AO2,M
WYS,2024-05-29 19:55,50.00,46.40,87.37,220.00,17.00,0.00,30.04,M,10.00,22.00,OVC,M,M,M,1300.00,M,M,M,M,M,M,M,M,M,M,50.00,KWYS 291955Z AUTO 22017G22KT 10SM OVC013 10/08 A3004 RMK AO2,M
WYS,2024-05-29 20:55,48.20,46.40,93.45,210.00,12.00,0.00,30.04,M,10.00,19.00,OVC,M,M,M,1300.00,M,M,M,M,M,M,M,M,M,M,42.62,KWYS 292055Z AUTO 21012G19KT 10SM OVC013 09/08 A3004 RMK AO2,M
WYS,2024-05-29 21:55,55.40,41.00,58.27,220.00,13.00,0.00,30.01,M,10.00,24.00,SCT,BKN,OVC,M,2700.00,3400.00,5000.00,M,M,M,M,M,M,M,M,55.40,KWYS 292155Z AUTO 22013G24KT 10SM SCT027 BKN034 OVC050 13/05 A3001 RMK AO2,M
WYS,2024-05-29 22:55,59.00,33.80,38.56,230.00,18.00,0.00,29.99,M,10.00,30.00,FEW,BKN,OVC,M,5000.00,6000.00,7000.00,M,M,M,M,M,M,M,M,59.00,KWYS 292255Z AUTO 23018G30KT 10SM FEW050 BKN060 OVC070 15/01 A2999 RMK AO2,M
WYS,2024-05-29 23:55,55.40,33.80,43.90,230.00,8.00,0.00,30.00,M,10.00,M,SCT,BKN,M,M,6500.00,7500.00,M,M,M,M,M,M,M,M,M,55.40,KWYS 292355Z AUTO 23008KT 210V270 10SM SCT065 BKN075 13/01 A3000 RMK AO2,M
WYS,2024-05-30 00:55,50.00,33.80,53.54,M,5.00,0.00,30.04,M,10.00,13.00,FEW,BKN,M,M,7000.00,8500.00,M,M,M,M,M,M,M,M,M,50.00,KWYS 300055Z AUTO VRB05G13KT 10SM FEW070 BKN085 10/01 A3004 RMK AO2,M
WYS,2024-05-30 01:55,42.80,41.00,93.30,300.00,8.00,0.00,30.08,M,9.00,17.00,FEW,SCT,BKN,M,2600.00,3900.00,5500.00,M,-UP,M,M,M,M,M,M,37.42,KWYS 300155Z AUTO 30008G17KT 270V330 9SM -UP FEW026 SCT039 BKN055 06/05 A3008 RMK AO2,M
WYS,2024-05-30 02:55,41.00,41.00,100.00,190.00,5.00,0.04,30.09,M,10.00,12.00,FEW,FEW,BKN,M,2700.00,4300.00,7000.00,M,M,M,M,M,M,M,M,37.08,KWYS 300255Z AUTO 19005G12KT 10SM FEW027 FEW043 BKN070 05/05 A3009 RMK AO2 P0004,M
WYS,2024-05-30 03:55,39.20,39.20,100.00,230.00,3.00,0.00,30.10,M,10.00,M,FEW,OVC,M,M,5500.00,7000.00,M,M,M,M,M,M,M,M,M,36.92,KWYS 300355Z AUTO 23003KT 10SM FEW055 OVC070 04/04 A3010 RMK AO2,M
WYS,2024-05-30 04:55,39.20,39.20,100.00,0.00,0.00,0.00,30.13,M,10.00,M,FEW,BKN,OVC,M,4200.00,5500.00,7500.00,M,M,M,M,M,M,M,M,39.20,KWYS 300455Z AUTO 00000KT 10SM FEW042 BKN055 OVC075 04/04 A3013 RMK AO2,M
WYS,2024-05-30 05:55,37.40,37.40,100.00,180.00,4.00,0.00,30.13,M,10.00,M,SCT,BKN,M,M,5500.00,7000.00,M,M,M,M,M,M,M,M,M,33.73,KWYS 300555Z AUTO 18004KT 10SM SCT055 BKN070 03/03 A3013 RMK AO2,M
WYS,2024-05-30 06:55,33.80,33.80,100.00,0.00,0.00,0.00,30.14,M,10.00,M,BKN,OVC,M,M,7500.00,9000.00,M,M,M,M,M,M,M,M,M,33.80,KWYS 300655Z AUTO 00000KT 10SM BKN075 OVC090 01/01 A3014 RMK AO2,M
WYS,2024-05-30 07:55,33.80,33.80,100.00,220.00,5.00,0.00,30.14,M,10.00,M,BKN,M,M,M,6500.00,M,M,M,M,M,M,M,M,M,M,28.53,KWYS 300755Z AUTO 22005KT 10SM BKN065 01/01 A3014 RMK AO2,M
WYS,2024-05-30 08:55,33.80,33.80,100.00,240.00,5.00,0.00,30.14,M,10.00,M,BKN,BKN,OVC,M,4700.00,5500.00,7500.00,M,M,M,M,M,M,M,M,28.53,KWYS 300855Z AUTO 24005KT 10SM BKN047 BKN055 OVC075 01/01 A3014 RMK AO2,M
WYS,2024-05-30 09:55,33.80,33.80,100.00,260.00,3.00,0.00,30.16,M,10.00,M,OVC,M,M,M,3900.00,M,M,M,M,M,M,M,M,M,M,30.75,KWYS 300955Z AUTO 26003KT 10SM OVC039 01/01 A3016 RMK AO2,M
WYS,2024-05-30 10:55,33.80,33.80,100.00,240.00,5.00,0.00,30.16,M,10.00,M,FEW,SCT,BKN,M,5500.00,7500.00,9000.00,M,M,M,M,M,M,M,M,28.53,KWYS 301055Z AUTO 24005KT 10SM FEW055 SCT075 BKN090 01/01 A3016 RMK AO2,M
WYS,2024-05-30 11:55,33.80,33.80,100.00,240.00,6.00,0.00,30.17,M,10.00,M,BKN,OVC,M,M,7000.00,7500.00,M,M,M,M,M,M,M,M,M,27.70,KWYS 301155Z AUTO 24006KT 10SM BKN070 OVC075 01/01 A3017 RMK AO2,M
WYS,2024-05-30 12:55,33.80,33.80,100.00,210.00,7.00,0.00,30.17,M,10.00,M,CLR,M,M,M,M,M,M,M,M,M,M,M,M,M,M,26.97,KWYS 301255Z AUTO 21007KT 10SM CLR 01/01 A3017 RMK AO2,M
WYS,2024-05-30 13:55,39.20,30.20,69.88,240.00,4.00,0.00,30.18,M,10.00,M,CLR,M,M,M,M,M,M,M,M,M,M,M,M,M,M,35.83,KWYS 301355Z AUTO 24004KT 10SM CLR 04/M01 A3018 RMK AO2,M
WYS,2024-05-30 14:55,41.00,23.00,48.39,300.00,5.00,0.00,30.18,M,10.00,M,BKN,M,M,M,12000.00,M,M,M,M,M,M,M,M,M,M,37.08,KWYS 301455Z AUTO 30005KT 10SM BKN120 05/M05 A3018 RMK AO2,M
WYS,2024-05-30 15:55,42.80,19.40,38.75,300.00,10.00,0.00,30.17,M,10.00,M,CLR,M,M,M,M,M,M,M,M,M,M,M,M,M,M,36.51,KWYS 301555Z AUTO 30010KT 200V330 10SM CLR 06/M07 A3017 RMK AO2,M
WYS,2024-05-30 16:55,44.60,19.40,36.18,240.00,14.00,0.00,30.16,M,10.00,21.00,CLR,M,M,M,M,M,M,M,M,M,M,M,M,M,M,37.40,KWYS 301655Z AUTO 24014G21KT 220V280 10SM CLR 07/M07 A3016 RMK AO2,M
WYS,2024-05-30 17:55,46.40,17.60,31.28,280.00,13.00,0.00,30.17,M,10.00,22.00,CLR,M,M,M,M,M,M,M,M,M,M,M,M,M,M,40.02,KWYS 301755Z AUTO 28013G22KT 250V310 10SM CLR 08/M08 A3017 RMK AO2,M
WYS,2024-05-30 18:55,48.20,17.60,29.23,280.00,12.00,0.00,30.18,M,10.00,22.00,CLR,M,M,M,M,M,M,M,M,M,M,M,M,M,M,42.62,KWYS 301855Z AUTO 28012G22KT 10SM CLR 09/M08 A3018 RMK AO2,M
WYS,2024-05-30 19:55,50.00,15.80,25.28,240.00,10.00,0.00,30.17,M,10.00,17.00,FEW,M,M,M,7000.00,M,M,M,M,M,M,M,M,M,M,50.00,KWYS 301955Z AUTO 24010G17KT 10SM FEW070 10/M09 A3017 RMK AO2,M
WYS,2024-05-30 20:55,50.00,15.80,25.28,280.00,12.00,0.00,30.17,M,10.00,22.00,SCT,M,M,M,7500.00,M,M,M,M,M,M,M,M,M,M,50.00,KWYS 302055Z AUTO 28012G22KT 10SM SCT075 10/M09 A3017 RMK AO2,M
WYS,2024-05-30 21:55,50.00,19.40,29.52,230.00,15.00,0.00,30.16,M,10.00,M,SCT,BKN,M,M,7000.00,8500.00,M,M,M,M,M,M,M,M,M,50.00,KWYS 302155Z AUTO 23015KT 10SM SCT070 BKN085 10/M07 A3016 RMK AO2,M
WYS,2024-05-30 22:50,50.00,19.40,29.52,M,5.00,0.00,30.16,M,10.00,M,SCT,BKN,BKN,M,6500.00,8000.00,8500.00,M,M,M,M,M,M,M,M,50.00,KWYS 302250Z AUTO VRB05KT 10SM SCT065 BKN080 BKN085 10/M07 A3016 RMK AO2,M
WYS,2024-05-30 23:55,50.00,23.00,34.39,250.00,7.00,0.00,30.15,M,10.00,13.00,BKN,OVC,M,M,6500.00,7500.00,M,M,M,M,M,M,M,M,M,50.00,KWYS 302355Z AUTO 25007G13KT 220V300 10SM BKN065 OVC075 10/M05 A3015 RMK AO2,M
WYS,2024-05-31 00:55,50.00,21.20,31.87,0.00,0.00,0.00,30.15,M,10.00,M,BKN,OVC,M,M,7500.00,9000.00,M,M,M,M,M,M,M,M,M,50.00,KWYS 310055Z AUTO 00000KT 10SM BKN075 OVC090 10/M06 A3015 RMK AO2,M
WYS,2024-05-31 01:55,48.20,23.00,36.78,0.00,0.00,0.00,30.14,M,10.00,10.00,FEW,SCT,OVC,M,4500.00,5500.00,7000.00,M,M,M,M,M,M,M,M,48.20,KWYS 310155Z AUTO 00000G10KT 10SM FEW045 SCT055 OVC070 09/M05 A3014 RMK AO2,M
WYS,2024-05-31 02:55,46.40,24.80,42.44,0.00,0.00,0.00,30.15,M,10.00,M,FEW,SCT,OVC,M,3400.00,4700.00,6000.00,M,M,M,M,M,M,M,M,46.40,KWYS 310255Z AUTO 00000KT 10SM FEW034 SCT047 OVC060 08/M04 A3015 RMK AO2,M
WYS,2024-05-31 03:55,44.60,28.40,52.72,330.00,3.00,0.00,30.17,M,10.00,M,FEW,FEW,OVC,M,3300.00,4400.00,6000.00,M,M,M,M,M,M,M,M,43.09,KWYS 310355Z AUTO 33003KT 10SM FEW033 FEW044 OVC060 07/M02 A3017 RMK AO2,M
WYS,2024-05-31 04:55,42.80,30.20,60.79,150.00,4.00,0.00,30.17,M,10.00,M,OVC,M,M,M,7000.00,M,M,M,M,M,M,M,M,M,M,40.03,KWYS 310455Z AUTO 15004KT 10SM OVC070 06/M01 A3017 RMK AO2,M
WYS,2024-05-31 05:55,41.00,32.00,70.08,0.00,0.00,0.00,30.17,M,10.00,M,OVC,M,M,M,7500.00,M,M,M,M,M,M,M,M,M,M,41.00,KWYS 310555Z AUTO 00000KT 10SM OVC075 05/00 A3017 RMK AO2,M
WYS,2024-05-31 06:55,37.40,33.80,86.69,0.00,0.00,0.00,30.16,M,10.00,M,OVC,M,M,M,7500.00,M,M,M,M,M,M,M,M,M,M,37.40,KWYS 310655Z AUTO 00000KT 10SM OVC075 03/01 A3016 RMK AO2,M
WYS,2024-05-31 07:55,37.40,35.60,93.14,0.00,0.00,0.00,30.15,M,10.00,M,BKN,OVC,M,M,6500.00,7500.00,M,M,M,M,M,M,M,M,M,37.40,KWYS 310755Z AUTO 00000KT 10SM BKN065 OVC075 03/02 A3015 RMK AO2,M
WYS,2024-05-31 08:55,35.60,35.60,100.00,0.00,0.00,0.00,30.15,M,10.00,M,BKN,OVC,M,M,7000.00,8500.00,M,M,M,M,M,M,M,M,M,35.60,KWYS 310855Z AUTO 00000KT 10SM BKN070 OVC085 02/02 A3015 RMK AO2,M
WYS,2024-05-31 09:55,32.00,32.00,100.00,0.00,0.00,0.00,30.15,M,10.00,M,SCT,SCT,M,M,8000.00,8500.00,M,M,M,M,M,M,M,M,M,32.00,KWYS 310955Z AUTO 00000KT 10SM SCT080 SCT085 00/00 A3015 RMK AO2,M
WYS,2024-05-31 10:55,28.40,28.40,100.00,0.00,0.00,0.00,30.15,M,10.00,M,CLR,M,M,M,M,M,M,M,M,M,M,M,M,M,M,28.40,KWYS 311055Z AUTO 00000KT 10SM CLR M02/M02 A3015 RMK AO2,M
WYS,2024-05-31 11:55,28.40,28.40,100.00,0.00,0.00,0.00,30.16,M,10.00,M,CLR,M,M,M,M,M,M,M,M,M,M,M,M,M,M,28.40,KWYS 311155Z AUTO 00000KT 10SM CLR M02/M02 A3016 RMK AO2,M
WYS,2024-05-31 12:55,33.80,33.80,100.00,0.00,0.00,0.00,30.17,M,10.00,M,CLR,M,M,M,M,M,M,M,M,M,M,M,M,M,M,33.80,KWYS 311255Z AUTO 00000KT 10SM CLR 01/01 A3017 RMK AO2,M
WYS,2024-05-31 13:55,39.20,32.00,75.16,0.00,0.00,0.00,30.18,M,10.00,M,CLR,M,M,M,M,M,M,M,M,M,M,M,M,M,M,39.20,KWYS 311355Z AUTO 00000KT 10SM CLR 04/00 A3018 RMK AO2,M
WYS,2024-05-31 14:55,42.80,30.20,60.79,0.00,0.00,0.00,30.17,M,10.00,M,CLR,M,M,M,M,M,M,M,M,M,M,M,M,M,M,42.80,KWYS 311455Z AUTO 00000KT 10SM CLR 06/M01 A3017 RMK AO2,M
WYS,2024-05-31 15:55,48.20,26.60,42.73,M,4.00,0.00,30.16,M,10.00,M,FEW,FEW,M,M,5000.00,5500.00,M,M,M,M,M,M,M,M,M,46.34,KWYS 311555Z AUTO VRB04KT 10SM FEW050 FEW055 09/M03 A3016 RMK AO2,M
WYS,2024-05-31 16:55,50.00,19.40,29.52,230.00,9.00,0.00,30.14,M,10.00,15.00,CLR,M,M,M,M,M,M,M,M,M,M,M,M,M,M,50.00,KWYS 311655Z AUTO 23009G15KT 200V290 10SM CLR 10/M07 A3014 RMK AO2,M
WYS,2024-05-31 17:55,53.60,19.40,25.85,250.00,8.00,0.00,30.15,M,10.00,14.00,CLR,M,M,M,M,M,M,M,M,M,M,M,M,M,M,53.60,KWYS 311755Z AUTO 25008G14KT 190V290 10SM CLR 12/M07 A3015 RMK AO2,M
WYS,2024-05-31 18:55,53.60,12.20,18.90,240.00,13.00,0.00,30.13,M,10.00,21.00,CLR,M,M,M,M,M,M,M,M,M,M,M,M,M,M,53.60,KWYS 311855Z AUTO 24013G21KT 210V270 10SM CLR 12/M11 A3013 RMK AO2,M
WYS,2024-05-31 19:55,55.40,17.60,22.41,260.00,9.00,0.00,30.12,M,10.00,16.00,CLR,M,M,M,M,M,M,M,M,M,M,M,M,M,M,55.40,KWYS 311955Z AUTO 26009G16KT 230V290 10SM CLR 13/M08 A3012 RMK AO2,M
WYS,2024-05-31 20:55,57.20,19.40,22.68,200.00,11.00,0.00,30.11,M,10.00,17.00,CLR,M,M,M,M,M,M,M,M,M,M,M,M,M,M,57.20,KWYS 312055Z AUTO 20011G17KT 160V230 10SM CLR 14/M07 A3011 RMK AO2,M
WYS,2024-05-31 21:55,59.00,19.40,21.26,260.00,9.00,0.00,30.10,M,10.00,16.00,FEW,M,M,M,8000.00,M,M,M,M,M,M,M,M,M,M,59.00,KWYS 312155Z AUTO 26009G16KT 10SM FEW080 15/M07 A3010 RMK AO2,M
WYS,2024-05-31 22:55,60.80,23.00,23.23,260.00,7.00,0.00,30.09,M,10.00,15.00,CLR,M,M,M,M,M,M,M,M,M,M,M,M,M,M,60.80,KWYS 312255Z AUTO 26007G15KT 10SM CLR 16/M05 A3009 RMK AO2,M
WYS,2024-05-31 23:55,59.00,23.00,24.76,240.00,12.00,0.00,30.09,M,10.00,18.00,CLR,M,M,M,M,M,M,M,M,M,M,M,M,M,M,59.00,KWYS 312355Z AUTO 24012G18KT 10SM CLR 15/M05 A3009 RMK AO2,M
WYS,2024-06-01 00:55,59.00,24.80,26.70,M,6.00,0.00,30.09,M,10.00,18.00,CLR,M,M,M,M,M,M,M,M,M,M,M,M,M,M,59.00,KWYS 010055Z AUTO VRB06G18KT 10SM CLR 15/M04 A3009 RMK AO2,M
WYS,2024-06-01 01:55,57.20,24.80,28.48,210.00,12.00,0.00,30.09,M,10.00,M,CLR,M,M,M,M,M,M,M,M,M,M,M,M,M,M,57.20,KWYS 010155Z AUTO 21012KT 10SM CLR 14/M04 A3009 RMK AO2,M
WYS,2024-06-01 02:55,53.60,26.60,34.98,220.00,5.00,0.00,30.09,M,10.00,M,CLR,M,M,M,M,M,M,M,M,M,M,M,M,M,M,53.60,KWYS 010255Z AUTO 22005KT 10SM CLR 12/M03 A3009 RMK AO2,M
WYS,2024-06-01 03:55,46.40,30.20,53.00,0.00,0.00,0.00,30.10,M,10.00,M,CLR,M,M,M,M,M,M,M,M,M,M,M,M,M,M,46.40,KWYS 010355Z AUTO 00000KT 10SM CLR 08/M01 A3010 RMK AO2,M
WYS,2024-06-01 04:55,44.60,28.40,52.72,190.00,5.00,0.00,30.11,M,10.00,M,CLR,M,M,M,M,M,M,M,M,M,M,M,M,M,M,41.36,KWYS 010455Z AUTO 19005KT 10SM CLR 07/M02 A3011 RMK AO2,M
WYS,2024-06-01 05:55,44.60,28.40,52.72,0.00,0.00,0.00,30.10,M,10.00,M,CLR,M,M,M,M,M,M,M,M,M,M,M,M,M,M,44.60,KWYS 010555Z AUTO 00000KT 10SM CLR 07/M02 A3010 RMK AO2,M
WYS,2024-06-01 06:55,37.40,30.20,74.98,0.00,0.00,0.00,30.09,M,10.00,M,CLR,M,M,M,M,M,M,M,M,M,M,M,M,M,M,37.40,KWYS 010655Z AUTO 00000KT 10SM CLR 03/M01 A3009 RMK AO2,M
WYS,2024-06-01 07:55,33.80,30.20,86.49,260.00,3.00,0.00,30.09,M,10.00,M,CLR,M,M,M,M,M,M,M,M,M,M,M,M,M,M,30.75,KWYS 010755Z AUTO 26003KT 10SM CLR 01/M01 A3009 RMK AO2,M
WYS,2024-06-01 08:55,30.20,30.20,100.00,0.00,0.00,0.00,30.09,M,10.00,M,CLR,M,M,M,M,M,M,M,M,M,M,M,M,M,M,30.20,KWYS 010855Z AUTO 00000KT 10SM CLR M01/M01 A3009 RMK AO2,M
WYS,2024-06-01 09:55,28.40,28.40,100.00,0.00,0.00,0.00,30.09,M,10.00,M,CLR,M,M,M,M,M,M,M,M,M,M,M,M,M,M,28.40,KWYS 010955Z AUTO 00000KT 10SM CLR M02/M02 A3009 RMK AO2,M
WYS,2024-06-01 10:55,26.60,26.60,100.00,0.00,0.00,0.00,30.08,M,10.00,M,CLR,M,M,M,M,M,M,M,M,M,M,M,M,M,M,26.60,KWYS 011055Z AUTO 00000KT 10SM CLR M03/M03 A3008 RMK AO2,M
WYS,2024-06-01 11:55,26.60,26.60,100.00,0.00,0.00,0.00,30.07,M,10.00,M,CLR,M,M,M,M,M,M,M,M,M,M,M,M,M,M,26.60,KWYS 011155Z AUTO 00000KT 10SM CLR M03/M03 A3007 RMK AO2,M
WYS,2024-06-01 12:55,32.00,32.00,100.00,0.00,0.00,0.00,30.08,M,10.00,M,CLR,M,M,M,M,M,M,M,M,M,M,M,M,M,M,32.00,KWYS 011255Z AUTO 00000KT 10SM CLR 00/M00 A3008 RMK AO2,M
WYS,2024-06-01 13:55,37.40,30.20,74.98,0.00,0.00,0.00,30.08,M,10.00,M,CLR,M,M,M,M,M,M,M,M,M,M,M,M,M,M,37.40,KWYS 011355Z AUTO 00000KT 10SM CLR 03/M01 A3008 RMK AO2,M
WYS,2024-06-01 14:55,44.60,32.00,61.03,0.00,0.00,0.00,30.07,M,10.00,M,CLR,M,M,M,M,M,M,M,M,M,M,M,M,M,M,44.60,KWYS 011455Z AUTO 00000KT 10SM CLR 07/M00 A3007 RMK AO2,M
WYS,2024-06-01 15:55,53.60,30.20,40.54,230.00,3.00,0.00,30.05,M,10.00,M,CLR,M,M,M,M,M,M,M,M,M,M,M,M,M,M,53.60,KWYS 011555Z AUTO 23003KT 10SM CLR 12/M01 A3005 RMK AO2,M
WYS,2024-06-01 16:55,59.00,24.80,26.70,190.00,12.00,0.00,30.03,M,10.00,18.00,CLR,M,M,M,M,M,M,M,M,M,M,M,M,M,M,59.00,KWYS 011655Z AUTO 19012G18KT 10SM CLR 15/M04 A3003 RMK AO2,M
WYS,2024-06-01 17:55,60.80,26.60,26.98,200.00,9.00,0.00,30.01,M,10.00,14.00,CLR,M,M,M,M,M,M,M,M,M,M,M,M,M,M,60.80,KWYS 011755Z AUTO 20009G14KT 10SM CLR 16/M03 A3001 RMK AO2,M
WYS,2024-06-01 18:55,62.60,23.00,21.79,240.00,10.00,0.00,29.99,M,10.00,18.00,CLR,M,M,M,M,M,M,M,M,M,M,M,M,M,M,62.60,KWYS 011855Z AUTO 24010G18KT 10SM CLR 17/M05 A2999 RMK AO2,M
WYS,2024-06-01 19:55,64.40,24.80,22.06,230.00,14.00,0.00,29.97,M,10.00,23.00,CLR,M,M,M,M,M,M,M,M,M,M,M,M,M,M,64.40,KWYS 011955Z AUTO 23014G23KT 10SM CLR 18/M04 A2997 RMK AO2,M
WYS,2024-06-01 20:55,64.40,23.00,20.46,220.00,14.00,0.00,29.96,M,10.00,20.00,CLR,M,M,M,M,M,M,M,M,M,M,M,M,M,M,64.40,KWYS 012055Z AUTO 22014G20KT 10SM CLR 18/M05 A2996 RMK AO2,M
WYS,2024-06-01 21:55,66.20,23.00,19.22,230.00,9.00,0.00,29.95,M,10.00,17.00,CLR,M,M,M,M,M,M,M,M,M,M,M,M,M,M,66.20,KWYS 012155Z AUTO 23009G17KT 210V280 10SM CLR 19/M05 A2995 RMK AO2,M
WYS,2024-06-01 22:55,64.40,23.00,20.46,230.00,9.00,0.00,29.93,M,10.00,18.00,CLR,M,M,M,M,M,M,M,M,M,M,M,M,M,M,64.40,KWYS 012255Z AUTO 23009G18KT 10SM CLR 18/M05 A2993 RMK AO2,M
WYS,2024-06-01 23:55,64.40,21.20,18.96,240.00,11.00,0.00,29.92,M,10.00,17.00,CLR,M,M,M,M,M,M,M,M,M,M,M,M,M,M,64.40,KWYS 012355Z AUTO 24011G17KT 210V270 10SM CLR 18/M06 A2992 RMK AO2,M
WYS,2024-06-02 00:55,64.40,23.00,20.46,220.00,11.00,0.00,29.91,M,10.00,M,CLR,M,M,M,M,M,M,M,M,M,M,M,M,M,M,64.40,KWYS 020055Z AUTO 22011KT 10SM CLR 18/M05 A2991 RMK AO2,M
WYS,2024-06-02 01:55,62.60,26.60,25.32,220.00,6.00,0.00,29.91,M,10.00,M,CLR,M,M,M,M,M,M,M,M,M,M,M,M,M,M,62.60,KWYS 020155Z AUTO 22006KT 10SM CLR 17/M03 A2991 RMK AO2,M
WYS,2024-06-02 02:55,59.00,30.20,33.35,190.00,6.00,0.00,29.91,M,10.00,M,FEW,M,M,M,12000.00,M,M,M,M,M,M,M,M,M,M,59.00,KWYS 020255Z AUTO 19006KT 10SM FEW120 15/M01 A2991 RMK AO2,M
WYS,2024-06-02 03:55,53.60,30.20,40.54,300.00,5.00,0.00,29.91,M,10.00,M,OVC,M,M,M,10000.00,M,M,M,M,M,M,M,M,M,M,53.60,KWYS 020355Z AUTO 30005KT 10SM OVC100 12/M01 A2991 RMK AO2,M
WYS,2024-06-02 04:55,48.20,32.00,53.27,140.00,4.00,0.00,29.91,M,10.00,M,OVC,M,M,M,9000.00,M,M,M,M,M,M,M,M,M,M,46.34,KWYS 020455Z AUTO 14004KT 10SM OVC090 09/00 A2991 RMK AO2,M
WYS,2024-06-02 05:55,42.80,33.80,70.28,0.00,0.00,0.00,29.91,M,10.00,M,BKN,OVC,M,M,8500.00,11000.00,M,M,M,M,M,M,M,M,M,42.80,KWYS 020555Z AUTO 00000KT 10SM BKN085 OVC110 06/01 A2991 RMK AO2,M
WYS,2024-06-02 06:55,42.80,35.60,75.50,200.00,4.00,0.00,29.92,M,10.00,M,BKN,OVC,M,M,7500.00,9000.00,M,M,M,M,M,M,M,M,M,40.03,KWYS 020655Z AUTO 20004KT 10SM BKN075 OVC090 06/02 A2992 RMK AO2,M
WYS,2024-06-02 07:55,42.80,35.60,75.50,180.00,4.00,0.00,29.91,M,10.00,M,SCT,BKN,OVC,M,7000.00,8000.00,9500.00,M,M,M,M,M,M,M,M,40.03,KWYS 020755Z AUTO 18004KT 10SM SCT070 BKN080 OVC095 06/02 A2991 RMK AO2,M
WYS,2024-06-02 08:55,42.80,35.60,75.50,0.00,0.00,0.00,29.91,M,10.00,M,SCT,OVC,M,M,6000.00,7500.00,M,M,M,M,M,M,M,M,M,42.80,KWYS 020855Z AUTO 00000KT 10SM SCT060 OVC075 06/02 A2991 RMK AO2,M
WYS,2024-06-02 09:55,42.80,35.60,75.50,0.00,0.00,0.00,29.93,M,10.00,M,BKN,OVC,M,M,6000.00,7000.00,M,M,M,M,M,M,M,M,M,42.80,KWYS 020955Z AUTO 00000KT 10SM BKN060 OVC070 06/02 A2993 RMK AO2,M
WYS,2024-06-02 10:55,44.60,37.40,75.68,0.00,0.00,0.00,29.91,M,10.00,M,BKN,OVC,M,M,7000.00,8000.00,M,M,M,M,M,M,M,M,M,44.60,KWYS 021055Z AUTO 00000KT 10SM BKN070 OVC080 07/03 A2991 RMK AO2,M
WYS,2024-06-02 11:55,39.20,39.20,100.00,0.00,0.00,0.00,29.92,M,10.00,M,BKN,BKN,M,M,9500.00,11000.00,M,M,M,M,M,M,M,M,M,39.20,KWYS 021155Z AUTO 00000KT 10SM BKN095 BKN110 04/04 A2992 RMK AO2,M
WYS,2024-06-02 12:55,44.60,39.20,81.20,0.00,0.00,0.00,29.92,M,10.00,M,BKN,M,M,M,12000.00,M,M,M,M,M,M,M,M,M,M,44.60,KWYS 021255Z AUTO 00000KT 10SM BKN120 07/04 A2992 RMK AO2,M
WYS,2024-06-02 13:55,48.20,39.20,70.88,0.00,0.00,0.00,29.93,M,10.00,M,SCT,M,M,M,7500.00,M,M,M,M,M,M,M,M,M,M,48.20,KWYS 021355Z AUTO 00000KT 10SM SCT075 09/04 A2993 RMK AO2,M
WYS,2024-06-02 14:55,53.60,37.40,54.07,0.00,0.00,0.00,29.93,M,10.00,M,CLR,M,M,M,M,M,M,M,M,M,M,M,M,M,M,53.60,KWYS 021455Z AUTO 00000KT 10SM CLR 12/03 A2993 RMK AO2,M
WYS,2024-06-02 15:55,59.00,33.80,38.56,240.00,10.00,0.00,29.92,M,10.00,M,OVC,M,M,M,11000.00,M,M,M,M,M,M,M,M,M,M,59.00,KWYS 021555Z AUTO 24010KT 10SM OVC110 15/01 A2992 RMK AO2,M
WYS,2024-06-02 16:55,59.00,30.20,33.35,270.00,9.00,0.00,29.92,M,10.00,18.00,SCT,SCT,OVC,M,5500.00,6000.00,11000.00,M,M,M,M,M,M,M,M,59.00,KWYS 021655Z AUTO 27009G18KT 230V310 10SM SCT055 SCT060 OVC110 15/M01 A2992 RMK AO2,M
WYS,2024-06-02 17:55,60.80,28.40,29.06,280.00,7.00,0.00,29.92,M,10.00,M,SCT,BKN,BKN,M,7000.00,8000.00,11000.00,M,M,M,M,M,M,M,M,60.80,KWYS 021755Z AUTO 28007KT 250V310 10SM SCT070 BKN080 BKN110 16/M02 A2992 RMK AO2,M
WYS,2024-06-02 18:55,60.80,30.20,31.28,210.00,17.00,0.00,29.92,M,10.00,26.00,BKN,OVC,M,M,7000.00,8500.00,M,M,M,M,M,M,M,M,M,60.80,KWYS 021855Z AUTO 21017G26KT 10SM BKN070 OVC085 16/M01 A2992 RMK AO2,M
WYS,2024-06-02 19:55,60.80,35.60,38.85,210.00,16.00,0.00,29.93,M,10.00,24.00,BKN,BKN,M,M,6500.00,11000.00,M,M,M,M,M,M,M,M,M,60.80,KWYS 021955Z AUTO 21016G24KT 10SM BKN065 BKN110 16/02 A2993 RMK AO2,M
WYS,2024-06-02 20:55,60.80,35.60,38.85,210.00,12.00,0.00,29.92,M,10.00,26.00,FEW,BKN,OVC,M,7000.00,8000.00,9000.00,M,M,M,M,M,M,M,M,60.80,KWYS 022055Z AUTO 21012G26KT 10SM FEW070 BKN080 OVC090 16/02 A2992 RMK AO2,M
WYS,2024-06-02 21:55,59.00,37.40,44.47,220.00,14.00,0.00,29.91,M,10.00,M,BKN,OVC,M,M,7000.00,8500.00,M,M,M,M,M,M,M,M,M,59.00,KWYS 022155Z AUTO 22014KT 10SM BKN070 OVC085 15/03 A2991 RMK AO2,M
WYS,2024-06-02 22:55,59.00,39.20,47.72,230.00,10.00,0.00,29.90,M,10.00,M,BKN,M,M,M,8000.00,M,M,M,M,M,M,M,M,M,M,59.00,KWYS 022255Z AUTO 23010KT 10SM BKN080 15/04 A2990 RMK AO2,M
WYS,2024-06-02 23:55,57.20,39.20,50.91,210.00,6.00,0.00,29.89,M,10.00,M,OVC,M,M,M,7000.00,M,M,M,M,M,M,M,M,M,M,57.20,KWYS 022355Z AUTO 21006KT 10SM OVC070 14/04 A2989 RMK AO2,M
WYS,2024-06-03 00:55,59.00,37.40,44.47,210.00,6.00,0.00,29.88,M,10.00,M,BKN,OVC,M,M,7000.00,8500.00,M,M,M,M,M,M,M,M,M,59.00,KWYS 030055Z AUTO 21006KT 10SM BKN070 OVC085 15/03 A2988 RMK AO2,M
WYS,2024-06-03 01:55,59.00,37.40,44.47,210.00,9.00,0.00,29.87,M,10.00,M,OVC,M,M,M,8500.00,M,M,M,M,M,M,M,M,M,M,59.00,KWYS 030155Z AUTO 21009KT 10SM OVC085 15/03 A2987 RMK AO2,M
WYS,2024-06-03 02:55,57.20,35.60,44.19,220.00,9.00,0.00,29.87,M,10.00,M,FEW,OVC,M,M,7500.00,8500.00,M,M,M,M,M,M,M,M,M,57.20,KWYS 030255Z AUTO 22009KT 10SM FEW075 OVC085 14/02 A2987 RMK AO2,M
WYS,2024-06-03 03:55,55.40,33.80,43.90,220.00,12.00,0.00,29.87,M,10.00,17.00,FEW,M,M,M,8500.00,M,M,M,M,M,M,M,M,M,M,55.40,KWYS 030355Z AUTO 22012G17KT 10SM FEW085 13/01 A2987 RMK AO2,M
WYS,2024-06-03 04:55,53.60,35.60,50.36,230.00,7.00,0.00,29.88,M,10.00,13.00,FEW,M,M,M,11000.00,M,M,M,M,M,M,M,M,M,M,53.60,KWYS 030455Z AUTO 23007G13KT 10SM FEW110 12/02 A2988 RMK AO2,M
WYS,2024-06-03 05:55,53.60,37.40,54.07,210.00,16.00,0.00,29.87,M,10.00,M,BKN,M,M,M,11000.00,M,M,M,M,M,M,M,M,M,M,53.60,KWYS 030555Z AUTO 21016KT 10SM BKN110 12/03 A2987 RMK AO2,M
WYS,2024-06-03 06:55,51.80,37.40,57.77,220.00,10.00,0.00,29.87,M,10.00,17.00,CLR,M,M,M,M,M,M,M,M,M,M,M,M,M,M,51.80,KWYS 030655Z AUTO 22010G17KT 10SM CLR 11/03 A2987 RMK AO2,M
WYS,2024-06-03 07:55,50.00,39.20,66.27,220.00,12.00,0.00,29.85,M,10.00,M,BKN,OVC,M,M,7500.00,9000.00,M,M,M,M,M,M,M,M,M,50.00,KWYS 030755Z AUTO 22012KT 10SM BKN075 OVC090 10/04 A2985 RMK AO2,M
WYS,2024-06-03 08:55,48.20,39.20,70.88,220.00,9.00,0.00,29.84,M,10.00,M,SCT,OVC,M,M,7000.00,8500.00,M,M,M,M,M,M,M,M,M,43.66,KWYS 030855Z AUTO 22009KT 10SM SCT070 OVC085 09/04 A2984 RMK AO2,M
WYS,2024-06-03 09:55,48.20,39.20,70.88,220.00,7.00,0.00,29.83,M,10.00,M,BKN,OVC,M,M,7000.00,9000.00,M,M,M,M,M,M,M,M,M,44.53,KWYS 030955Z AUTO 22007KT 10SM BKN070 OVC090 09/04 A2983 RMK AO2,M
WYS,2024-06-03 10:55,48.20,41.00,76.01,240.00,6.00,0.00,29.82,M,10.00,M,FEW,FEW,OVC,M,2300.00,3400.00,7500.00,M,M,M,M,M,M,M,M,45.04,KWYS 031055Z AUTO 24006KT 10SM FEW023 FEW034 OVC075 09/05 A2982 RMK AO2,M
WYS,2024-06-03 11:55,50.00,41.00,71.07,0.00,0.00,0.00,29.80,M,10.00,M,OVC,M,M,M,7000.00,M,M,M,M,M,M,M,M,M,M,50.00,KWYS 031155Z AUTO 00000KT 10SM OVC070 10/05 A2980 RMK AO2,M
WYS,2024-06-03 12:55,50.00,42.80,76.18,210.00,16.00,0.00,29.80,M,10.00,21.00,FEW,SCT,OVC,M,4300.00,5500.00,7500.00,M,M,M,M,M,M,M,M,50.00,KWYS 031255Z AUTO 21016G21KT 10SM FEW043 SCT055 OVC075 10/06 A2980 RMK AO2,M
WYS,2024-06-03 13:55,48.20,48.20,100.00,210.00,10.00,0.00,29.79,M,9.00,17.00,SCT,OVC,M,M,1900.00,2500.00,M,M,M,M,M,M,M,M,M,43.28,KWYS 031355Z AUTO 21010G17KT 9SM SCT019 OVC025 09/09 A2979 RMK AO2,M
WYS,2024-06-03 14:55,48.20,48.20,100.00,220.00,13.00,0.00,29.79,M,9.00,22.00,OVC,M,M,M,1400.00,M,M,M,M,M,M,M,M,M,M,42.32,KWYS 031455Z AUTO 22013G22KT 200V260 9SM OVC014 09/09 A2979 RMK AO2,M
WYS,2024-06-03 15:55,50.00,50.00,100.00,220.00,21.00,0.01,29.78,M,5.00,27.00,BKN,BKN,BKN,M,1400.00,2100.00,2600.00,M,BR,M,M,M,M,M,M,50.00,KWYS 031555Z AUTO 22021G27KT 5SM BR BKN014 BKN021 BKN026 10/10 A2978 RMK AO2 P0001,M
WYS,2024-06-03 16:55,50.00,50.00,100.00,200.00,20.00,0.01,29.77,M,3.00,30.00,SCT,SCT,BKN,M,1400.00,2000.00,2800.00,M,BR,M,M,M,M,M,M,50.00,KWYS 031655Z AUTO 20020G30KT 3SM BR SCT014 SCT020 BKN028 10/10 A2977 RMK AO2 P0001,M
WYS,2024-06-03 17:55,50.00,50.00,100.00,210.00,19.00,0.02,29.77,M,5.00,M,SCT,BKN,BKN,M,1300.00,1900.00,2400.00,M,BR,M,M,M,M,M,M,50.00,KWYS 031755Z AUTO 21019KT 5SM BR SCT013 BKN019 BKN024 10/10 A2977 RMK AO2 P0002,M
WYS,2024-06-03 18:55,50.00,50.00,100.00,210.00,25.00,0.06,29.74,M,2.00,33.00,FEW,SCT,BKN,M,1300.00,2100.00,2500.00,M,-RA,M,M,M,M,M,M,50.00,KWYS 031855Z AUTO 21025G33KT 2SM -RA FEW013 SCT021 BKN025 10/10 A2974 RMK AO2 P0006,M
WYS,2024-06-03 19:55,50.00,50.00,100.00,220.00,16.00,0.05,29.74,M,3.00,26.00,FEW,SCT,BKN,M,1400.00,2200.00,3300.00,M,-RA,M,M,M,M,M,M,50.00,KWYS 031955Z AUTO 22016G26KT 3SM -RA FEW014 SCT022 BKN033 10/10 A2974 RMK AO2 P0005,M
WYS,2024-06-03 20:55,50.00,50.00,100.00,210.00,22.00,0.00,29.73,M,10.00,35.00,BKN,OVC,M,M,1700.00,2500.00,M,M,M,M,M,M,M,M,M,50.00,KWYS 032055Z AUTO 21022G35KT 10SM BKN017 OVC025 10/10 A2973 RMK AO2,M
WYS,2024-06-03 21:55,50.00,50.00,100.00,210.00,24.00,0.00,29.71,M,2.00,35.00,FEW,SCT,BKN,M,1300.00,2400.00,2900.00,M,BR,M,M,M,M,M,M,50.00,KWYS 032155Z AUTO 21024G35KT 2SM BR FEW013 SCT024 BKN029 10/10 A2971 RMK AO2,M
WYS,2024-06-03 22:55,50.00,50.00,100.00,210.00,17.00,0.07,29.72,M,2.50,29.00,SCT,BKN,BKN,M,2000.00,2600.00,3700.00,M,BR,M,M,M,M,M,M,50.00,KWYS 032255Z AUTO 21017G29KT 2 1/2SM BR SCT020 BKN026 BKN037 10/10 A2972 RMK AO2 P0007,M
WYS,2024-06-03 23:55,51.80,51.80,100.00,230.00,20.00,0.09,29.70,M,10.00,29.00,FEW,BKN,BKN,M,1600.00,2600.00,6500.00,M,M,M,M,M,M,M,M,51.80,KWYS 032355Z AUTO 23020G29KT 10SM FEW016 BKN026 BKN065 11/11 A2970 RMK AO2 P0009,M
WYS,2024-06-04 00:55,51.80,51.80,100.00,220.00,17.00,0.02,29.72,M,10.00,31.00,BKN,OVC,M,M,1800.00,2400.00,M,M,M,M,M,M,M,M,M,51.80,KWYS 040055Z AUTO 22017G31KT 10SM BKN018 OVC024 11/11 A2972 RMK AO2 P0002,M
WYS,2024-06-04 01:55,50.00,50.00,100.00,200.00,14.00,0.00,29.71,M,5.00,25.00,FEW,BKN,BKN,M,1800.00,2500.00,3500.00,M,BR,M,M,M,M,M,M,50.00,KWYS 040155Z AUTO 20014G25KT 5SM BR FEW018 BKN025 BKN035 10/10 A2971 RMK AO2,M
WYS,2024-06-04 02:55,48.20,48.20,100.00,230.00,13.00,0.07,29.74,M,4.00,26.00,FEW,SCT,BKN,M,400.00,3100.00,5500.00,M,-RA,M,M,M,M,M,M,42.32,KWYS 040255Z AUTO 23013G26KT 4SM -RA FEW004 SCT031 BKN055 09/09 A2974 RMK AO2 P0007,M
WYS,2024-06-04 03:55,48.20,48.20,100.00,210.00,8.00,0.01,29.79,M,10.00,M,OVC,M,M,M,7000.00,M,M,M,M,M,M,M,M,M,M,44.07,KWYS 040355Z AUTO 21008KT 10SM OVC070 09/09 A2979 RMK AO2 P0001,M
WYS,2024-06-04 04:55,46.40,46.40,100.00,190.00,6.00,0.00,29.82,M,10.00,M,OVC,M,M,M,7500.00,M,M,M,M,M,M,M,M,M,M,42.87,KWYS 040455Z AUTO 19006KT 10SM OVC075 08/08 A2982 RMK AO2,M
WYS,2024-06-04 05:55,44.60,46.40,M,200.00,6.00,0.00,29.84,M,10.00,M,OVC,M,M,M,7500.00,M,M,M,M,M,M,M,M,M,M,M,KWYS 040555Z AUTO 20006KT 10SM OVC075 07/08 A2984 RMK AO2,M
WYS,2024-06-04 06:55,42.80,42.80,100.00,0.00,0.00,0.00,29.85,M,10.00,M,CLR,M,M,M,M,M,M,M,M,M,M,M,M,M,M,42.80,KWYS 040655Z AUTO 00000KT 10SM CLR 06/06 A2985 RMK AO2,M
WYS,2024-06-04 07:55,41.00,41.00,100.00,230.00,9.00,0.00,29.86,M,10.00,M,SCT,BKN,M,M,7000.00,11000.00,M,M,M,M,M,M,M,M,M,34.70,KWYS 040755Z AUTO 23009KT 10SM SCT070 BKN110 05/05 A2986 RMK AO2,M
WYS,2024-06-04 08:55,39.20,39.20,100.00,260.00,7.00,0.00,29.87,M,10.00,M,CLR,M,M,M,M,M,M,M,M,M,M,M,M,M,M,33.56,KWYS 040855Z AUTO 26007KT 230V290 10SM CLR 04/04 A2987 RMK AO2,M
WYS,2024-06-04 09:55,39.20,39.20,100.00,250.00,7.00,0.00,29.88,M,10.00,M,CLR,M,M,M,M,M,M,M,M,M,M,M,M,M,M,33.56,KWYS 040955Z AUTO 25007KT 10SM CLR 04/04 A2988 RMK AO2,M
WYS,2024-06-04 10:55,35.60,35.60,100.00,150.00,3.00,0.00,29.90,M,10.00,M,CLR,M,M,M,M,M,M,M,M,M,M,M,M,M,M,32.80,KWYS 041055Z AUTO 15003KT 10SM CLR 02/02 A2990 RMK AO2,M
WYS,2024-06-04 11:55,39.20,39.20,100.00,M,5.00,0.00,29.95,M,10.00,11.00,FEW,M,M,M,6000.00,M,M,M,M,M,M,M,M,M,M,34.95,KWYS 041155Z AUTO VRB05G11KT 10SM FEW060 04/04 A2995 RMK AO2,M
WYS,2024-06-04 12:55,42.80,37.40,81.07,M,3.00,0.00,29.97,M,10.00,M,CLR,M,M,M,M,M,M,M,M,M,M,M,M,M,M,41.03,KWYS 041255Z AUTO VRB03KT 10SM CLR 06/03 A2997 RMK AO2,M
WYS,2024-06-04 13:55,46.40,35.60,65.83,240.00,8.00,0.00,29.99,M,10.00,M,CLR,M,M,M,M,M,M,M,M,M,M,M,M,M,M,41.85,KWYS 041355Z AUTO 24008KT 10SM CLR 08/02 A2999 RMK AO2,M
WYS,2024-06-04 14:55,48.20,32.00,53.27,240.00,14.00,0.00,30.00,M,10.00,21.00,CLR,M,M,M,M,M,M,M,M,M,M,M,M,M,M,42.04,KWYS 041455Z AUTO 24014G21KT 10SM CLR 09/M00 A3000 RMK AO2,M
WYS,2024-06-04 15:55,50.00,32.00,49.81,240.00,11.00,0.00,30.03,M,10.00,20.00,CLR,M,M,M,M,M,M,M,M,M,M,M,M,M,M,50.00,KWYS 041555Z AUTO 24011G20KT 10SM CLR 10/00 A3003 RMK AO2,M
WYS,2024-06-04 16:55,51.80,30.20,43.32,240.00,12.00,0.00,30.04,M,10.00,19.00,CLR,M,M,M,M,M,M,M,M,M,M,M,M,M,M,51.80,KWYS 041655Z AUTO 24012G19KT 10SM CLR 11/M01 A3004 RMK AO2,M
WYS,2024-06-04 17:55,55.40,30.20,37.97,240.00,15.00,0.00,30.04,M,10.00,23.00,CLR,M,M,M,M,M,M,M,M,M,M,M,M,M,M,55.40,KWYS 041755Z AUTO 24015G23KT 10SM CLR 13/M01 A3004 RMK AO2,M
WYS,2024-06-04 18:55,59.00,32.00,35.87,250.00,14.00,0.00,30.02,M,10.00,20.00,CLR,M,M,M,M,M,M,M,M,M,M,M,M,M,M,59.00,KWYS 041855Z AUTO 25014G20KT 220V280 10SM CLR 15/00 A3002 RMK AO2,M
WYS,2024-06-04 19:55,59.00,33.80,38.56,230.00,20.00,0.00,30.02,M,10.00,26.00,FEW,M,M,M,7000.00,M,M,M,M,M,M,M,M,M,M,59.00,KWYS 041955Z AUTO 23020G26KT 10SM FEW070 15/01 A3002 RMK AO2,M
WYS,2024-06-04 20:55,60.80,39.20,44.76,220.00,19.00,0.00,30.03,M,10.00,M,BKN,OVC,M,M,6500.00,7500.00,M,M,M,M,M,M,M,M,M,60.80,KWYS 042055Z AUTO 22019KT 10SM BKN065 OVC075 16/04 A3003 RMK AO2,M
WYS,2024-06-04 21:55,59.00,37.40,44.47,220.00,19.00,0.00,30.03,M,10.00,26.00,SCT,SCT,M,M,7000.00,8000.00,M,M,M,M,M,M,M,M,M,59.00,KWYS 042155Z AUTO 22019G26KT 10SM SCT070 SCT080 15/03 A3003 RMK AO2,M
WYS,2024-06-04 22:55,59.00,39.20,47.72,210.00,18.00,0.00,30.03,M,10.00,M,OVC,M,M,M,7000.00,M,M,M,M,M,M,M,M,M,M,59.00,KWYS 042255Z AUTO 21018KT 10SM OVC070 15/04 A3003 RMK AO2,M
WYS,2024-06-04 23:55,60.80,39.20,44.76,220.00,16.00,0.00,30.03,M,10.00,24.00,OVC,M,M,M,9000.00,M,M,M,M,M,M,M,M,M,M,60.80,KWYS 042355Z AUTO 22016G24KT 10SM OVC090 16/04 A3003 RMK AO2,M
WYS,2024-06-05 00:55,60.80,39.20,44.76,230.00,17.00,0.00,30.02,M,10.00,23.00,BKN,OVC,M,M,7500.00,8500.00,M,M,M,M,M,M,M,M,M,60.80,KWYS 050055Z AUTO 23017G23KT 10SM BKN075 OVC085 16/04 A3002 RMK AO2,M
WYS,2024-06-05 01:55,59.00,41.00,51.18,230.00,14.00,0.00,30.02,M,10.00,23.00,BKN,M,M,M,8500.00,M,M,M,M,M,M,M,M,M,M,59.00,KWYS 050155Z AUTO 23014G23KT 10SM BKN085 15/05 A3002 RMK AO2,M
WYS,2024-06-05 02:55,57.20,42.80,58.52,220.00,11.00,0.00,30.02,M,10.00,21.00,BKN,M,M,M,9000.00,M,M,M,M,M,M,M,M,M,M,57.20,KWYS 050255Z AUTO 22011G21KT 10SM BKN090 14/06 A3002 RMK AO2,M
WYS,2024-06-05 03:55,55.40,42.80,62.46,240.00,8.00,0.00,30.04,M,10.00,17.00,SCT,BKN,BKN,M,7000.00,8000.00,9000.00,M,M,M,M,M,M,M,M,55.40,KWYS 050355Z AUTO 24008G17KT 10SM SCT070 BKN080 BKN090 13/06 A3004 RMK AO2,M
WYS,2024-06-05 04:50,53.60,44.60,71.45,190.00,6.00,0.00,30.05,M,10.00,M,BKN,OVC,M,M,7500.00,8500.00,M,M,M,M,M,M,M,M,M,53.60,KWYS 050450Z AUTO 19006KT 10SM BKN075 OVC085 12/07 A3005 RMK AO2,M
WYS,2024-06-05 05:55,51.80,44.60,76.34,240.00,7.00,0.00,30.06,M,10.00,M,FEW,M,M,M,7500.00,M,M,M,M,M,M,M,M,M,M,51.80,KWYS 050555Z AUTO 24007KT 10SM FEW075 11/07 A3006 RMK AO2,M
WYS,2024-06-05 06:50,53.60,42.80,66.70,250.00,7.00,0.00,30.06,M,10.00,M,BKN,M,M,M,7000.00,M,M,M,M,M,M,M,M,M,M,53.60,KWYS 050650Z AUTO 25007KT 10SM BKN070 12/06 A3006 RMK AO2,M
WYS,2024-06-05 07:55,50.00,42.80,76.18,240.00,6.00,0.00,30.05,M,10.00,M,FEW,M,M,M,7000.00,M,M,M,M,M,M,M,M,M,M,50.00,KWYS 050755Z AUTO 24006KT 10SM FEW070 10/06 A3005 RMK AO2,M
WYS,2024-06-05 08:55,48.20,41.00,76.01,240.00,7.00,0.00,30.06,M,10.00,M,FEW,M,M,M,7000.00,M,M,M,M,M,M,M,M,M,M,44.53,KWYS 050855Z AUTO 24007KT 10SM FEW070 09/05 A3006 RMK AO2,M
WYS,2024-06-05 09:55,50.00,42.80,76.18,240.00,6.00,0.00,30.07,M,10.00,12.00,OVC,M,M,M,7000.00,M,M,M,M,M,M,M,M,M,M,50.00,KWYS 050955Z AUTO 24006G12KT 10SM OVC070 10/06 A3007 RMK AO2,M
WYS,2024-06-05 10:55,48.20,44.60,87.28,240.00,11.00,0.00,30.06,M,10.00,16.00,CLR,M,M,M,M,M,M,M,M,M,M,M,M,M,M,42.94,KWYS 051055Z AUTO 24011G16KT 10SM CLR 09/07 A3006 RMK AO2,M
WYS,2024-06-05 11:55,48.20,46.40,93.45,230.00,12.00,0.00,30.08,M,10.00,M,CLR,M,M,M,M,M,M,M,M,M,M,M,M,M,M,42.62,KWYS 051155Z AUTO 23012KT 10SM CLR 09/08 A3008 RMK AO2,M
WYS,2024-06-05 12:55,48.20,48.20,100.00,240.00,11.00,0.00,30.09,M,10.00,18.00,CLR,M,M,M,M,M,M,M,M,M,M,M,M,M,M,42.94,KWYS 051255Z AUTO 24011G18KT 10SM CLR 09/09 A3009 RMK AO2,M
WYS,2024-06-05 13:55,51.80,48.20,87.47,220.00,10.00,0.00,30.10,M,10.00,15.00,CLR,M,M,M,M,M,M,M,M,M,M,M,M,M,M,51.80,KWYS 051355Z AUTO 22010G15KT 10SM CLR 11/09 A3010 RMK AO2,M
WYS,2024-06-05 14:55,59.00,46.40,62.92,220.00,11.00,0.00,30.11,M,10.00,M,CLR,M,M,M,M,M,M,M,M,M,M,M,M,M,M,59.00,KWYS 051455Z AUTO 22011KT 10SM CLR 15/08 A3011 RMK AO2,M
WYS,2024-06-05 15:55,62.60,42.80,48.28,250.00,8.00,0.00,30.12,M,10.00,16.00,CLR,M,M,M,M,M,M,M,M,M,M,M,M,M,M,62.60,KWYS 051555Z AUTO 25008G16KT 10SM CLR 17/06 A3012 RMK AO2,M
WYS,2024-06-05 16:55,64.40,33.80,31.85,240.00,14.00,0.00,30.11,M,10.00,23.00,CLR,M,M,M,M,M,M,M,M,M,M,M,M,M,M,64.40,KWYS 051655Z AUTO 24014G23KT 10SM CLR 18/01 A3011 RMK AO2,M
WYS,2024-06-05 17:50,68.00,32.00,26.15,230.00,12.00,0.00,30.11,M,10.00,21.00,CLR,M,M,M,M,M,M,M,M,M,M,M,M,M,M,68.00,KWYS 051750Z AUTO 23012G21KT 10SM CLR 20/M00 A3011 RMK AO2,M
WYS,2024-06-05 18:55,69.80,37.40,30.49,240.00,11.00,0.00,30.12,M,10.00,23.00,CLR,M,M,M,M,M,M,M,M,M,M,M,M,M,M,69.80,KWYS 051855Z AUTO 24011G23KT 10SM CLR 21/03 A3012 RMK AO2,M
WYS,2024-06-05 19:55,69.80,41.00,35.09,230.00,16.00,0.00,30.12,M,10.00,28.00,CLR,M,M,M,M,M,M,M,M,M,M,M,M,M,M,69.80,KWYS 051955Z AUTO 23016G28KT 10SM CLR 21/05 A3012 RMK AO2,M
WYS,2024-06-05 20:55,71.60,35.60,26.71,220.00,15.00,0.00,30.12,M,10.00,25.00,FEW,SCT,M,M,7500.00,9000.00,M,M,M,M,M,M,M,M,M,71.60,KWYS 052055Z AUTO 22015G25KT 10SM FEW075 SCT090 22/02 A3012 RMK AO2,M
WYS,2024-06-05 21:55,73.40,37.40,26.98,230.00,10.00,0.00,30.12,M,10.00,22.00,FEW,M,M,M,8500.00,M,M,M,M,M,M,M,M,M,M,73.40,KWYS 052155Z AUTO 23010G22KT 210V270 10SM FEW085 23/03 A3012 RMK AO2,M
WYS,2024-06-05 22:55,73.40,35.60,25.13,240.00,11.00,0.00,30.12,M,10.00,24.00,FEW,M,M,M,9500.00,M,M,M,M,M,M,M,M,M,M,73.40,KWYS 052255Z AUTO 24011G24KT 10SM FEW095 23/02 A3012 RMK AO2,M
WYS,2024-06-05 23:55,73.40,37.40,26.98,230.00,14.00,0.00,30.12,M,10.00,21.00,CLR,M,M,M,M,M,M,M,M,M,M,M,M,M,M,73.40,KWYS 052355Z AUTO 23014G21KT 10SM CLR 23/03 A3012 RMK AO2,M
WYS,2024-06-06 00:55,73.40,32.00,21.76,240.00,15.00,0.00,30.12,M,10.00,22.00,CLR,M,M,M,M,M,M,M,M,M,M,M,M,M,M,73.40,KWYS 060055Z AUTO 24015G22KT 10SM CLR 23/00 A3012 RMK AO2,M
WYS,2024-06-06 01:55,69.80,42.80,37.61,230.00,13.00,0.00,30.13,M,10.00,22.00,CLR,M,M,M,M,M,M,M,M,M,M,M,M,M,M,69.80,KWYS 060155Z AUTO 23013G22KT 10SM CLR 21/06 A3013 RMK AO2,M
WYS,2024-06-06 02:55,64.40,42.80,45.32,220.00,14.00,0.00,30.14,M,10.00,20.00,CLR,M,M,M,M,M,M,M,M,M,M,M,M,M,M,64.40,KWYS 060255Z AUTO 22014G20KT 10SM CLR 18/06 A3014 RMK AO2,M
WYS,2024-06-06 03:55,60.80,42.80,51.45,220.00,6.00,0.00,30.17,M,10.00,M,CLR,M,M,M,M,M,M,M,M,M,M,M,M,M,M,60.80,KWYS 060355Z AUTO 22006KT 10SM CLR 16/06 A3017 RMK AO2,M
WYS,2024-06-06 04:55,57.20,42.80,58.52,210.00,7.00,0.00,30.18,M,10.00,M,CLR,M,M,M,M,M,M,M,M,M,M,M,M,M,M,57.20,KWYS 060455Z AUTO 21007KT 10SM CLR 14/06 A3018 RMK AO2,M
WYS,2024-06-06 05:55,57.20,41.00,54.60,230.00,9.00,0.00,30.19,M,10.00,M,CLR,M,M,M,M,M,M,M,M,M,M,M,M,M,M,57.20,KWYS 060555Z AUTO 23009KT 10SM CLR 14/05 A3019 RMK AO2,M
WYS,2024-06-06 06:55,51.80,42.80,71.26,230.00,4.00,0.00,30.20,M,10.00,M,CLR,M,M,M,M,M,M,M,M,M,M,M,M,M,M,51.80,KWYS 060655Z AUTO 23004KT 10SM CLR 11/06 A3020 RMK AO2,M
WYS,2024-06-06 07:55,44.60,42.80,93.35,300.00,4.00,0.00,30.21,M,10.00,M,CLR,M,M,M,M,M,M,M,M,M,M,M,M,M,M,42.13,KWYS 060755Z AUTO 30004KT 10SM CLR 07/06 A3021 RMK AO2,M
WYS,2024-06-06 08:55,41.00,41.00,100.00,0.00,0.00,0.00,30.21,M,10.00,M,CLR,M,M,M,M,M,M,M,M,M,M,M,M,M,M,41.00,KWYS 060855Z AUTO 00000KT 10SM CLR 05/05 A3021 RMK AO2,M
WYS,2024-06-06 09:55,39.20,39.20,100.00,0.00,0.00,0.00,30.21,M,10.00,M,CLR,M,M,M,M,M,M,M,M,M,M,M,M,M,M,39.20,KWYS 060955Z AUTO 00000KT 10SM CLR 04/04 A3021 RMK AO2,M
WYS,2024-06-06 10:55,35.60,35.60,100.00,0.00,0.00,0.00,30.22,M,10.00,M,CLR,M,M,M,M,M,M,M,M,M,M,M,M,M,M,35.60,KWYS 061055Z AUTO 00000KT 10SM CLR 02/02 A3022 RMK AO2,M
WYS,2024-06-06 11:55,33.80,33.80,100.00,0.00,0.00,0.00,30.25,M,10.00,M,CLR,M,M,M,M,M,M,M,M,M,M,M,M,M,M,33.80,KWYS 061155Z AUTO 00000KT 10SM CLR 01/01 A3025 RMK AO2,M
WYS,2024-06-06 12:55,39.20,39.20,100.00,0.00,0.00,0.00,30.26,M,10.00,M,CLR,M,M,M,M,M,M,M,M,M,M,M,M,M,M,39.20,KWYS 061255Z AUTO 00000KT 10SM CLR 04/04 A3026 RMK AO2,M
WYS,2024-06-06 13:55,46.40,42.80,87.19,0.00,0.00,0.00,30.28,M,10.00,M,CLR,M,M,M,M,M,M,M,M,M,M,M,M,M,M,46.40,KWYS 061355Z AUTO 00000KT 10SM CLR 08/06 A3028 RMK AO2,M
WYS,2024-06-06 14:55,53.60,42.80,66.70,0.00,0.00,0.00,30.27,M,10.00,M,CLR,M,M,M,M,M,M,M,M,M,M,M,M,M,M,53.60,KWYS 061455Z AUTO 00000KT 10SM CLR 12/06 A3027 RMK AO2,M
WYS,2024-06-06 15:55,60.80,41.00,48.00,150.00,3.00,0.00,30.25,M,10.00,M,CLR,M,M,M,M,M,M,M,M,M,M,M,M,M,M,60.80,KWYS 061555Z AUTO 15003KT 10SM CLR 16/05 A3025 RMK AO2,M
WYS,2024-06-06 16:55,66.20,39.20,37.03,M,5.00,0.00,30.24,M,10.00,M,CLR,M,M,M,M,M,M,M,M,M,M,M,M,M,M,66.20,KWYS 061655Z AUTO VRB05KT 10SM CLR 19/04 A3024 RMK AO2,M
WYS,2024-06-06 17:55,69.80,32.00,24.59,M,3.00,0.00,30.22,M,10.00,11.00,CLR,M,M,M,M,M,M,M,M,M,M,M,M,M,M,69.80,KWYS 061755Z AUTO VRB03G11KT 10SM CLR 21/M00 A3022 RMK AO2,M
WYS,2024-06-06 18:55,71.60,33.80,24.86,260.00,7.00,0.00,30.20,M,10.00,M,CLR,M,M,M,M,M,M,M,M,M,M,M,M,M,M,71.60,KWYS 061855Z AUTO 26007KT 10SM CLR 22/01 A3020 RMK AO2,M
WYS,2024-06-06 19:55,73.40,33.80,23.39,250.00,8.00,0.00,30.18,M,10.00,19.00,CLR,M,M,M,M,M,M,M,M,M,M,M,M,M,M,73.40,KWYS 061955Z AUTO 25008G19KT 10SM CLR 23/01 A3018 RMK AO2,M
WYS,2024-06-06 20:55,75.20,35.60,23.66,210.00,14.00,0.00,30.16,M,10.00,23.00,CLR,M,M,M,M,M,M,M,M,M,M,M,M,M,M,75.20,KWYS 062055Z AUTO 21014G23KT 10SM CLR 24/02 A3016 RMK AO2,M
WYS,2024-06-06 21:55,77.00,35.60,22.28,210.00,16.00,0.00,30.14,M,10.00,26.00,CLR,M,M,M,M,M,M,M,M,M,M,M,M,M,M,77.00,KWYS 062155Z AUTO 21016G26KT 10SM CLR 25/02 A3014 RMK AO2,M
WYS,2024-06-06 22:55,75.20,33.80,22.02,210.00,10.00,0.00,30.14,M,10.00,18.00,CLR,M,M,M,M,M,M,M,M,M,M,M,M,M,M,75.20,KWYS 062255Z AUTO 21010G18KT 10SM CLR 24/01 A3014 RMK AO2,M
WYS,2024-06-06 23:50,73.40,35.60,25.13,240.00,13.00,0.00,30.13,M,10.00,20.00,CLR,M,M,M,M,M,M,M,M,M,M,M,M,M,M,73.40,KWYS 062350Z AUTO 24013G20KT 10SM CLR 23/02 A3013 RMK AO2,M
WYS,2024-06-07 00:55,71.60,35.60,26.71,230.00,10.00,0.00,30.12,M,10.00,M,CLR,M,M,M,M,M,M,M,M,M,M,M,M,M,M,71.60,KWYS 070055Z AUTO 23010KT 10SM CLR 22/02 A3012 RMK AO2,M
WYS,2024-06-07 01:50,69.80,35.60,28.39,230.00,9.00,0.00,30.12,M,10.00,M,CLR,M,M,M,M,M,M,M,M,M,M,M,M,M,M,69.80,KWYS 070150Z AUTO 23009KT 190V250 10SM CLR 21/02 A3012 RMK AO2,M
WYS,2024-06-07 02:55,66.20,39.20,37.03,0.00,0.00,0.00,30.12,M,10.00,M,SCT,M,M,M,11000.00,M,M,M,M,M,M,M,M,M,M,66.20,KWYS 070255Z AUTO 00000KT 10SM SCT110 19/04 A3012 RMK AO2,M
WYS,2024-06-07 03:55,62.60,41.00,45.04,M,4.00,0.00,30.13,M,10.00,M,FEW,BKN,OVC,M,7500.00,9000.00,11000.00,M,M,M,M,M,M,M,M,62.60,KWYS 070355Z AUTO VRB04KT 10SM FEW075 BKN090 OVC110 17/05 A3013 RMK AO2,M
WYS,2024-06-07 04:55,60.80,39.20,44.76,210.00,4.00,0.00,30.13,M,10.00,M,SCT,M,M,M,10000.00,M,M,M,M,M,M,M,M,M,M,60.80,KWYS 070455Z AUTO 21004KT 10SM SCT100 16/04 A3013 RMK AO2,M
WYS,2024-06-07 05:55,53.60,42.80,66.70,170.00,4.00,0.00,30.12,M,10.00,M,BKN,M,M,M,12000.00,M,M,M,M,M,M,M,M,M,M,53.60,KWYS 070555Z AUTO 17004KT 10SM BKN120 12/06 A3012 RMK AO2,M
WYS,2024-06-07 06:55,55.40,41.00,58.27,0.00,0.00,0.00,30.11,M,10.00,M,FEW,BKN,M,M,9000.00,12000.00,M,M,M,M,M,M,M,M,M,55.40,KWYS 070655Z AUTO 00000KT 10SM FEW090 BKN120 13/05 A3011 RMK AO2,M
WYS,2024-06-07 07:55,50.00,42.80,76.18,20.00,5.00,0.00,30.09,M,10.00,M,FEW,M,M,M,12000.00,M,M,M,M,M,M,M,M,M,M,50.00,KWYS 070755Z AUTO 02005KT 10SM FEW120 10/06 A3009 RMK AO2,M
WYS,2024-06-07 08:55,46.40,44.60,93.40,190.00,3.00,0.00,30.08,M,10.00,M,CLR,M,M,M,M,M,M,M,M,M,M,M,M,M,M,45.15,KWYS 070855Z AUTO 19003KT 10SM CLR 08/07 A3008 RMK AO2,M
WYS,2024-06-07 09:55,44.60,44.60,100.00,0.00,0.00,0.00,30.08,M,10.00,M,CLR,M,M,M,M,M,M,M,M,M,M,M,M,M,M,44.60,KWYS 070955Z AUTO 00000KT 10SM CLR 07/07 A3008 RMK AO2,M
WYS,2024-06-07 10:55,41.00,41.00,100.00,0.00,0.00,0.00,30.09,M,10.00,M,CLR,M,M,M,M,M,M,M,M,M,M,M,M,M,M,41.00,KWYS 071055Z AUTO 00000KT 10SM CLR 05/05 A3009 RMK AO2,M
WYS,2024-06-07 11:55,39.20,39.20,100.00,0.00,0.00,0.00,30.11,M,10.00,M,CLR,M,M,M,M,M,M,M,M,M,M,M,M,M,M,39.20,KWYS 071155Z AUTO 00000KT 10SM CLR 04/04 A3011 RMK AO2,M
WYS,2024-06-07 12:55,44.60,44.60,100.00,0.00,0.00,0.00,30.12,M,10.00,M,CLR,M,M,M,M,M,M,M,M,M,M,M,M,M,M,44.60,KWYS 071255Z AUTO 00000KT 10SM CLR 07/07 A3012 RMK AO2,M
WYS,2024-06-07 13:55,51.80,44.60,76.34,0.00,0.00,0.00,30.13,M,10.00,M,CLR,M,M,M,M,M,M,M,M,M,M,M,M,M,M,51.80,KWYS 071355Z AUTO 00000KT 10SM CLR 11/07 A3013 RMK AO2,M
WYS,2024-06-07 14:55,59.00,44.60,58.77,0.00,0.00,0.00,30.12,M,10.00,M,CLR,M,M,M,M,M,M,M,M,M,M,M,M,M,M,59.00,KWYS 071455Z AUTO 00000KT 10SM CLR 15/07 A3012 RMK AO2,M
WYS,2024-06-07 15:55,66.20,46.40,48.83,M,3.00,0.00,30.11,M,10.00,M,CLR,M,M,M,M,M,M,M,M,M,M,M,M,M,M,66.20,KWYS 071555Z AUTO VRB03KT 10SM CLR 19/08 A3011 RMK AO2,M
WYS,2024-06-07 16:55,69.80,41.00,35.09,250.00,6.00,0.00,30.10,M,10.00,M,CLR,M,M,M,M,M,M,M,M,M,M,M,M,M,M,69.80,KWYS 071655Z AUTO 25006KT 10SM CLR 21/05 A3010 RMK AO2,M
WYS,2024-06-07 17:55,71.60,39.20,30.77,220.00,8.00,0.00,30.09,M,10.00,M,SCT,SCT,M,M,7000.00,8000.00,M,M,M,M,M,M,M,M,M,71.60,KWYS 071755Z AUTO 22008KT 210V280 10SM SCT070 SCT080 22/04 A3009 RMK AO2,M
WYS,2024-06-07 18:55,69.80,39.20,32.72,250.00,7.00,0.00,30.08,M,10.00,M,SCT,SCT,BKN,M,7500.00,9000.00,11000.00,M,M,M,M,M,M,M,M,69.80,KWYS 071855Z AUTO 25007KT 10SM SCT075 SCT090 BKN110 21/04 A3008 RMK AO2,M
WYS,2024-06-07 19:55,71.60,35.60,26.71,M,6.00,0.00,30.07,M,10.00,M,BKN,BKN,M,M,8000.00,11000.00,M,M,M,M,M,M,M,M,M,71.60,KWYS 071955Z AUTO VRB06KT 10SM BKN080 BKN110 22/02 A3007 RMK AO2,M
WYS,2024-06-07 20:55,75.20,33.80,22.02,270.00,12.00,0.00,30.05,M,10.00,23.00,BKN,M,M,M,10000.00,M,M,M,M,M,M,M,M,M,M,75.20,KWYS 072055Z AUTO 27012G23KT 250V320 10SM BKN100 24/01 A3005 RMK AO2,M
WYS,2024-06-07 21:55,73.40,42.80,33.29,250.00,10.00,0.00,30.04,M,10.00,21.00,BKN,BKN,M,M,9000.00,11000.00,M,M,M,M,M,M,M,M,M,73.40,KWYS 072155Z AUTO 25010G21KT 10SM BKN090 BKN110 23/06 A3004 RMK AO2,M
WYS,2024-06-07 22:55,73.40,41.00,31.05,250.00,8.00,0.00,30.02,M,10.00,24.00,BKN,BKN,M,M,9000.00,11000.00,M,M,M,M,M,M,M,M,M,73.40,KWYS 072255Z AUTO 25008G24KT 210V290 10SM BKN090 BKN110 23/05 A3002 RMK AO2,M
WYS,2024-06-07 23:55,75.20,42.80,31.34,220.00,8.00,0.00,30.01,M,10.00,M,BKN,M,M,M,9500.00,M,M,M,M,M,M,M,M,M,M,75.20,KWYS 072355Z AUTO 22008KT 210V270 10SM BKN095 24/06 A3001 RMK AO2,M
WYS,2024-06-08 00:55,71.60,42.80,35.37,210.00,9.00,0.00,30.01,M,10.00,M,BKN,BKN,M,M,10000.00,12000.00,M,M,M,M,M,M,M,M,M,71.60,KWYS 080055Z AUTO 21009KT 10SM BKN100 BKN120 22/06 A3001 RMK AO2,M
WYS,2024-06-08 01:50,69.80,42.80,37.61,200.00,15.00,0.00,30.01,M,10.00,22.00,OVC,M,M,M,10000.00,M,M,M,M,M,M,M,M,M,M,69.80,KWYS 080150Z AUTO 20015G22KT 10SM OVC100 21/06 A3001 RMK AO2,M
WYS,2024-06-08 02:55,64.40,42.80,45.32,210.00,17.00,0.00,30.04,M,10.00,22.00,SCT,M,M,M,11000.00,M,M,M,M,M,M,M,M,M,M,64.40,KWYS 080255Z AUTO 21017G22KT 10SM SCT110 18/06 A3004 RMK AO2,M
WYS,2024-06-08 03:50,60.80,41.00,48.00,210.00,14.00,0.00,30.04,M,10.00,21.00,CLR,M,M,M,M,M,M,M,M,M,M,M,M,M,M,60.80,KWYS 080350Z AUTO 21014G21KT 10SM CLR 16/05 A3004 RMK AO2,M
WYS,2024-06-08 04:55,59.00,42.80,54.86,170.00,8.00,0.00,30.07,M,10.00,18.00,CLR,M,M,M,M,M,M,M,M,M,M,M,M,M,M,59.00,KWYS 080455Z AUTO 17008G18KT 10SM CLR 15/06 A3007 RMK AO2,M
WYS,2024-06-08 05:55,55.40,42.80,62.46,210.00,5.00,0.00,30.07,M,10.00,M,CLR,M,M,M,M,M,M,M,M,M,M,M,M,M,M,55.40,KWYS 080555Z AUTO 21005KT 10SM CLR 13/06 A3007 RMK AO2,M
WYS,2024-06-08 06:55,51.80,44.60,76.34,M,3.00,0.00,30.07,M,10.00,M,BKN,M,M,M,11000.00,M,M,M,M,M,M,M,M,M,M,51.80,KWYS 080655Z AUTO VRB03KT 10SM BKN110 11/07 A3007 RMK AO2,M
WYS,2024-06-08 07:55,46.40,44.60,93.40,0.00,0.00,0.00,30.06,M,10.00,M,CLR,M,M,M,M,M,M,M,M,M,M,M,M,M,M,46.40,KWYS 080755Z AUTO 00000KT 10SM CLR 08/07 A3006 RMK AO2,M
WYS,2024-06-08 08:55,42.80,42.80,100.00,0.00,0.00,0.00,30.07,M,10.00,M,CLR,M,M,M,M,M,M,M,M,M,M,M,M,M,M,42.80,KWYS 080855Z AUTO 00000KT 10SM CLR 06/06 A3007 RMK AO2,M
WYS,2024-06-08 09:55,41.00,41.00,100.00,0.00,0.00,0.00,30.06,M,10.00,M,CLR,M,M,M,M,M,M,M,M,M,M,M,M,M,M,41.00,KWYS 080955Z AUTO 00000KT 10SM CLR 05/05 A3006 RMK AO2,M
WYS,2024-06-08 10:55,39.20,39.20,100.00,0.00,0.00,0.00,30.06,M,10.00,M,CLR,M,M,M,M,M,M,M,M,M,M,M,M,M,M,39.20,KWYS 081055Z AUTO 00000KT 10SM CLR 04/04 A3006 RMK AO2,M
WYS,2024-06-08 11:55,37.40,37.40,100.00,0.00,0.00,0.00,30.07,M,10.00,M,CLR,M,M,M,M,M,M,M,M,M,M,M,M,M,M,37.40,KWYS 081155Z AUTO 00000KT 10SM CLR 03/03 A3007 RMK AO2,M
WYS,2024-06-08 12:55,44.60,44.60,100.00,0.00,0.00,0.00,30.08,M,10.00,M,CLR,M,M,M,M,M,M,M,M,M,M,M,M,M,M,44.60,KWYS 081255Z AUTO 00000KT 10SM CLR 07/07 A3008 RMK AO2,M
WYS,2024-06-08 13:55,50.00,46.40,87.37,0.00,0.00,0.00,30.07,M,10.00,M,CLR,M,M,M,M,M,M,M,M,M,M,M,M,M,M,50.00,KWYS 081355Z AUTO 00000KT 10SM CLR 10/08 A3007 RMK AO2,M
WYS,2024-06-08 14:55,57.20,44.60,62.69,0.00,0.00,0.00,30.07,M,10.00,M,CLR,M,M,M,M,M,M,M,M,M,M,M,M,M,M,57.20,KWYS 081455Z AUTO 00000KT 10SM CLR 14/07 A3007 RMK AO2,M
WYS,2024-06-08 15:55,64.40,46.40,51.98,M,3.00,0.00,30.06,M,10.00,M,CLR,M,M,M,M,M,M,M,M,M,M,M,M,M,M,64.40,KWYS 081555Z AUTO VRB03KT 10SM CLR 18/08 A3006 RMK AO2,M
WYS,2024-06-08 16:55,68.00,44.60,42.85,230.00,14.00,0.00,30.05,M,10.00,M,CLR,M,M,M,M,M,M,M,M,M,M,M,M,M,M,68.00,KWYS 081655Z AUTO 23014KT 10SM CLR 20/07 A3005 RMK AO2,M
WYS,2024-06-08 17:55,69.80,41.00,35.09,210.00,11.00,0.00,30.05,M,10.00,18.00,FEW,M,M,M,6000.00,M,M,M,M,M,M,M,M,M,M,69.80,KWYS 081755Z AUTO 21011G18KT 170V240 10SM FEW060 21/05 A3005 RMK AO2,M
WYS,2024-06-08 18:55,71.60,37.40,28.68,240.00,11.00,0.00,30.05,M,10.00,17.00,SCT,M,M,M,7000.00,M,M,M,M,M,M,M,M,M,M,71.60,KWYS 081855Z AUTO 24011G17KT 210V270 10SM SCT070 22/03 A3005 RMK AO2,M
WYS,2024-06-08 19:55,73.40,35.60,25.13,260.00,10.00,0.00,30.05,M,10.00,18.00,CLR,M,M,M,M,M,M,M,M,M,M,M,M,M,M,73.40,KWYS 081955Z AUTO 26010G18KT 220V300 10SM CLR 23/02 A3005 RMK AO2,M
WYS,2024-06-08 20:55,75.20,28.40,17.70,250.00,10.00,0.00,30.05,M,10.00,17.00,CLR,M,M,M,M,M,M,M,M,M,M,M,M,M,M,75.20,KWYS 082055Z AUTO 25010G17KT 10SM CLR 24/M02 A3005 RMK AO2,M
WYS,2024-06-08 21:55,75.20,39.20,27.26,230.00,13.00,0.00,30.04,M,10.00,19.00,SCT,M,M,M,9500.00,M,M,M,M,M,M,M,M,M,M,75.20,KWYS 082155Z AUTO 23013G19KT 10SM SCT095 24/04 A3004 RMK AO2,M
WYS,2024-06-08 22:55,71.60,39.20,30.77,240.00,9.00,0.00,30.04,M,10.00,M,FEW,SCT,M,M,8000.00,11000.00,M,M,M,M,M,M,M,M,M,71.60,KWYS 082255Z AUTO 24009KT 10SM FEW080 SCT110 22/04 A3004 RMK AO2,M
WYS,2024-06-08 23:55,71.60,39.20,30.77,230.00,6.00,0.00,30.04,M,10.00,M,FEW,M,M,M,11000.00,M,M,M,M,M,M,M,M,M,M,71.60,KWYS 082355Z AUTO 23006KT 10SM FEW110 22/04 A3004 RMK AO2,M
WYS,2024-06-09 00:55,71.60,39.20,30.77,240.00,7.00,0.00,30.03,M,10.00,M,SCT,SCT,M,M,10000.00,11000.00,M,M,M,M,M,M,M,M,M,71.60,KWYS 090055Z AUTO 24007KT 10SM SCT100 SCT110 22/04 A3003 RMK AO2,M
WYS,2024-06-09 01:55,71.60,41.00,33.00,210.00,8.00,0.00,30.04,M,10.00,M,CLR,M,M,M,M,M,M,M,M,M,M,M,M,M,M,71.60,KWYS 090155Z AUTO 21008KT 10SM CLR 22/05 A3004 RMK AO2,M
WYS,2024-06-09 02:55,66.20,44.60,45.60,220.00,4.00,0.00,30.04,M,10.00,M,BKN,M,M,M,11000.00,M,M,M,M,M,M,M,M,M,M,66.20,KWYS 090255Z AUTO 22004KT 10SM BKN110 19/07 A3004 RMK AO2,M
WYS,2024-06-09 03:55,59.00,44.60,58.77,240.00,4.00,0.00,30.06,M,10.00,M,BKN,M,M,M,12000.00,M,M,M,M,M,M,M,M,M,M,59.00,KWYS 090355Z AUTO 24004KT 10SM BKN120 15/07 A3006 RMK AO2,M
WYS,2024-06-09 04:55,55.40,44.60,66.91,210.00,5.00,0.00,30.07,M,10.00,M,CLR,M,M,M,M,M,M,M,M,M,M,M,M,M,M,55.40,KWYS 090455Z AUTO 21005KT 10SM CLR 13/07 A3007 RMK AO2,M
WYS,2024-06-09 05:55,51.80,44.60,76.34,30.00,6.00,0.00,30.07,M,10.00,M,CLR,M,M,M,M,M,M,M,M,M,M,M,M,M,M,51.80,KWYS 090555Z AUTO 03006KT 10SM CLR 11/07 A3007 RMK AO2,M
WYS,2024-06-09 06:55,48.20,46.40,93.45,0.00,0.00,0.00,30.08,M,10.00,M,CLR,M,M,M,M,M,M,M,M,M,M,M,M,M,M,48.20,KWYS 090655Z AUTO 00000KT 10SM CLR 09/08 A3008 RMK AO2,M
WYS,2024-06-09 07:55,46.40,46.40,100.00,0.00,0.00,0.00,30.08,M,10.00,M,FEW,M,M,M,8000.00,M,M,M,M,M,M,M,M,M,M,46.40,KWYS 090755Z AUTO 00000KT 10SM FEW080 08/08 A3008 RMK AO2,M
WYS,2024-06-09 08:55,42.80,42.80,100.00,0.00,0.00,0.00,30.10,M,10.00,M,CLR,M,M,M,M,M,M,M,M,M,M,M,M,M,M,42.80,KWYS 090855Z AUTO 00000KT 10SM CLR 06/06 A3010 RMK AO2,M
WYS,2024-06-09 09:55,41.00,41.00,100.00,0.00,0.00,0.00,30.11,M,10.00,M,CLR,M,M,M,M,M,M,M,M,M,M,M,M,M,M,41.00,KWYS 090955Z AUTO 00000KT 10SM CLR 05/05 A3011 RMK AO2,M
WYS,2024-06-09 10:55,41.00,41.00,100.00,0.00,0.00,0.00,30.11,M,10.00,M,BKN,M,M,M,11000.00,M,M,M,M,M,M,M,M,M,M,41.00,KWYS 091055Z AUTO 00000KT 10SM BKN110 05/05 A3011 RMK AO2,M
WYS,2024-06-09 11:55,39.20,39.20,100.00,0.00,0.00,0.00,30.12,M,10.00,M,FEW,M,M,M,10000.00,M,M,M,M,M,M,M,M,M,M,39.20,KWYS 091155Z AUTO 00000KT 10SM FEW100 04/04 A3012 RMK AO2,M
WYS,2024-06-09 12:55,41.00,41.00,100.00,0.00,0.00,0.00,30.13,M,10.00,M,CLR,M,M,M,M,M,M,M,M,M,M,M,M,M,M,41.00,KWYS 091255Z AUTO 00000KT 10SM CLR 05/05 A3013 RMK AO2,M
WYS,2024-06-09 13:55,50.00,46.40,87.37,50.00,3.00,0.00,30.14,M,10.00,M,CLR,M,M,M,M,M,M,M,M,M,M,M,M,M,M,50.00,KWYS 091355Z AUTO 05003KT 10SM CLR 10/08 A3014 RMK AO2,M
WYS,2024-06-09 14:55,57.20,46.40,67.12,0.00,0.00,0.00,30.15,M,10.00,M,CLR,M,M,M,M,M,M,M,M,M,M,M,M,M,M,57.20,KWYS 091455Z AUTO 00000KT 10SM CLR 14/08 A3015 RMK AO2,M
WYS,2024-06-09 15:55,57.20,46.40,67.12,0.00,0.00,0.00,30.17,M,10.00,M,FEW,FEW,BKN,M,2200.00,4900.00,10000.00,M,M,M,M,M,M,M,M,57.20,KWYS 091555Z AUTO 00000KT 10SM FEW022 FEW049 BKN100 14/08 A3017 RMK AO2,M
WYS,2024-06-09 16:55,57.20,50.00,76.82,40.00,7.00,0.00,30.18,M,10.00,M,FEW,SCT,BKN,M,4500.00,6000.00,7500.00,M,M,M,M,M,M,M,M,57.20,KWYS 091655Z AUTO 04007KT 10SM FEW045 SCT060 BKN075 14/10 A3018 RMK AO2,M
WYS,2024-06-09 17:55,66.20,46.40,48.83,150.00,4.00,0.00,30.14,M,10.00,10.00,FEW,M,M,M,9000.00,M,M,M,M,M,M,M,M,M,M,66.20,KWYS 091755Z AUTO 15004G10KT 10SM FEW090 19/08 A3014 RMK AO2,M
WYS,2024-06-09 18:55,60.80,55.40,82.37,350.00,7.00,0.01,30.15,M,6.00,M,FEW,SCT,BKN,M,6000.00,7500.00,8000.00,M,-RA,M,M,M,M,M,M,60.80,KWYS 091855Z AUTO 35007KT 6SM -RA FEW060 SCT075 BKN080 16/13 A3015 RMK AO2 P0001,M
WYS,2024-06-09 19:55,69.80,51.80,52.77,20.00,6.00,0.00,30.11,M,10.00,M,CLR,M,M,M,M,M,M,M,M,M,M,M,M,M,M,69.80,KWYS 091955Z AUTO 02006KT 10SM CLR 21/11 A3011 RMK AO2,M
WYS,2024-06-09 20:55,73.40,44.60,35.66,210.00,12.00,0.00,30.08,M,10.00,20.00,BKN,BKN,M,M,7500.00,9000.00,M,M,M,M,M,M,M,M,M,73.40,KWYS 092055Z AUTO 21012G20KT 10SM BKN075 BKN090 23/07 A3008 RMK AO2,M
WYS,2024-06-09 21:55,71.60,44.60,37.89,230.00,13.00,0.00,30.07,M,10.00,20.00,FEW,M,M,M,12000.00,M,M,M,M,M,M,M,M,M,M,71.60,KWYS 092155Z AUTO 23013G20KT 10SM FEW120 22/07 A3007 RMK AO2,M
WYS,2024-06-09 22:55,66.20,50.00,55.88,180.00,7.00,0.00,30.06,M,10.00,12.00,BKN,M,M,M,11000.00,M,M,M,M,M,M,M,M,M,M,66.20,KWYS 092255Z AUTO 18007G12KT 10SM BKN110 19/10 A3006 RMK AO2,M
WYS,2024-06-09 23:55,66.20,46.40,48.83,360.00,11.00,0.00,30.07,M,10.00,M,BKN,OVC,M,M,7500.00,8500.00,M,M,M,M,M,M,M,M,M,66.20,KWYS 092355Z AUTO 36011KT 10SM BKN075 OVC085 19/08 A3007 RMK AO2,M
WYS,2024-06-10 00:55,53.60,55.40,M,130.00,10.00,0.13,30.14,M,2.00,M,FEW,BKN,OVC,M,2300.00,3600.00,5500.00,M,RA,M,M,M,M,M,M,M,KWYS 100055Z AUTO 13010KT 2SM RA FEW023 BKN036 OVC055 12/13 A3014 RMK AO2 P0013,M
WYS,2024-06-10 01:55,53.60,53.60,100.00,0.00,0.00,0.06,30.10,M,10.00,M,FEW,SCT,M,M,7000.00,9000.00,M,M,M,M,M,M,M,M,M,53.60,KWYS 100155Z AUTO 00000KT 10SM FEW070 SCT090 12/12 A3010 RMK AO2 P0006,M
WYS,2024-06-10 02:55,53.60,53.60,100.00,210.00,6.00,0.01,30.12,M,9.00,M,BKN,OVC,M,M,5500.00,7500.00,M,M,M,M,M,M,M,M,M,53.60,KWYS 100255Z AUTO 21006KT 9SM BKN055 OVC075 12/12 A3012 RMK AO2 P0001,M
WYS,2024-06-10 03:55,51.80,51.80,100.00,M,3.00,0.10,30.15,M,3.00,M,FEW,BKN,OVC,M,400.00,2500.00,3200.00,M,RA,M,M,M,M,M,M,51.80,KWYS 100355Z AUTO VRB03KT 3SM RA FEW004 BKN025 OVC032 11/11 A3015 RMK AO2 P0010,M
WYS,2024-06-10 04:55,51.80,51.80,100.00,230.00,3.00,0.05,30.12,M,10.00,M,BKN,OVC,M,M,500.00,7000.00,M,M,M,M,M,M,M,M,M,51.80,KWYS 100455Z AUTO 23003KT 10SM BKN005 OVC070 11/11 A3012 RMK AO2 P0005,M
WYS,2024-06-10 05:55,50.00,51.80,M,290.00,4.00,0.01,30.10,M,10.00,M,FEW,SCT,BKN,M,6500.00,9000.00,11000.00,M,M,M,M,M,M,M,M,M,KWYS 100555Z AUTO 29004KT 10SM FEW065 SCT090 BKN110 10/11 A3010 RMK AO2 P0001,M
WYS,2024-06-10 06:55,50.00,50.00,100.00,0.00,0.00,0.00,30.09,M,10.00,M,SCT,SCT,M,M,9000.00,12000.00,M,M,M,M,M,M,M,M,M,50.00,KWYS 100655Z AUTO 00000KT 10SM SCT090 SCT120 10/10 A3009 RMK AO2,M
WYS,2024-06-10 07:55,48.20,48.20,100.00,0.00,0.00,0.00,30.08,M,10.00,M,SCT,SCT,BKN,M,200.00,1300.00,6500.00,M,M,M,M,M,M,M,M,48.20,KWYS 100755Z AUTO 00000KT 10SM SCT002 SCT013 BKN065 09/09 A3008 RMK AO2,M
WYS,2024-06-10 08:55,48.20,48.20,100.00,170.00,3.00,0.00,30.07,M,7.00,M,OVC,M,M,M,400.00,M,M,M,M,M,M,M,M,M,M,47.21,KWYS 100855Z AUTO 17003KT 7SM OVC004 09/09 A3007 RMK AO2,M
WYS,2024-06-10 09:55,46.40,46.40,100.00,0.00,0.00,0.00,30.07,M,10.00,M,SCT,OVC,M,M,300.00,3900.00,M,M,M,M,M,M,M,M,M,46.40,KWYS 100955Z AUTO 00000KT 10SM SCT003 OVC039 08/08 A3007 RMK AO2,M
WYS,2024-06-10 10:55,48.20,48.20,100.00,0.00,0.00,0.00,30.07,M,10.00,M,OVC,M,M,M,3500.00,M,M,M,M,M,M,M,M,M,M,48.20,KWYS 101055Z AUTO 00000KT 10SM OVC035 09/09 A3007 RMK AO2,M
WYS,2024-06-10 11:55,48.20,48.20,100.00,0.00,0.00,0.00,30.08,M,10.00,M,OVC,M,M,M,3200.00,M,M,M,M,M,M,M,M,M,M,48.20,KWYS 101155Z AUTO 00000KT 10SM OVC032 09/09 A3008 RMK AO2,M
WYS,2024-06-10 12:55,50.00,50.00,100.00,220.00,5.00,0.00,30.10,M,10.00,M,FEW,BKN,OVC,M,1600.00,2100.00,6500.00,M,M,M,M,M,M,M,M,50.00,KWYS 101255Z AUTO 22005KT 10SM FEW016 BKN021 OVC065 10/10 A3010 RMK AO2,M
WYS,2024-06-10 13:55,53.60,53.60,100.00,0.00,0.00,0.00,30.11,M,10.00,M,FEW,FEW,BKN,M,600.00,4300.00,7500.00,M,M,M,M,M,M,M,M,53.60,KWYS 101355Z AUTO 00000KT 10SM FEW006 FEW043 BKN075 12/12 A3011 RMK AO2,M
WYS,2024-06-10 14:55,55.40,55.40,100.00,240.00,7.00,0.00,30.12,M,10.00,M,BKN,OVC,M,M,4200.00,4900.00,M,M,M,M,M,M,M,M,M,55.40,KWYS 101455Z AUTO 24007KT 10SM BKN042 OVC049 13/13 A3012 RMK AO2,M
WYS,2024-06-10 15:55,60.80,51.80,72.20,230.00,10.00,0.00,30.12,M,10.00,15.00,FEW,FEW,M,M,2700.00,3400.00,M,M,M,M,M,M,M,M,M,60.80,KWYS 101555Z AUTO 23010G15KT 10SM FEW027 FEW034 16/11 A3012 RMK AO2,M
WYS,2024-06-10 16:55,60.80,48.20,63.15,250.00,7.00,0.00,30.13,M,10.00,14.00,SCT,BKN,BKN,M,3700.00,4500.00,6000.00,M,M,M,M,M,M,M,M,60.80,KWYS 101655Z AUTO 25007G14KT 230V300 10SM SCT037 BKN045 BKN060 16/09 A3013 RMK AO2,M
WYS,2024-06-10 17:55,62.60,42.80,48.28,210.00,15.00,0.00,30.13,M,10.00,21.00,FEW,SCT,SCT,M,5000.00,6500.00,7500.00,M,M,M,M,M,M,M,M,62.60,KWYS 101755Z AUTO 21015G21KT 10SM FEW050 SCT065 SCT075 17/06 A3013 RMK AO2,M
WYS,2024-06-10 18:55,62.60,41.00,45.04,M,4.00,0.00,30.13,M,10.00,13.00,SCT,BKN,BKN,M,5500.00,6500.00,7500.00,M,M,M,M,M,M,M,M,62.60,KWYS 101855Z AUTO VRB04G13KT 10SM SCT055 BKN065 BKN075 17/05 A3013 RMK AO2,M
WYS,2024-06-10 19:55,66.20,37.40,34.51,270.00,9.00,0.00,30.12,M,10.00,19.00,BKN,BKN,M,M,6500.00,7500.00,M,M,M,M,M,M,M,M,M,66.20,KWYS 101955Z AUTO 27009G19KT 230V310 10SM BKN065 BKN075 19/03 A3012 RMK AO2,M
WYS,2024-06-10 20:55,66.20,35.60,32.14,240.00,11.00,0.00,30.12,M,10.00,22.00,FEW,SCT,SCT,M,7000.00,8000.00,8500.00,M,M,M,M,M,M,M,M,66.20,KWYS 102055Z AUTO 24011G22KT 220V280 10SM FEW070 SCT080 SCT085 19/02 A3012 RMK AO2,M
WYS,2024-06-10 21:55,68.00,35.60,30.20,220.00,13.00,0.00,30.11,M,10.00,21.00,FEW,M,M,M,8000.00,M,M,M,M,M,M,M,M,M,M,68.00,KWYS 102155Z AUTO 22013G21KT 10SM FEW080 20/02 A3011 RMK AO2,M
WYS,2024-06-10 22:55,68.00,35.60,30.20,270.00,7.00,0.00,30.10,M,10.00,17.00,FEW,SCT,M,M,7000.00,8000.00,M,M,M,M,M,M,M,M,M,68.00,KWYS 102255Z AUTO 27007G17KT 220V320 10SM FEW070 SCT080 20/02 A3010 RMK AO2,M
WYS,2024-06-10 23:55,68.00,35.60,30.20,240.00,8.00,0.00,30.10,M,10.00,18.00,SCT,SCT,M,M,7500.00,8500.00,M,M,M,M,M,M,M,M,M,68.00,KWYS 102355Z AUTO 24008G18KT 10SM SCT075 SCT085 20/02 A3010 RMK AO2,M
WYS,2024-06-11 00:55,68.00,35.60,30.20,250.00,10.00,0.00,30.10,M,10.00,17.00,SCT,SCT,M,M,8000.00,9000.00,M,M,M,M,M,M,M,M,M,68.00,KWYS 110055Z AUTO 25010G17KT 220V280 10SM SCT080 SCT090 20/02 A3010 RMK AO2,M
WYS,2024-06-11 01:55,64.40,46.40,51.98,230.00,9.00,0.00,30.11,M,10.00,16.00,FEW,M,M,M,7500.00,M,M,M,M,M,M,M,M,M,M,64.40,KWYS 110155Z AUTO 23009G16KT 10SM FEW075 18/08 A3011 RMK AO2,M
WYS,2024-06-11 02:55,60.80,50.00,67.54,220.00,9.00,0.00,30.12,M,10.00,M,SCT,M,M,M,8000.00,M,M,M,M,M,M,M,M,M,M,60.80,KWYS 110255Z AUTO 22009KT 10SM SCT080 16/10 A3012 RMK AO2,M
WYS,2024-06-11 03:55,55.40,53.60,93.65,220.00,6.00,0.00,30.14,M,10.00,M,SCT,M,M,M,7500.00,M,M,M,M,M,M,M,M,M,M,55.40,KWYS 110355Z AUTO 22006KT 10SM SCT075 13/12 A3014 RMK AO2,M
WYS,2024-06-11 04:55,53.60,51.80,93.60,0.00,0.00,0.00,30.16,M,10.00,M,SCT,M,M,M,8000.00,M,M,M,M,M,M,M,M,M,M,53.60,KWYS 110455Z AUTO 00000KT 10SM SCT080 12/11 A3016 RMK AO2,M
WYS,2024-06-11 05:55,48.20,48.20,100.00,0.00,0.00,0.00,30.17,M,10.00,M,CLR,M,M,M,M,M,M,M,M,M,M,M,M,M,M,48.20,KWYS 110555Z AUTO 00000KT 10SM CLR 09/09 A3017 RMK AO2,M
WYS,2024-06-11 06:55,46.40,46.40,100.00,200.00,4.00,0.00,30.16,M,10.00,M,CLR,M,M,M,M,M,M,M,M,M,M,M,M,M,M,44.24,KWYS 110655Z AUTO 20004KT 10SM CLR 08/08 A3016 RMK AO2,M
WYS,2024-06-11 07:55,44.60,44.60,100.00,0.00,0.00,0.00,30.16,M,10.00,M,CLR,M,M,M,M,M,M,M,M,M,M,M,M,M,M,44.60,KWYS 110755Z AUTO 00000KT 10SM CLR 07/07 A3016 RMK AO2,M
WYS,2024-06-11 08:55,41.00,41.00,100.00,0.00,0.00,0.00,30.16,M,10.00,M,CLR,M,M,M,M,M,M,M,M,M,M,M,M,M,M,41.00,KWYS 110855Z AUTO 00000KT 10SM CLR 05/05 A3016 RMK AO2,M
WYS,2024-06-11 09:55,39.20,39.20,100.00,0.00,0.00,0.00,30.16,M,10.00,M,CLR,M,M,M,M,M,M,M,M,M,M,M,M,M,M,39.20,KWYS 110955Z AUTO 00000KT 10SM CLR 04/04 A3016 RMK AO2,M
WYS,2024-06-11 10:55,37.40,37.40,100.00,0.00,0.00,0.00,30.17,M,10.00,M,CLR,M,M,M,M,M,M,M,M,M,M,M,M,M,M,37.40,KWYS 111055Z AUTO 00000KT 10SM CLR 03/03 A3017 RMK AO2,M
WYS,2024-06-11 11:55,35.60,35.60,100.00,0.00,0.00,0.00,30.17,M,10.00,M,CLR,M,M,M,M,M,M,M,M,M,M,M,M,M,M,35.60,KWYS 111155Z AUTO 00000KT 10SM CLR 02/02 A3017 RMK AO2,M
WYS,2024-06-11 12:55,41.00,41.00,100.00,0.00,0.00,0.00,30.18,M,10.00,M,CLR,M,M,M,M,M,M,M,M,M,M,M,M,M,M,41.00,KWYS 111255Z AUTO 00000KT 10SM CLR 05/05 A3018 RMK AO2,M
WYS,2024-06-11 13:55,48.20,48.20,100.00,0.00,0.00,0.00,30.18,M,10.00,M,CLR,M,M,M,M,M,M,M,M,M,M,M,M,M,M,48.20,KWYS 111355Z AUTO 00000KT 10SM CLR 09/09 A3018 RMK AO2,M
WYS,2024-06-11 14:55,53.60,46.40,76.50,0.00,0.00,0.00,30.17,M,10.00,M,CLR,M,M,M,M,M,M,M,M,M,M,M,M,M,M,53.60,KWYS 111455Z AUTO 00000KT 10SM CLR 12/08 A3017 RMK AO2,M
WYS,2024-06-11 15:55,62.60,37.40,39.14,200.00,10.00,0.00,30.16,M,10.00,16.00,CLR,M,M,M,M,M,M,M,M,M,M,M,M,M,M,62.60,KWYS 111555Z AUTO 20010G16KT 10SM CLR 17/03 A3016 RMK AO2,M
WYS,2024-06-11 16:55,62.60,39.20,42.00,220.00,10.00,0.00,30.16,M,10.00,17.00,CLR,M,M,M,M,M,M,M,M,M,M,M,M,M,M,62.60,KWYS 111655Z AUTO 22010G17KT 200V260 10SM CLR 17/04 A3016 RMK AO2,M
WYS,2024-06-11 17:55,66.20,41.00,39.72,220.00,12.00,0.00,30.14,M,10.00,21.00,CLR,M,M,M,M,M,M,M,M,M,M,M,M,M,M,66.20,KWYS 111755Z AUTO 22012G21KT 10SM CLR 19/05 A3014 RMK AO2,M
WYS,2024-06-11 18:55,68.00,41.00,37.32,200.00,15.00,0.00,30.13,M,10.00,M,CLR,M,M,M,M,M,M,M,M,M,M,M,M,M,M,68.00,KWYS 111855Z AUTO 20015KT 10SM CLR 20/05 A3013 RMK AO2,M
WYS,2024-06-11 19:55,69.80,42.80,37.61,200.00,15.00,0.00,30.12,M,10.00,21.00,CLR,M,M,M,M,M,M,M,M,M,M,M,M,M,M,69.80,KWYS 111955Z AUTO 20015G21KT 10SM CLR 21/06 A3012 RMK AO2,M
WYS,2024-06-11 20:55,71.60,42.80,35.37,230.00,14.00,0.00,30.11,M,10.00,24.00,SCT,BKN,M,M,6500.00,7500.00,M,M,M,M,M,M,M,M,M,71.60,KWYS 112055Z AUTO 23014G24KT 10SM SCT065 BKN075 22/06 A3011 RMK AO2,M
WYS,2024-06-11 21:55,71.60,42.80,35.37,230.00,13.00,0.00,30.09,M,10.00,28.00,SCT,SCT,M,M,7000.00,8000.00,M,M,M,M,M,M,M,M,M,71.60,KWYS 112155Z AUTO 23013G28KT 10SM SCT070 SCT080 22/06 A3009 RMK AO2,M
WYS,2024-06-11 22:55,71.60,42.80,35.37,210.00,20.00,0.00,30.07,M,10.00,27.00,CLR,M,M,M,M,M,M,M,M,M,M,M,M,M,M,71.60,KWYS 112255Z AUTO 21020G27KT 10SM CLR 22/06 A3007 RMK AO2,M
WYS,2024-06-11 23:55,71.60,42.80,35.37,200.00,15.00,0.00,30.06,M,10.00,28.00,CLR,M,M,M,M,M,M,M,M,M,M,M,M,M,M,71.60,KWYS 112355Z AUTO 20015G28KT 10SM CLR 22/06 A3006 RMK AO2,M
WYS,2024-06-12 00:55,71.60,41.00,33.00,220.00,15.00,0.00,30.04,M,10.00,22.00,CLR,M,M,M,M,M,M,M,M,M,M,M,M,M,M,71.60,KWYS 120055Z AUTO 22015G22KT 10SM CLR 22/05 A3004 RMK AO2,M
WYS,2024-06-12 01:55,68.00,41.00,37.32,190.00,12.00,0.00,30.04,M,10.00,M,BKN,OVC,M,M,10000.00,12000.00,M,M,M,M,M,M,M,M,M,68.00,KWYS 120155Z AUTO 19012KT 10SM BKN100 OVC120 20/05 A3004 RMK AO2,M
WYS,2024-06-12 02:55,60.80,46.40,59.01,0.00,0.00,0.00,30.04,M,10.00,M,SCT,M,M,M,10000.00,M,M,M,M,M,M,M,M,M,M,60.80,KWYS 120255Z AUTO 00000KT 10SM SCT100 16/08 A3004 RMK AO2,M
WYS,2024-06-12 03:55,57.20,46.40,67.12,0.00,0.00,0.00,30.03,M,10.00,M,FEW,M,M,M,12000.00,M,M,M,M,M,M,M,M,M,M,57.20,KWYS 120355Z AUTO 00000KT 10SM FEW120 14/08 A3003 RMK AO2,M
WYS,2024-06-12 04:55,57.20,41.00,54.60,0.00,0.00,0.00,30.04,M,10.00,M,FEW,SCT,M,M,10000.00,11000.00,M,M,M,M,M,M,M,M,M,57.20,KWYS 120455Z AUTO 00000KT 10SM FEW100 SCT110 14/05 A3004 RMK AO2,M
WYS,2024-06-12 05:55,60.80,37.40,41.71,240.00,5.00,0.00,30.04,M,10.00,M,CLR,M,M,M,M,M,M,M,M,M,M,M,M,M,M,60.80,KWYS 120555Z AUTO 24005KT 10SM CLR 16/03 A3004 RMK AO2,M
WYS,2024-06-12 06:55,53.60,41.00,62.23,0.00,0.00,0.00,30.05,M,10.00,M,CLR,M,M,M,M,M,M,M,M,M,M,M,M,M,M,53.60,KWYS 120655Z AUTO 00000KT 10SM CLR 12/05 A3005 RMK AO2,M
WYS,2024-06-12 07:55,48.20,41.00,76.01,0.00,0.00,0.00,30.06,M,10.00,M,CLR,M,M,M,M,M,M,M,M,M,M,M,M,M,M,48.20,KWYS 120755Z AUTO 00000KT 10SM CLR 09/05 A3006 RMK AO2,M
WYS,2024-06-12 08:55,51.80,41.00,66.48,210.00,5.00,0.00,30.07,M,10.00,11.00,CLR,M,M,M,M,M,M,M,M,M,M,M,M,M,M,51.80,KWYS 120855Z AUTO 21005G11KT 10SM CLR 11/05 A3007 RMK AO2,M
WYS,2024-06-12 09:55,44.60,42.80,93.35,20.00,3.00,0.00,30.07,M,10.00,M,CLR,M,M,M,M,M,M,M,M,M,M,M,M,M,M,43.09,KWYS 120955Z AUTO 02003KT 10SM CLR 07/06 A3007 RMK AO2,M
WYS,2024-06-12 10:55,39.20,39.20,100.00,0.00,0.00,0.00,30.08,M,10.00,M,CLR,M,M,M,M,M,M,M,M,M,M,M,M,M,M,39.20,KWYS 121055Z AUTO 00000KT 10SM CLR 04/04 A3008 RMK AO2,M
WYS,2024-06-12 11:55,37.40,37.40,100.00,0.00,0.00,0.00,30.09,M,10.00,M,CLR,M,M,M,M,M,M,M,M,M,M,M,M,M,M,37.40,KWYS 121155Z AUTO 00000KT 10SM CLR 03/03 A3009 RMK AO2,M
WYS,2024-06-12 12:55,42.80,42.80,100.00,0.00,0.00,0.00,30.10,M,10.00,M,CLR,M,M,M,M,M,M,M,M,M,M,M,M,M,M,42.80,KWYS 121255Z AUTO 00000KT 10SM CLR 06/06 A3010 RMK AO2,M
WYS,2024-06-12 13:55,51.80,42.80,71.26,0.00,0.00,0.00,30.11,M,10.00,M,CLR,M,M,M,M,M,M,M,M,M,M,M,M,M,M,51.80,KWYS 121355Z AUTO 00000KT 10SM CLR 11/06 A3011 RMK AO2,M
WYS,2024-06-12 14:55,62.60,39.20,42.00,180.00,5.00,0.00,30.11,M,10.00,M,CLR,M,M,M,M,M,M,M,M,M,M,M,M,M,M,62.60,KWYS 121455Z AUTO 18005KT 10SM CLR 17/04 A3011 RMK AO2,M
WYS,2024-06-12 15:55,66.20,39.20,37.03,220.00,7.00,0.00,30.11,M,10.00,M,CLR,M,M,M,M,M,M,M,M,M,M,M,M,M,M,66.20,KWYS 121555Z AUTO 22007KT 10SM CLR 19/04 A3011 RMK AO2,M
WYS,2024-06-12 16:55,69.80,37.40,30.49,210.00,14.00,0.00,30.10,M,10.00,M,CLR,M,M,M,M,M,M,M,M,M,M,M,M,M,M,69.80,KWYS 121655Z AUTO 21014KT 10SM CLR 21/03 A3010 RMK AO2,M
WYS,2024-06-12 17:55,69.80,35.60,28.39,220.00,15.00,0.00,30.10,M,10.00,22.00,CLR,M,M,M,M,M,M,M,M,M,M,M,M,M,M,69.80,KWYS 121755Z AUTO 22015G22KT 10SM CLR 21/02 A3010 RMK AO2,M
WYS,2024-06-12 18:55,71.60,33.80,24.86,200.00,23.00,0.00,30.09,M,10.00,29.00,CLR,M,M,M,M,M,M,M,M,M,M,M,M,M,M,71.60,KWYS 121855Z AUTO 20023G29KT 10SM CLR 22/01 A3009 RMK AO2,M
WYS,2024-06-12 19:55,73.40,33.80,23.39,210.00,16.00,0.00,30.09,M,10.00,27.00,CLR,M,M,M,M,M,M,M,M,M,M,M,M,M,M,73.40,KWYS 121955Z AUTO 21016G27KT 10SM CLR 23/01 A3009 RMK AO2,M
WYS,2024-06-12 20:55,75.20,39.20,27.26,210.00,15.00,0.00,30.08,M,10.00,28.00,CLR,M,M,M,M,M,M,M,M,M,M,M,M,M,M,75.20,KWYS 122055Z AUTO 21015G28KT 10SM CLR 24/04 A3008 RMK AO2,M
WYS,2024-06-12 21:55,75.20,39.20,27.26,240.00,15.00,0.00,30.07,M,10.00,28.00,FEW,M,M,M,8000.00,M,M,M,M,M,M,M,M,M,M,75.20,KWYS 122155Z AUTO 24015G28KT 10SM FEW080 24/04 A3007 RMK AO2,M
WYS,2024-06-12 22:55,75.20,37.40,25.40,210.00,16.00,0.00,30.05,M,10.00,31.00,CLR,M,M,M,M,M,M,M,M,M,M,M,M,M,M,75.20,KWYS 122255Z AUTO 21016G31KT 10SM CLR 24/03 A3005 RMK AO2,M
WYS,2024-06-12 23:55,75.20,35.60,23.66,220.00,18.00,0.00,30.05,M,10.00,28.00,CLR,M,M,M,M,M,M,M,M,M,M,M,M,M,M,75.20,KWYS 122355Z AUTO 22018G28KT 10SM CLR 24/02 A3005 RMK AO2,M
WYS,2024-06-13 00:55,73.40,35.60,25.13,230.00,12.00,0.00,30.05,M,10.00,26.00,CLR,M,M,M,M,M,M,M,M,M,M,M,M,M,M,73.40,KWYS 130055Z AUTO 23012G26KT 10SM CLR 23/02 A3005 RMK AO2,M
WYS,2024-06-13 01:55,71.60,35.60,26.71,210.00,18.00,0.00,30.04,M,10.00,24.00,CLR,M,M,M,M,M,M,M,M,M,M,M,M,M,M,71.60,KWYS 130155Z AUTO 21018G24KT 10SM CLR 22/02 A3004 RMK AO2,M
WYS,2024-06-13 02:55,66.20,37.40,34.51,240.00,4.00,0.00,30.06,M,10.00,10.00,CLR,M,M,M,M,M,M,M,M,M,M,M,M,M,M,66.20,KWYS 130255Z AUTO 24004G10KT 10SM CLR 19/03 A3006 RMK AO2,M
WYS,2024-06-13 03:55,62.60,37.40,39.14,210.00,8.00,0.00,30.08,M,10.00,M,CLR,M,M,M,M,M,M,M,M,M,M,M,M,M,M,62.60,KWYS 130355Z AUTO 21008KT 10SM CLR 17/03 A3008 RMK AO2,M
WYS,2024-06-13 04:55,60.80,37.40,41.71,220.00,8.00,0.00,30.09,M,10.00,18.00,CLR,M,M,M,M,M,M,M,M,M,M,M,M,M,M,60.80,KWYS 130455Z AUTO 22008G18KT 10SM CLR 16/03 A3009 RMK AO2,M
WYS,2024-06-13 05:55,60.80,37.40,41.71,230.00,9.00,0.00,30.10,M,10.00,18.00,CLR,M,M,M,M,M,M,M,M,M,M,M,M,M,M,60.80,KWYS 130555Z AUTO 23009G18KT 10SM CLR 16/03 A3010 RMK AO2,M
WYS,2024-06-13 06:55,50.00,37.40,61.76,0.00,0.00,0.00,30.12,M,10.00,M,CLR,M,M,M,M,M,M,M,M,M,M,M,M,M,M,50.00,KWYS 130655Z AUTO 00000KT 10SM CLR 10/03 A3012 RMK AO2,M
WYS,2024-06-13 07:55,44.60,39.20,81.20,0.00,0.00,0.00,30.13,M,10.00,M,CLR,M,M,M,M,M,M,M,M,M,M,M,M,M,M,44.60,KWYS 130755Z AUTO 00000KT 10SM CLR 07/04 A3013 RMK AO2,M
WYS,2024-06-13 08:55,42.80,39.20,86.99,0.00,0.00,0.00,30.15,M,10.00,M,CLR,M,M,M,M,M,M,M,M,M,M,M,M,M,M,42.80,KWYS 130855Z AUTO 00000KT 10SM CLR 06/04 A3015 RMK AO2,M
WYS,2024-06-13 09:55,37.40,37.40,100.00,0.00,0.00,0.00,30.15,M,10.00,M,CLR,M,M,M,M,M,M,M,M,M,M,M,M,M,M,37.40,KWYS 130955Z AUTO 00000KT 10SM CLR 03/03 A3015 RMK AO2,M
WYS,2024-06-13 10:55,35.60,35.60,100.00,0.00,0.00,0.00,30.16,M,10.00,M,CLR,M,M,M,M,M,M,M,M,M,M,M,M,M,M,35.60,KWYS 131055Z AUTO 00000KT 10SM CLR 02/02 A3016 RMK AO2,M
WYS,2024-06-13 11:55,33.80,33.80,100.00,0.00,0.00,0.00,30.18,M,10.00,M,CLR,M,M,M,M,M,M,M,M,M,M,M,M,M,M,33.80,KWYS 131155Z AUTO 00000KT 10SM CLR 01/01 A3018 RMK AO2,M
WYS,2024-06-13 12:55,39.20,39.20,100.00,0.00,0.00,0.00,30.19,M,10.00,M,CLR,M,M,M,M,M,M,M,M,M,M,M,M,M,M,39.20,KWYS 131255Z AUTO 00000KT 10SM CLR 04/04 A3019 RMK AO2,M
WYS,2024-06-13 13:55,46.40,37.40,70.68,0.00,0.00,0.00,30.21,M,10.00,M,CLR,M,M,M,M,M,M,M,M,M,M,M,M,M,M,46.40,KWYS 131355Z AUTO 00000KT 10SM CLR 08/03 A3021 RMK AO2,M
WYS,2024-06-13 14:55,53.60,37.40,54.07,0.00,0.00,0.00,30.21,M,10.00,M,CLR,M,M,M,M,M,M,M,M,M,M,M,M,M,M,53.60,KWYS 131455Z AUTO 00000KT 10SM CLR 12/03 A3021 RMK AO2,M
WYS,2024-06-13 15:55,59.00,33.80,38.56,0.00,0.00,0.00,30.20,M,10.00,M,CLR,M,M,M,M,M,M,M,M,M,M,M,M,M,M,59.00,KWYS 131555Z AUTO 00000KT 10SM CLR 15/01 A3020 RMK AO2,M
WYS,2024-06-13 16:55,64.40,33.80,31.85,250.00,5.00,0.00,30.19,M,10.00,M,CLR,M,M,M,M,M,M,M,M,M,M,M,M,M,M,64.40,KWYS 131655Z AUTO 25005KT 10SM CLR 18/01 A3019 RMK AO2,M
WYS,2024-06-13 17:55,69.80,28.40,21.24,M,5.00,0.00,30.18,M,10.00,M,CLR,M,M,M,M,M,M,M,M,M,M,M,M,M,M,69.80,KWYS 131755Z AUTO VRB05KT 10SM CLR 21/M02 A3018 RMK AO2,M
WYS,2024-06-13 18:55,73.40,30.20,20.23,200.00,11.00,0.00,30.18,M,10.00,20.00,CLR,M,M,M,M,M,M,M,M,M,M,M,M,M,M,73.40,KWYS 131855Z AUTO 20011G20KT 10SM CLR 23/M01 A3018 RMK AO2,M
WYS,2024-06-13 19:55,73.40,32.00,21.76,210.00,14.00,0.00,30.17,M,10.00,19.00,CLR,M,M,M,M,M,M,M,M,M,M,M,M,M,M,73.40,KWYS 131955Z AUTO 21014G19KT 10SM CLR 23/M00 A3017 RMK AO2,M
WYS,2024-06-13 20:55,75.20,28.40,17.70,240.00,10.00,0.00,30.16,M,10.00,16.00,CLR,M,M,M,M,M,M,M,M,M,M,M,M,M,M,75.20,KWYS 132055Z AUTO 24010G16KT 210V270 10SM CLR 24/M02 A3016 RMK AO2,M
WYS,2024-06-13 21:55,77.00,28.40,16.67,M,11.00,0.00,30.15,M,10.00,18.00,CLR,M,M,M,M,M,M,M,M,M,M,M,M,M,M,77.00,KWYS 132155Z AUTO VRB11G18KT 10SM CLR 25/M02 A3015 RMK AO2,M
WYS,2024-06-13 22:55,77.00,30.20,17.94,260.00,8.00,0.00,30.14,M,10.00,16.00,CLR,M,M,M,M,M,M,M,M,M,M,M,M,M,M,77.00,KWYS 132255Z AUTO 26008G16KT 220V300 10SM CLR 25/M01 A3014 RMK AO2,M
WYS,2024-06-13 23:55,77.00,32.00,19.30,270.00,7.00,0.00,30.12,M,10.00,12.00,CLR,M,M,M,M,M,M,M,M,M,M,M,M,M,M,77.00,KWYS 132355Z AUTO 27007G12KT 210V320 10SM CLR 25/M00 A3012 RMK AO2,M
WYS,2024-06-14 00:55,77.00,32.00,19.30,200.00,15.00,0.00,30.11,M,10.00,M,CLR,M,M,M,M,M,M,M,M,M,M,M,M,M,M,77.00,KWYS 140055Z AUTO 20015KT 10SM CLR 25/M00 A3011 RMK AO2,M
WYS,2024-06-14 01:55,75.20,33.80,22.02,M,M,0.00,30.10,M,10.00,M,CLR,M,M,M,M,M,M,M,M,M,M,M,M,M,M,75.20,KWYS 140155Z AUTO 5/16000005KT 10SM CLR 24/01 A3010 RMK AO2,M
WYS,2024-06-14 02:55,64.40,39.20,39.43,0.00,0.00,0.00,30.10,M,10.00,M,CLR,M,M,M,M,M,M,M,M,M,M,M,M,M,M,64.40,KWYS 140255Z AUTO 00000KT 10SM CLR 18/04 A3010 RMK AO2,M
WYS,2024-06-14 03:55,59.00,41.00,51.18,0.00,0.00,0.00,30.10,M,10.00,M,CLR,M,M,M,M,M,M,M,M,M,M,M,M,M,M,59.00,KWYS 140355Z AUTO 00000KT 10SM CLR 15/05 A3010 RMK AO2,M
WYS,2024-06-14 04:55,53.60,42.80,66.70,0.00,0.00,0.00,30.10,M,10.00,M,CLR,M,M,M,M,M,M,M,M,M,M,M,M,M,M,53.60,KWYS 140455Z AUTO 00000KT 10SM CLR 12/06 A3010 RMK AO2,M
WYS,2024-06-14 05:55,48.20,44.60,87.28,0.00,0.00,0.00,30.10,M,10.00,M,CLR,M,M,M,M,M,M,M,M,M,M,M,M,M,M,48.20,KWYS 140555Z AUTO 00000KT 10SM CLR 09/07 A3010 RMK AO2,M
WYS,2024-06-14 06:55,46.40,44.60,93.40,260.00,3.00,0.00,30.11,M,10.00,M,FEW,M,M,M,11000.00,M,M,M,M,M,M,M,M,M,M,45.15,KWYS 140655Z AUTO 26003KT 10SM FEW110 08/07 A3011 RMK AO2,M
WYS,2024-06-14 07:55,60.80,42.80,51.45,190.00,9.00,0.00,30.11,M,10.00,22.00,FEW,SCT,BKN,M,300.00,10000.00,12000.00,M,M,M,M,M,M,M,M,60.80,KWYS 140755Z AUTO 19009G22KT 10SM FEW003 SCT100 BKN120 16/06 A3011 RMK AO2,M
WYS,2024-06-14 08:55,55.40,42.80,62.46,360.00,5.00,0.00,30.10,M,10.00,M,FEW,M,M,M,10000.00,M,M,M,M,M,M,M,M,M,M,55.40,KWYS 140855Z AUTO 36005KT 10SM FEW100 13/06 A3010 RMK AO2,M
WYS,2024-06-14 09:55,53.60,44.60,71.45,0.00,0.00,0.00,30.09,M,10.00,M,BKN,M,M,M,10000.00,M,M,M,M,M,M,M,M,M,M,53.60,KWYS 140955Z AUTO 00000KT 10SM BKN100 12/07 A3009 RMK AO2,M
WYS,2024-06-14 10:55,57.20,44.60,62.69,180.00,8.00,0.00,30.12,M,10.00,14.00,FEW,SCT,BKN,M,4200.00,6000.00,7500.00,M,M,M,M,M,M,M,M,57.20,KWYS 141055Z AUTO 18008G14KT 10SM FEW042 SCT060 BKN075 14/07 A3012 RMK AO2,M
WYS,2024-06-14 11:55,53.60,46.40,76.50,330.00,9.00,0.00,30.07,M,10.00,M,FEW,FEW,BKN,M,4300.00,7500.00,10000.00,M,M,M,M,M,M,M,M,53.60,KWYS 141155Z AUTO 33009KT 10SM FEW043 FEW075 BKN100 12/08 A3007 RMK AO2,M
WYS,2024-06-14 12:55,53.60,48.20,81.87,0.00,0.00,0.00,30.08,M,10.00,M,CLR,M,M,M,M,M,M,M,M,M,M,M,M,M,M,53.60,KWYS 141255Z AUTO 00000KT 10SM CLR 12/09 A3008 RMK AO2,M
WYS,2024-06-14 13:55,59.00,48.20,67.33,340.00,4.00,0.00,30.08,M,10.00,M,CLR,M,M,M,M,M,M,M,M,M,M,M,M,M,M,59.00,KWYS 141355Z AUTO 34004KT 10SM CLR 15/09 A3008 RMK AO2,M
WYS,2024-06-14 14:55,64.40,46.40,51.98,0.00,0.00,0.00,30.09,M,10.00,M,FEW,M,M,M,12000.00,M,M,M,M,M,M,M,M,M,M,64.40,KWYS 141455Z AUTO 00000KT 10SM FEW120 18/08 A3009 RMK AO2,M
WYS,2024-06-14 15:55,69.80,42.80,37.61,M,4.00,0.00,30.07,M,10.00,10.00,CLR,M,M,M,M,M,M,M,M,M,M,M,M,M,M,69.80,KWYS 141555Z AUTO VRB04G10KT 10SM CLR 21/06 A3007 RMK AO2,M
WYS,2024-06-14 16:55,73.40,44.60,35.66,230.00,14.00,0.00,30.07,M,10.00,23.00,CLR,M,M,M,M,M,M,M,M,M,M,M,M,M,M,73.40,KWYS 141655Z AUTO 23014G23KT 10SM CLR 23/07 A3007 RMK AO2,M
WYS,2024-06-14 17:55,71.60,42.80,35.37,210.00,18.00,0.00,30.07,M,10.00,M,SCT,M,M,M,12000.00,M,M,M,M,M,M,M,M,M,M,71.60,KWYS 141755Z AUTO 21018KT 10SM SCT120 22/06 A3007 RMK AO2,M
WYS,2024-06-14 18:55,75.20,44.60,33.57,200.00,9.00,0.00,30.06,M,10.00,15.00,OVC,M,M,M,12000.00,M,M,M,M,M,M,M,M,M,M,75.20,KWYS 141855Z AUTO 20009G15KT 10SM OVC120 24/07 A3006 RMK AO2,M
WYS,2024-06-14 19:55,77.00,42.80,29.51,210.00,19.00,0.00,30.04,M,10.00,25.00,CLR,M,M,M,M,M,M,M,M,M,M,M,M,M,M,77.00,KWYS 141955Z AUTO 21019G25KT 10SM CLR 25/06 A3004 RMK AO2,M
WYS,2024-06-14 20:55,73.40,46.40,38.18,230.00,11.00,0.00,30.04,M,10.00,M,CLR,M,M,M,M,M,M,M,M,M,M,M,M,M,M,73.40,KWYS 142055Z AUTO 23011KT 10SM CLR 23/08 A3004 RMK AO2,M
WYS,2024-06-14 21:55,73.40,41.00,31.05,330.00,7.00,0.00,30.03,M,10.00,13.00,M,M,M,M,M,M,M,M,M,M,M,M,M,M,M,73.40,KWYS 142155Z AUTO 33007G13KT 300V360 10SM 23/05 A3003 RMK AO2,M
WYS,2024-06-14 22:55,75.20,41.00,29.23,240.00,14.00,0.00,29.99,M,10.00,23.00,SCT,M,M,M,8000.00,M,M,M,M,M,M,M,M,M,M,75.20,KWYS 142255Z AUTO 24014G23KT 200V300 10SM SCT080 24/05 A2999 RMK AO2,M
WYS,2024-06-14 23:55,68.00,46.40,45.88,20.00,15.00,0.00,29.99,M,10.00,M,FEW,M,M,M,12000.00,M,M,M,M,M,M,M,M,M,M,68.00,KWYS 142355Z AUTO 02015KT 10SM FEW120 20/08 A2999 RMK AO2,M
WYS,2024-06-15 00:55,73.40,37.40,26.98,210.00,19.00,0.00,29.97,M,10.00,28.00,SCT,M,M,M,11000.00,M,M,M,M,M,M,M,M,M,M,73.40,KWYS 150055Z AUTO 21019G28KT 10SM SCT110 23/03 A2997 RMK AO2,M
WYS,2024-06-15 01:55,68.00,48.20,49.10,360.00,4.00,0.00,30.00,M,10.00,M,SCT,M,M,M,11000.00,M,M,M,M,M,M,M,M,M,M,68.00,KWYS 150155Z AUTO 36004KT 10SM SCT110 20/09 A3000 RMK AO2,M
WYS,2024-06-15 02:55,60.80,46.40,59.01,0.00,0.00,0.00,29.99,M,10.00,M,SCT,M,M,M,12000.00,M,M,M,M,M,M,M,M,M,M,60.80,KWYS 150255Z AUTO 00000KT 10SM SCT120 16/08 A2999 RMK AO2,M
WYS,2024-06-15 03:55,57.20,46.40,67.12,0.00,0.00,0.00,30.00,M,10.00,M,BKN,M,M,M,11000.00,M,M,M,M,M,M,M,M,M,M,57.20,KWYS 150355Z AUTO 00000KT 10SM BKN110 14/08 A3000 RMK AO2,M
WYS,2024-06-15 04:55,55.40,46.40,71.64,0.00,0.00,0.00,30.02,M,10.00,M,SCT,M,M,M,11000.00,M,M,M,M,M,M,M,M,M,M,55.40,KWYS 150455Z AUTO 00000KT 10SM SCT110 13/08 A3002 RMK AO2,M
WYS,2024-06-15 05:55,51.80,46.40,81.74,0.00,0.00,0.00,30.01,M,10.00,M,FEW,M,M,M,10000.00,M,M,M,M,M,M,M,M,M,M,51.80,KWYS 150555Z AUTO 00000KT 10SM FEW100 11/08 A3001 RMK AO2,M
WYS,2024-06-15 06:55,46.40,46.40,100.00,0.00,0.00,0.00,29.99,M,10.00,M,SCT,M,M,M,12000.00,M,M,M,M,M,M,M,M,M,M,46.40,KWYS 150655Z AUTO 00000KT 10SM SCT120 08/08 A2999 RMK AO2,M
WYS,2024-06-15 07:55,44.60,44.60,100.00,300.00,4.00,0.00,29.99,M,10.00,M,BKN,M,M,M,11000.00,M,M,M,M,M,M,M,M,M,M,42.13,KWYS 150755Z AUTO 30004KT 10SM BKN110 07/07 A2999 RMK AO2,M
WYS,2024-06-15 08:55,42.80,42.80,100.00,0.00,0.00,0.00,29.97,M,10.00,M,SCT,M,M,M,10000.00,M,M,M,M,M,M,M,M,M,M,42.80,KWYS 150855Z AUTO 00000KT 10SM SCT100 06/06 A2997 RMK AO2,M
WYS,2024-06-15 09:55,41.00,41.00,100.00,240.00,3.00,0.00,29.94,M,10.00,M,BKN,M,M,M,11000.00,M,M,M,M,M,M,M,M,M,M,38.98,KWYS 150955Z AUTO 24003KT 10SM BKN110 05/05 A2994 RMK AO2,M
WYS,2024-06-15 10:55,44.60,44.60,100.00,310.00,5.00,0.00,29.95,M,10.00,M,FEW,BKN,OVC,M,7500.00,9500.00,11000.00,M,M,M,M,M,M,M,M,41.36,KWYS 151055Z AUTO 31005KT 10SM FEW075 BKN095 OVC110 07/07 A2995 RMK AO2,M
WYS,2024-06-15 11:55,46.40,46.40,100.00,M,4.00,0.01,29.96,M,10.00,M,CLR,M,M,M,M,M,M,M,M,M,M,M,M,M,M,44.24,KWYS 151155Z AUTO VRB04KT 10SM CLR 08/08 A2996 RMK AO2 P0001,M
WYS,2024-06-15 12:55,46.40,46.40,100.00,190.00,4.00,0.01,29.94,M,10.00,M,CLR,M,M,M,M,M,M,M,M,M,M,M,M,M,M,44.24,KWYS 151255Z AUTO 19004KT 10SM CLR 08/08 A2994 RMK AO2 P0001,M
WYS,2024-06-15 13:55,51.80,50.00,93.55,0.00,0.00,0.00,29.94,M,10.00,M,CLR,M,M,M,M,M,M,M,M,M,M,M,M,M,M,51.80,KWYS 151355Z AUTO 00000KT 10SM CLR 11/10 A2994 RMK AO2,M
WYS,2024-06-15 14:55,57.20,48.20,71.83,0.00,0.00,0.00,29.93,M,10.00,M,CLR,M,M,M,M,M,M,M,M,M,M,M,M,M,M,57.20,KWYS 151455Z AUTO 00000KT 10SM CLR 14/09 A2993 RMK AO2,M
WYS,2024-06-15 15:55,60.80,41.00,48.00,200.00,14.00,0.00,29.90,M,10.00,22.00,CLR,M,M,M,M,M,M,M,M,M,M,M,M,M,M,60.80,KWYS 151555Z AUTO 20014G22KT 10SM CLR 16/05 A2990 RMK AO2,M
WYS,2024-06-15 16:55,62.60,39.20,42.00,210.00,22.00,0.00,29.89,M,10.00,29.00,CLR,M,M,M,M,M,M,M,M,M,M,M,M,M,M,62.60,KWYS 151655Z AUTO 21022G29KT 10SM CLR 17/04 A2989 RMK AO2,M
WYS,2024-06-15 17:55,64.40,35.60,34.22,230.00,20.00,0.00,29.86,M,10.00,36.00,CLR,M,M,M,M,M,M,M,M,M,M,M,M,M,M,64.40,KWYS 151755Z AUTO 23020G36KT 10SM CLR 18/02 A2986 RMK AO2,M
WYS,2024-06-15 18:55,66.20,35.60,32.14,220.00,28.00,0.00,29.86,M,10.00,45.00,CLR,M,M,M,M,M,M,M,M,M,M,M,M,M,M,66.20,KWYS 151855Z AUTO 22028G45KT 10SM CLR 19/02 A2986 RMK AO2,M
WYS,2024-06-15 19:55,62.60,33.80,33.93,230.00,24.00,0.00,29.85,M,10.00,40.00,CLR,M,M,M,M,M,M,M,M,M,M,M,M,M,M,62.60,KWYS 151955Z AUTO 23024G40KT 10SM CLR 17/01 A2985 RMK AO2,M
WYS,2024-06-15 20:55,68.00,30.20,24.32,230.00,27.00,0.00,29.85,M,10.00,43.00,CLR,M,M,M,M,M,M,M,M,M,M,M,M,M,M,68.00,KWYS 152055Z AUTO 23027G43KT 10SM CLR 20/M01 A2985 RMK AO2,M
WYS,2024-06-15 21:55,66.20,24.80,20.72,210.00,31.00,0.00,29.85,M,10.00,46.00,CLR,M,M,M,M,M,M,M,M,M,M,M,M,M,M,66.20,KWYS 152155Z AUTO 21031G46KT 10SM CLR 19/M04 A2985 RMK AO2,M
WYS,2024-06-15 22:55,64.40,24.80,22.06,210.00,33.00,0.00,29.85,M,10.00,42.00,CLR,M,M,M,M,M,M,M,M,M,M,M,M,M,M,64.40,KWYS 152255Z AUTO 21033G42KT 10SM CLR 18/M04 A2985 RMK AO2,M
WYS,2024-06-15 23:55,62.60,23.00,21.79,200.00,30.00,0.00,29.86,M,10.00,47.00,CLR,M,M,M,M,M,M,M,M,M,M,M,M,M,M,62.60,KWYS 152355Z AUTO 20030G47KT 10SM CLR 17/M05 A2986 RMK AO2,M
WYS,2024-06-16 00:55,62.60,23.00,21.79,220.00,25.00,0.00,29.87,M,10.00,40.00,CLR,M,M,M,M,M,M,M,M,M,M,M,M,M,M,62.60,KWYS 160055Z AUTO 22025G40KT 10SM CLR 17/M05 A2987 RMK AO2,M
WYS,2024-06-16 01:55,60.80,24.80,25.04,210.00,18.00,0.00,29.88,M,10.00,34.00,CLR,M,M,M,M,M,M,M,M,M,M,M,M,M,M,60.80,KWYS 160155Z AUTO 21018G34KT 10SM CLR 16/M04 A2988 RMK AO2,M
WYS,2024-06-16 02:55,59.00,24.80,26.70,220.00,12.00,0.00,29.90,M,10.00,24.00,CLR,M,M,M,M,M,M,M,M,M,M,M,M,M,M,59.00,KWYS 160255Z AUTO 22012G24KT 10SM CLR 15/M04 A2990 RMK AO2,M
WYS,2024-06-16 03:55,55.40,26.60,32.76,230.00,12.00,0.00,29.92,M,10.00,20.00,CLR,M,M,M,M,M,M,M,M,M,M,M,M,M,M,55.40,KWYS 160355Z AUTO 23012G20KT 10SM CLR 13/M03 A2992 RMK AO2,M
WYS,2024-06-16 04:55,51.80,23.00,32.17,230.00,7.00,0.00,29.94,M,10.00,16.00,CLR,M,M,M,M,M,M,M,M,M,M,M,M,M,M,51.80,KWYS 160455Z AUTO 23007G16KT 10SM CLR 11/M05 A2994 RMK AO2,M
WYS,2024-06-16 05:55,48.20,32.00,53.27,250.00,7.00,0.00,29.96,M,10.00,M,CLR,M,M,M,M,M,M,M,M,M,M,M,M,M,M,44.53,KWYS 160555Z AUTO 25007KT 10SM CLR 09/M00 A2996 RMK AO2,M
WYS,2024-06-16 06:55,44.60,32.00,61.03,240.00,4.00,0.00,29.96,M,10.00,M,CLR,M,M,M,M,M,M,M,M,M,M,M,M,M,M,42.13,KWYS 160655Z AUTO 24004KT 10SM CLR 07/M00 A2996 RMK AO2,M
WYS,2024-06-16 07:55,42.80,30.20,60.79,250.00,5.00,0.00,29.96,M,10.00,M,CLR,M,M,M,M,M,M,M,M,M,M,M,M,M,M,39.22,KWYS 160755Z AUTO 25005KT 10SM CLR 06/M01 A2996 RMK AO2,M
WYS,2024-06-16 08:55,41.00,28.40,60.54,260.00,5.00,0.00,29.97,M,10.00,M,CLR,M,M,M,M,M,M,M,M,M,M,M,M,M,M,37.08,KWYS 160855Z AUTO 26005KT 10SM CLR 05/M02 A2997 RMK AO2,M
WYS,2024-06-16 09:55,39.20,30.20,69.88,0.00,0.00,0.00,29.98,M,10.00,M,CLR,M,M,M,M,M,M,M,M,M,M,M,M,M,M,39.20,KWYS 160955Z AUTO 00000KT 10SM CLR 04/M01 A2998 RMK AO2,M
WYS,2024-06-16 10:55,33.80,30.20,86.49,0.00,0.00,0.00,29.98,M,10.00,M,CLR,M,M,M,M,M,M,M,M,M,M,M,M,M,M,33.80,KWYS 161055Z AUTO 00000KT 10SM CLR 01/M01 A2998 RMK AO2,M
WYS,2024-06-16 11:55,30.20,30.20,100.00,0.00,0.00,0.00,30.00,M,10.00,M,CLR,M,M,M,M,M,M,M,M,M,M,M,M,M,M,30.20,KWYS 161155Z AUTO 00000KT 10SM CLR M01/M01 A3000 RMK AO2,M
WYS,2024-06-16 12:55,35.60,30.20,80.51,0.00,0.00,0.00,30.00,M,10.00,M,CLR,M,M,M,M,M,M,M,M,M,M,M,M,M,M,35.60,KWYS 161255Z AUTO 00000KT 10SM CLR 02/M01 A3000 RMK AO2,M
WYS,2024-06-16 13:55,42.80,23.00,45.14,M,4.00,0.00,29.99,M,10.00,M,CLR,M,M,M,M,M,M,M,M,M,M,M,M,M,M,40.03,KWYS 161355Z AUTO VRB04KT 10SM CLR 06/M05 A2999 RMK AO2,M
WYS,2024-06-16 14:55,46.40,17.60,31.28,M,4.00,0.00,30.00,M,10.00,M,CLR,M,M,M,M,M,M,M,M,M,M,M,M,M,M,44.24,KWYS 161455Z AUTO VRB04KT 10SM CLR 08/M08 A3000 RMK AO2,M
WYS,2024-06-16 15:55,50.00,5.00,15.61,230.00,11.00,0.00,29.98,M,10.00,18.00,CLR,M,M,M,M,M,M,M,M,M,M,M,M,M,M,50.00,KWYS 161555Z AUTO 23011G18KT 10SM CLR 10/M15 A2998 RMK AO2,M
WYS,2024-06-16 16:55,50.00,17.60,27.33,260.00,7.00,0.00,29.97,M,10.00,M,CLR,M,M,M,M,M,M,M,M,M,M,M,M,M,M,50.00,KWYS 161655Z AUTO 26007KT 220V300 10SM CLR 10/M08 A2997 RMK AO2,M
WYS,2024-06-16 17:55,53.60,15.80,22.13,230.00,18.00,0.00,29.95,M,10.00,24.00,CLR,M,M,M,M,M,M,M,M,M,M,M,M,M,M,53.60,KWYS 161755Z AUTO 23018G24KT 210V280 10SM CLR 12/M09 A2995 RMK AO2,M
WYS,2024-06-16 18:55,55.40,19.40,24.21,200.00,11.00,0.00,29.94,M,10.00,25.00,FEW,M,M,M,7500.00,M,M,M,M,M,M,M,M,M,M,55.40,KWYS 161855Z AUTO 20011G25KT 10SM FEW075 13/M07 A2994 RMK AO2,M
WYS,2024-06-16 19:55,57.20,17.60,20.99,210.00,20.00,0.00,29.92,M,10.00,27.00,SCT,BKN,M,M,7500.00,8000.00,M,M,M,M,M,M,M,M,M,57.20,KWYS 161955Z AUTO 21020G27KT 10SM SCT075 BKN080 14/M08 A2992 RMK AO2,M
WYS,2024-06-16 20:55,59.00,15.80,18.20,210.00,13.00,0.00,29.91,M,10.00,22.00,FEW,M,M,M,8000.00,M,M,M,M,M,M,M,M,M,M,59.00,KWYS 162055Z AUTO 21013G22KT 180V290 10SM FEW080 15/M09 A2991 RMK AO2,M
WYS,2024-06-16 21:55,59.00,15.80,18.20,230.00,15.00,0.00,29.90,M,10.00,M,CLR,M,M,M,M,M,M,M,M,M,M,M,M,M,M,59.00,KWYS 162155Z AUTO 23015KT 10SM CLR 15/M09 A2990 RMK AO2,M
WYS,2024-06-16 22:55,59.00,19.40,21.26,220.00,14.00,0.00,29.89,M,10.00,20.00,CLR,M,M,M,M,M,M,M,M,M,M,M,M,M,M,59.00,KWYS 162255Z AUTO 22014G20KT 10SM CLR 15/M07 A2989 RMK AO2,M
WYS,2024-06-16 23:55,57.20,19.40,22.68,240.00,11.00,0.00,29.87,M,10.00,17.00,CLR,M,M,M,M,M,M,M,M,M,M,M,M,M,M,57.20,KWYS 162355Z AUTO 24011G17KT 10SM CLR 14/M07 A2987 RMK AO2,M
WYS,2024-06-17 00:55,57.20,15.80,19.42,230.00,12.00,0.00,29.86,M,10.00,20.00,CLR,M,M,M,M,M,M,M,M,M,M,M,M,M,M,57.20,KWYS 170055Z AUTO 23012G20KT 10SM CLR 14/M09 A2986 RMK AO2,M
WYS,2024-06-17 01:55,55.40,21.20,26.13,220.00,6.00,0.00,29.85,M,10.00,14.00,CLR,M,M,M,M,M,M,M,M,M,M,M,M,M,M,55.40,KWYS 170155Z AUTO 22006G14KT 10SM CLR 13/M06 A2985 RMK AO2,M
WYS,2024-06-17 02:55,51.80,23.00,32.17,70.00,4.00,0.00,29.84,M,10.00,M,CLR,M,M,M,M,M,M,M,M,M,M,M,M,M,M,51.80,KWYS 170255Z AUTO 07004KT 10SM CLR 11/M05 A2984 RMK AO2,M
WYS,2024-06-17 03:55,50.00,21.20,31.87,0.00,0.00,0.00,29.84,M,10.00,M,SCT,M,M,M,12000.00,M,M,M,M,M,M,M,M,M,M,50.00,KWYS 170355Z AUTO 00000KT 10SM SCT120 10/M06 A2984 RMK AO2,M
WYS,2024-06-17 04:55,48.20,21.20,34.09,70.00,4.00,0.00,29.82,M,10.00,M,SCT,BKN,BKN,M,8500.00,10000.00,12000.00,M,M,M,M,M,M,M,M,46.34,KWYS 170455Z AUTO 07004KT 10SM SCT085 BKN100 BKN120 09/M06 A2982 RMK AO2,M
WYS,2024-06-17 05:55,46.40,23.00,39.36,160.00,4.00,0.00,29.79,M,10.00,M,BKN,OVC,M,M,7000.00,7500.00,M,M,M,M,M,M,M,M,M,44.24,KWYS 170555Z AUTO 16004KT 10SM BKN070 OVC075 08/M05 A2979 RMK AO2,M
WYS,2024-06-17 06:55,46.40,28.40,49.24,40.00,3.00,0.00,29.78,M,10.00,M,FEW,BKN,OVC,M,4800.00,6000.00,7000.00,M,M,M,M,M,M,M,M,45.15,KWYS 170655Z AUTO 04003KT 10SM FEW048 BKN060 OVC070 08/M02 A2978 RMK AO2,M
WYS,2024-06-17 07:55,46.40,26.60,45.73,0.00,0.00,0.00,29.76,M,10.00,M,FEW,SCT,BKN,M,4200.00,5000.00,6000.00,M,M,M,M,M,M,M,M,46.40,KWYS 170755Z AUTO 00000KT 10SM FEW042 SCT050 BKN060 08/M03 A2976 RMK AO2,M
WYS,2024-06-17 08:55,48.20,30.20,49.53,0.00,0.00,0.00,29.74,M,10.00,M,FEW,SCT,OVC,M,3600.00,4500.00,7500.00,M,M,M,M,M,M,M,M,48.20,KWYS 170855Z AUTO 00000KT 10SM FEW036 SCT045 OVC075 09/M01 A2974 RMK AO2,M
WYS,2024-06-17 09:55,48.20,30.20,49.53,110.00,5.00,0.00,29.71,M,10.00,M,SCT,OVC,M,M,6000.00,7000.00,M,M,M,M,M,M,M,M,M,45.63,KWYS 170955Z AUTO 11005KT 10SM SCT060 OVC070 09/M01 A2971 RMK AO2,M
WYS,2024-06-17 10:55,44.60,33.80,65.61,330.00,5.00,0.00,29.69,M,10.00,M,FEW,BKN,OVC,M,4600.00,5500.00,7500.00,M,M,M,M,M,M,M,M,41.36,KWYS 171055Z AUTO 33005KT 10SM FEW046 BKN055 OVC075 07/01 A2969 RMK AO2,M
WYS,2024-06-17 11:55,46.40,32.00,57.00,230.00,4.00,0.00,29.65,M,10.00,11.00,SCT,BKN,OVC,M,6000.00,7500.00,9500.00,M,M,M,M,M,M,M,M,44.24,KWYS 171155Z AUTO 23004G11KT 10SM SCT060 BKN075 OVC095 08/00 A2965 RMK AO2,M
WYS,2024-06-17 12:55,44.60,35.60,70.48,230.00,4.00,0.00,29.67,M,10.00,M,OVC,M,M,M,9000.00,M,M,M,M,M,M,M,M,M,M,42.13,KWYS 171255Z AUTO 23004KT 10SM OVC090 07/02 A2967 RMK AO2,M
WYS,2024-06-17 13:55,50.00,32.00,49.81,230.00,10.00,0.00,29.67,M,10.00,M,BKN,M,M,M,9000.00,M,M,M,M,M,M,M,M,M,M,50.00,KWYS 171355Z AUTO 23010KT 10SM BKN090 10/M00 A2967 RMK AO2,M
WYS,2024-06-17 14:55,48.20,33.80,57.26,220.00,11.00,0.00,29.68,M,10.00,17.00,SCT,M,M,M,8500.00,M,M,M,M,M,M,M,M,M,M,42.94,KWYS 171455Z AUTO 22011G17KT 10SM SCT085 09/01 A2968 RMK AO2,M
WYS,2024-06-17 15:55,46.40,35.60,65.83,210.00,12.00,0.00,29.71,M,10.00,22.00,FEW,OVC,M,M,3300.00,7500.00,M,M,M,M,M,M,M,M,M,40.33,KWYS 171555Z AUTO 21012G22KT 10SM FEW033 OVC075 08/02 A2971 RMK AO2,M
WYS,2024-06-17 16:55,41.00,41.00,100.00,210.00,11.00,0.01,29.73,M,6.00,M,FEW,SCT,M,M,2100.00,2900.00,M,M,-RA,M,M,M,M,M,M,33.84,KWYS 171655Z AUTO 21011KT 6SM -RA FEW021 SCT029 05/05 A2973 RMK AO2 P0001,M
WYS,2024-06-17 17:55,41.00,41.00,100.00,200.00,9.00,0.00,29.72,M,10.00,M,BKN,OVC,M,M,1500.00,2100.00,M,M,M,M,M,M,M,M,M,34.70,KWYS 171755Z AUTO 20009KT 10SM BKN015 OVC021 05/05 A2972 RMK AO2,M
WYS,2024-06-17 18:55,39.20,39.20,100.00,190.00,13.00,0.03,29.73,M,7.00,M,FEW,FEW,M,M,1300.00,2400.00,M,M,-RA,M,M,M,M,M,M,30.79,KWYS 171855Z AUTO 19013KT 7SM -RA FEW013 FEW024 04/04 A2973 RMK AO2 P0003,M
WYS,2024-06-17 19:55,42.80,42.80,100.00,200.00,16.00,0.00,29.72,M,10.00,23.00,CLR,M,M,M,M,M,M,M,M,M,M,M,M,M,M,34.50,KWYS 171955Z AUTO 20016G23KT 10SM CLR 06/06 A2972 RMK AO2,M
WYS,2024-06-17 20:55,44.60,41.00,87.09,210.00,16.00,0.00,29.73,M,10.00,22.00,SCT,BKN,M,M,1300.00,5500.00,M,M,M,M,M,M,M,M,M,36.84,KWYS 172055Z AUTO 21016G22KT 10SM SCT013 BKN055 07/05 A2973 RMK AO2,M
WYS,2024-06-17 21:55,42.80,35.60,75.50,200.00,20.00,0.01,29.73,M,10.00,30.00,FEW,SCT,BKN,M,2000.00,3200.00,5000.00,M,M,M,M,M,M,M,M,33.48,KWYS 172155Z AUTO 20020G30KT 10SM FEW020 SCT032 BKN050 06/02 A2973 RMK AO2 P0001,M
WYS,2024-06-17 22:55,42.80,33.80,70.28,210.00,19.00,0.00,29.74,M,10.00,26.00,FEW,SCT,SCT,M,3500.00,4400.00,4900.00,M,M,M,M,M,M,M,M,33.72,KWYS 172255Z AUTO 21019G26KT 10SM FEW035 SCT044 SCT049 06/01 A2974 RMK AO2,M
WYS,2024-06-17 23:55,41.00,30.20,65.16,200.00,16.00,0.00,29.76,M,10.00,22.00,FEW,FEW,M,M,2000.00,3000.00,M,M,M,M,M,M,M,M,M,32.15,KWYS 172355Z AUTO 20016G22KT 10SM FEW020 FEW030 05/M01 A2976 RMK AO2,M
WYS,2024-06-18 00:55,41.00,30.20,65.16,210.00,21.00,0.00,29.79,M,10.00,26.00,CLR,M,M,M,M,M,M,M,M,M,M,M,M,M,M,30.86,KWYS 180055Z AUTO 21021G26KT 10SM CLR 05/M01 A2979 RMK AO2,M
WYS,2024-06-18 01:55,37.40,32.00,80.65,200.00,16.00,0.00,29.81,M,9.00,22.00,SCT,SCT,M,M,2600.00,3500.00,M,M,M,M,M,M,M,M,M,27.46,KWYS 180155Z AUTO 20016G22KT 9SM SCT026 SCT035 03/M00 A2981 RMK AO2,M
WYS,2024-06-18 02:55,35.60,35.60,100.00,0.00,0.00,0.00,29.82,M,10.00,M,BKN,BKN,BKN,M,1300.00,1800.00,2800.00,M,-UP,M,M,M,M,M,M,35.60,KWYS 180255Z AUTO 00000KT 10SM -UP BKN013 BKN018 BKN028 02/02 A2982 RMK AO2,M
WYS,2024-06-18 03:55,33.80,33.80,100.00,180.00,6.00,0.00,29.84,M,1.25,M,OVC,M,M,M,300.00,M,M,M,-SN,M,M,M,M,M,M,27.70,KWYS 180355Z AUTO 18006KT 1 1/4SM -SN OVC003 01/01 A2984 RMK AO2,M
WYS,2024-06-18 04:55,33.80,33.80,100.00,300.00,4.00,0.00,29.85,M,2.00,M,BKN,BKN,OVC,M,400.00,800.00,3700.00,M,-SN,M,M,M,M,M,M,29.52,KWYS 180455Z AUTO 30004KT 2SM -SN BKN004 BKN008 OVC037 01/01 A2985 RMK AO2,M
WYS,2024-06-18 05:55,32.00,32.00,100.00,240.00,6.00,0.00,29.89,M,10.00,M,FEW,SCT,BKN,M,400.00,2600.00,4300.00,M,M,M,M,M,M,M,M,25.53,KWYS 180555Z AUTO 24006KT 10SM FEW004 SCT026 BKN043 00/00 A2989 RMK AO2,M
WYS,2024-06-18 06:55,33.80,33.80,100.00,230.00,6.00,0.00,29.91,M,10.00,M,BKN,BKN,OVC,M,2800.00,4000.00,5000.00,M,M,M,M,M,M,M,M,27.70,KWYS 180655Z AUTO 23006KT 10SM BKN028 BKN040 OVC050 01/01 A2991 RMK AO2,M
WYS,2024-06-18 07:55,33.80,33.80,100.00,210.00,8.00,0.00,29.92,M,10.00,M,SCT,BKN,OVC,M,3000.00,3600.00,7000.00,M,M,M,M,M,M,M,M,26.33,KWYS 180755Z AUTO 21008KT 10SM SCT030 BKN036 OVC070 01/01 A2992 RMK AO2,M
WYS,2024-06-18 08:55,33.80,33.80,100.00,210.00,6.00,0.01,29.94,M,10.00,M,OVC,M,M,M,7000.00,M,M,M,M,M,M,M,M,M,M,27.70,KWYS 180855Z AUTO 21006KT 10SM OVC070 01/01 A2994 RMK AO2 P0001,M
WYS,2024-06-18 09:55,32.00,32.00,100.00,220.00,6.00,0.00,29.95,M,10.00,M,OVC,M,M,M,7000.00,M,M,M,M,M,M,M,M,M,M,25.53,KWYS 180955Z AUTO 22006KT 10SM OVC070 00/00 A2995 RMK AO2,M
WYS,2024-06-18 10:55,32.00,32.00,100.00,220.00,7.00,0.00,29.96,M,9.00,M,FEW,BKN,OVC,M,3100.00,6500.00,7500.00,M,M,M,M,M,M,M,M,24.78,KWYS 181055Z AUTO 22007KT 9SM FEW031 BKN065 OVC075 00/00 A2996 RMK AO2,M
WYS,2024-06-18 11:55,32.00,32.00,100.00,200.00,7.00,0.00,29.97,M,10.00,M,OVC,M,M,M,7500.00,M,M,M,M,M,M,M,M,M,M,24.78,KWYS 181155Z AUTO 20007KT 10SM OVC075 00/00 A2997 RMK AO2,M
WYS,2024-06-18 12:55,33.80,33.80,100.00,220.00,5.00,0.00,30.00,M,10.00,M,SCT,OVC,M,M,3900.00,8000.00,M,M,M,M,M,M,M,M,M,28.53,KWYS 181255Z AUTO 22005KT 10SM SCT039 OVC080 01/01 A3000 RMK AO2,M
WYS,2024-06-18 13:55,33.80,33.80,100.00,220.00,9.00,0.00,30.02,M,10.00,M,BKN,OVC,M,M,3300.00,4200.00,M,M,M,M,M,M,M,M,M,25.75,KWYS 181355Z AUTO 22009KT 10SM BKN033 OVC042 01/01 A3002 RMK AO2,M
WYS,2024-06-18 14:55,35.60,35.60,100.00,210.00,9.00,0.02,30.03,M,10.00,M,SCT,BKN,M,M,5000.00,6000.00,M,M,M,M,M,M,M,M,M,27.99,KWYS 181455Z AUTO 21009KT 10SM SCT050 BKN060 02/02 A3003 RMK AO2 P0002,M
WYS,2024-06-18 15:55,37.40,32.00,80.65,230.00,10.00,0.00,30.04,M,10.00,M,FEW,SCT,OVC,M,1900.00,2700.00,5000.00,M,M,M,M,M,M,M,M,29.74,KWYS 181555Z AUTO 23010KT 10SM FEW019 SCT027 OVC050 03/00 A3004 RMK AO2,M
WYS,2024-06-18 16:55,39.20,33.80,80.79,210.00,13.00,0.00,30.05,M,10.00,M,FEW,OVC,M,M,2300.00,5500.00,M,M,M,M,M,M,M,M,M,30.79,KWYS 181655Z AUTO 21013KT 10SM FEW023 OVC055 04/01 A3005 RMK AO2,M
WYS,2024-06-18 17:55,42.80,26.60,52.45,220.00,13.00,0.00,30.07,M,10.00,18.00,FEW,FEW,OVC,M,2400.00,3100.00,5500.00,M,M,M,M,M,M,M,M,35.40,KWYS 181755Z AUTO 22013G18KT 10SM FEW024 FEW031 OVC055 06/M03 A3007 RMK AO2,M
WYS,2024-06-18 18:55,44.60,32.00,61.03,210.00,16.00,0.00,30.08,M,10.00,M,SCT,BKN,BKN,M,3200.00,3900.00,4900.00,M,M,M,M,M,M,M,M,36.84,KWYS 181855Z AUTO 21016KT 10SM SCT032 BKN039 BKN049 07/M00 A3008 RMK AO2,M
WYS,2024-06-18 19:55,44.60,32.00,61.03,200.00,15.00,0.00,30.09,M,10.00,M,SCT,M,M,M,7000.00,M,M,M,M,M,M,M,M,M,M,37.11,KWYS 181955Z AUTO 20015KT 10SM SCT070 07/M00 A3009 RMK AO2,M
WYS,2024-06-18 20:55,44.60,32.00,61.03,230.00,14.00,0.00,30.09,M,10.00,21.00,FEW,FEW,FEW,M,2700.00,3500.00,4600.00,M,M,M,M,M,M,M,M,37.40,KWYS 182055Z AUTO 23014G21KT 10SM FEW027 FEW035 FEW046 07/M00 A3009 RMK AO2,M
WYS,2024-06-18 21:55,46.40,30.20,53.00,210.00,15.00,0.00,30.09,M,10.00,M,SCT,SCT,SCT,M,3700.00,5500.00,6500.00,M,M,M,M,M,M,M,M,39.45,KWYS 182155Z AUTO 21015KT 10SM SCT037 SCT055 SCT065 08/M01 A3009 RMK AO2,M
WYS,2024-06-18 22:55,48.20,30.20,49.53,200.00,15.00,0.00,30.08,M,10.00,M,FEW,SCT,M,M,3800.00,7500.00,M,M,M,M,M,M,M,M,M,41.78,KWYS 182255Z AUTO 20015KT 180V240 10SM FEW038 SCT075 09/M01 A3008 RMK AO2,M
WYS,2024-06-18 23:55,50.00,28.40,43.03,220.00,9.00,0.00,30.07,M,10.00,18.00,SCT,M,M,M,4500.00,M,M,M,M,M,M,M,M,M,M,50.00,KWYS 182355Z AUTO 22009G18KT 10SM SCT045 10/M02 A3007 RMK AO2,M
WYS,2024-06-19 00:55,50.00,26.60,39.95,200.00,9.00,0.00,30.08,M,10.00,14.00,CLR,M,M,M,M,M,M,M,M,M,M,M,M,M,M,50.00,KWYS 190055Z AUTO 20009G14KT 10SM CLR 10/M03 A3008 RMK AO2,M
WYS,2024-06-19 01:55,48.20,26.60,42.73,210.00,9.00,0.00,30.09,M,10.00,M,CLR,M,M,M,M,M,M,M,M,M,M,M,M,M,M,43.66,KWYS 190155Z AUTO 21009KT 10SM CLR 09/M03 A3009 RMK AO2,M
WYS,2024-06-19 02:55,42.80,30.20,60.79,0.00,0.00,0.00,30.11,M,10.00,M,CLR,M,M,M,M,M,M,M,M,M,M,M,M,M,M,42.80,KWYS 190255Z AUTO 00000KT 10SM CLR 06/M01 A3011 RMK AO2,M
WYS,2024-06-19 03:55,37.40,35.60,93.14,0.00,0.00,0.00,30.14,M,10.00,M,CLR,M,M,M,M,M,M,M,M,M,M,M,M,M,M,37.40,KWYS 190355Z AUTO 00000KT 10SM CLR 03/02 A3014 RMK AO2,M
WYS,2024-06-19 04:55,33.80,33.80,100.00,0.00,0.00,0.00,30.14,M,10.00,M,CLR,M,M,M,M,M,M,M,M,M,M,M,M,M,M,33.80,KWYS 190455Z AUTO 00000KT 10SM CLR 01/01 A3014 RMK AO2,M
WYS,2024-06-19 05:55,30.20,30.20,100.00,0.00,0.00,0.00,30.15,M,10.00,M,CLR,M,M,M,M,M,M,M,M,M,M,M,M,M,M,30.20,KWYS 190555Z AUTO 00000KT 10SM CLR M01/M01 A3015 RMK AO2,M
WYS,2024-06-19 06:55,28.40,28.40,100.00,0.00,0.00,0.00,30.16,M,10.00,M,CLR,M,M,M,M,M,M,M,M,M,M,M,M,M,M,28.40,KWYS 190655Z AUTO 00000KT 10SM CLR M02/M02 A3016 RMK AO2,M
WYS,2024-06-19 07:55,26.60,26.60,100.00,0.00,0.00,0.00,30.15,M,10.00,M,CLR,M,M,M,M,M,M,M,M,M,M,M,M,M,M,26.60,KWYS 190755Z AUTO 00000KT 10SM CLR M03/M03 A3015 RMK AO2,M
WYS,2024-06-19 08:55,24.80,24.80,100.00,0.00,0.00,0.00,30.15,M,10.00,M,CLR,M,M,M,M,M,M,M,M,M,M,M,M,M,M,24.80,KWYS 190855Z AUTO 00000KT 10SM CLR M04/M04 A3015 RMK AO2,M
WYS,2024-06-19 09:55,24.80,24.80,100.00,0.00,0.00,0.00,30.16,M,10.00,M,CLR,M,M,M,M,M,M,M,M,M,M,M,M,M,M,24.80,KWYS 190955Z AUTO 00000KT 10SM CLR M04/M04 A3016 RMK AO2,M
WYS,2024-06-19 10:55,23.00,23.00,100.00,0.00,0.00,0.00,30.16,M,10.00,M,CLR,M,M,M,M,M,M,M,M,M,M,M,M,M,M,23.00,KWYS 191055Z AUTO 00000KT 10SM CLR M05/M05 A3016 RMK AO2,M
WYS,2024-06-19 11:55,21.20,21.20,100.00,0.00,0.00,0.00,30.17,M,10.00,M,CLR,M,M,M,M,M,M,M,M,M,M,M,M,M,M,21.20,KWYS 191155Z AUTO 00000KT 10SM CLR M06/M06 A3017 RMK AO2,M
WYS,2024-06-19 12:55,26.60,26.60,100.00,0.00,0.00,0.00,30.19,M,10.00,M,CLR,M,M,M,M,M,M,M,M,M,M,M,M,M,M,26.60,KWYS 191255Z AUTO 00000KT 10SM CLR M03/M03 A3019 RMK AO2,M
WYS,2024-06-19 13:55,33.80,30.20,86.49,0.00,0.00,0.00,30.19,M,10.00,M,CLR,M,M,M,M,M,M,M,M,M,M,M,M,M,M,33.80,KWYS 191355Z AUTO 00000KT 10SM CLR 01/M01 A3019 RMK AO2,M
WYS,2024-06-19 14:55,39.20,26.60,60.29,0.00,0.00,0.00,30.19,M,10.00,M,CLR,M,M,M,M,M,M,M,M,M,M,M,M,M,M,39.20,KWYS 191455Z AUTO 00000KT 10SM CLR 04/M03 A3019 RMK AO2,M
WYS,2024-06-19 15:55,46.40,26.60,45.73,50.00,3.00,0.00,30.18,M,10.00,M,CLR,M,M,M,M,M,M,M,M,M,M,M,M,M,M,45.15,KWYS 191555Z AUTO 05003KT 10SM CLR 08/M03 A3018 RMK AO2,M
WYS,2024-06-19 16:55,53.60,23.00,30.11,0.00,0.00,0.00,30.17,M,10.00,M,CLR,M,M,M,M,M,M,M,M,M,M,M,M,M,M,53.60,KWYS 191655Z AUTO 00000KT 10SM CLR 12/M05 A3017 RMK AO2,M
WYS,2024-06-19 17:55,55.40,17.60,22.41,M,5.00,0.00,30.16,M,10.00,15.00,CLR,M,M,M,M,M,M,M,M,M,M,M,M,M,M,55.40,KWYS 191755Z AUTO VRB05G15KT 10SM CLR 13/M08 A3016 RMK AO2,M
WYS,2024-06-19 18:55,57.20,15.80,19.42,190.00,10.00,0.00,30.16,M,10.00,M,CLR,M,M,M,M,M,M,M,M,M,M,M,M,M,M,57.20,KWYS 191855Z AUTO 19010KT 10SM CLR 14/M09 A3016 RMK AO2,M
WYS,2024-06-19 19:55,59.00,15.80,18.20,260.00,6.00,0.00,30.16,M,10.00,15.00,FEW,M,M,M,8000.00,M,M,M,M,M,M,M,M,M,M,59.00,KWYS 191955Z AUTO 26006G15KT 10SM FEW080 15/M09 A3016 RMK AO2,M
WYS,2024-06-19 20:55,59.00,15.80,18.20,290.00,9.00,0.00,30.16,M,10.00,17.00,CLR,M,M,M,M,M,M,M,M,M,M,M,M,M,M,59.00,KWYS 192055Z AUTO 29009G17KT 260V320 10SM CLR 15/M09 A3016 RMK AO2,M
WYS,2024-06-19 21:55,60.80,15.80,17.07,M,6.00,0.00,30.15,M,10.00,15.00,CLR,M,M,M,M,M,M,M,M,M,M,M,M,M,M,60.80,KWYS 192155Z AUTO VRB06G15KT 10SM CLR 16/M09 A3015 RMK AO2,M
WYS,2024-06-19 22:55,62.60,15.80,16.02,240.00,9.00,0.00,30.15,M,10.00,19.00,FEW,M,M,M,9500.00,M,M,M,M,M,M,M,M,M,M,62.60,KWYS 192255Z AUTO 24009G19KT 210V270 10SM FEW095 17/M09 A3015 RMK AO2,M
WYS,2024-06-19 23:55,60.80,15.80,17.07,230.00,7.00,0.00,30.15,M,10.00,13.00,FEW,M,M,M,9500.00,M,M,M,M,M,M,M,M,M,M,60.80,KWYS 192355Z AUTO 23007G13KT 10SM FEW095 16/M09 A3015 RMK AO2,M
WYS,2024-06-20 00:55,60.80,12.20,14.58,200.00,7.00,0.00,30.16,M,10.00,M,CLR,M,M,M,M,M,M,M,M,M,M,M,M,M,M,60.80,KWYS 200055Z AUTO 20007KT 10SM CLR 16/M11 A3016 RMK AO2,M
WYS,2024-06-20 01:55,60.80,12.20,14.58,200.00,5.00,0.00,30.17,M,10.00,M,CLR,M,M,M,M,M,M,M,M,M,M,M,M,M,M,60.80,KWYS 200155Z AUTO 20005KT 10SM CLR 16/M11 A3017 RMK AO2,M
WYS,2024-06-20 02:55,50.00,26.60,39.95,0.00,0.00,0.00,30.18,M,10.00,M,CLR,M,M,M,M,M,M,M,M,M,M,M,M,M,M,50.00,KWYS 200255Z AUTO 00000KT 10SM CLR 10/M03 A3018 RMK AO2,M
WYS,2024-06-20 03:55,41.00,28.40,60.54,0.00,0.00,0.00,30.20,M,10.00,M,CLR,M,M,M,M,M,M,M,M,M,M,M,M,M,M,41.00,KWYS 200355Z AUTO 00000KT 10SM CLR 05/M02 A3020 RMK AO2,M
WYS,2024-06-20 04:55,37.40,26.60,64.70,0.00,0.00,0.00,30.21,M,10.00,M,CLR,M,M,M,M,M,M,M,M,M,M,M,M,M,M,37.40,KWYS 200455Z AUTO 00000KT 10SM CLR 03/M03 A3021 RMK AO2,M
WYS,2024-06-20 05:55,32.00,26.60,80.22,0.00,0.00,0.00,30.21,M,10.00,M,CLR,M,M,M,M,M,M,M,M,M,M,M,M,M,M,32.00,KWYS 200555Z AUTO 00000KT 10SM CLR 00/M03 A3021 RMK AO2,M
WYS,2024-06-20 06:55,30.20,26.60,86.28,0.00,0.00,0.00,30.22,M,10.00,M,CLR,M,M,M,M,M,M,M,M,M,M,M,M,M,M,30.20,KWYS 200655Z AUTO 00000KT 10SM CLR M01/M03 A3022 RMK AO2,M
WYS,2024-06-20 07:55,28.40,26.60,92.86,0.00,0.00,0.00,30.22,M,10.00,M,CLR,M,M,M,M,M,M,M,M,M,M,M,M,M,M,28.40,KWYS 200755Z AUTO 00000KT 10SM CLR M02/M03 A3022 RMK AO2,M
WYS,2024-06-20 08:55,26.60,26.60,100.00,0.00,0.00,0.00,30.23,M,10.00,M,CLR,M,M,M,M,M,M,M,M,M,M,M,M,M,M,26.60,KWYS 200855Z AUTO 00000KT 10SM CLR M03/M03 A3023 RMK AO2,M
WYS,2024-06-20 09:55,26.60,26.60,100.00,0.00,0.00,0.00,30.23,M,10.00,M,CLR,M,M,M,M,M,M,M,M,M,M,M,M,M,M,26.60,KWYS 200955Z AUTO 00000KT 10SM CLR M03/M03 A3023 RMK AO2,M
WYS,2024-06-20 10:55,26.60,26.60,100.00,0.00,0.00,0.00,30.23,M,10.00,M,CLR,M,M,M,M,M,M,M,M,M,M,M,M,M,M,26.60,KWYS 201055Z AUTO 00000KT 10SM CLR M03/M03 A3023 RMK AO2,M
WYS,2024-06-20 11:55,24.80,24.80,100.00,0.00,0.00,0.00,30.24,M,10.00,M,CLR,M,M,M,M,M,M,M,M,M,M,M,M,M,M,24.80,KWYS 201155Z AUTO 00000KT 10SM CLR M04/M04 A3024 RMK AO2,M
WYS,2024-06-20 12:55,30.20,28.40,92.92,0.00,0.00,0.00,30.25,M,10.00,M,CLR,M,M,M,M,M,M,M,M,M,M,M,M,M,M,30.20,KWYS 201255Z AUTO 00000KT 10SM CLR M01/M02 A3025 RMK AO2,M
WYS,2024-06-20 13:55,39.20,28.40,64.93,0.00,0.00,0.00,30.25,M,10.00,M,CLR,M,M,M,M,M,M,M,M,M,M,M,M,M,M,39.20,KWYS 201355Z AUTO 00000KT 10SM CLR 04/M02 A3025 RMK AO2,M
WYS,2024-06-20 14:55,44.60,28.40,52.72,0.00,0.00,0.00,30.25,M,10.00,M,CLR,M,M,M,M,M,M,M,M,M,M,M,M,M,M,44.60,KWYS 201455Z AUTO 00000KT 10SM CLR 07/M02 A3025 RMK AO2,M
WYS,2024-06-20 15:55,51.80,28.40,40.25,0.00,0.00,0.00,30.24,M,10.00,M,CLR,M,M,M,M,M,M,M,M,M,M,M,M,M,M,51.80,KWYS 201555Z AUTO 00000KT 10SM CLR 11/M02 A3024 RMK AO2,M
WYS,2024-06-20 16:55,59.00,30.20,33.35,0.00,0.00,0.00,30.22,M,10.00,M,CLR,M,M,M,M,M,M,M,M,M,M,M,M,M,M,59.00,KWYS 201655Z AUTO 00000KT 10SM CLR 15/M01 A3022 RMK AO2,M
WYS,2024-06-20 17:55,62.60,23.00,21.79,M,4.00,0.00,30.20,M,10.00,M,CLR,M,M,M,M,M,M,M,M,M,M,M,M,M,M,62.60,KWYS 201755Z AUTO VRB04KT 10SM CLR 17/M05 A3020 RMK AO2,M
WYS,2024-06-20 18:55,68.00,24.80,19.47,0.00,0.00,0.00,30.19,M,10.00,M,CLR,M,M,M,M,M,M,M,M,M,M,M,M,M,M,68.00,KWYS 201855Z AUTO 00000KT 10SM CLR 20/M04 A3019 RMK AO2,M
WYS,2024-06-20 19:55,69.80,17.60,13.49,M,5.00,0.00,30.18,M,10.00,13.00,CLR,M,M,M,M,M,M,M,M,M,M,M,M,M,M,69.80,KWYS 201955Z AUTO VRB05G13KT 10SM CLR 21/M08 A3018 RMK AO2,M
WYS,2024-06-20 20:55,71.60,23.00,15.97,M,5.00,0.00,30.17,M,10.00,17.00,FEW,M,M,M,11000.00,M,M,M,M,M,M,M,M,M,M,71.60,KWYS 202055Z AUTO VRB05G17KT 10SM FEW110 22/M05 A3017 RMK AO2,M
WYS,2024-06-20 21:55,71.60,24.80,17.22,240.00,10.00,0.00,30.16,M,10.00,16.00,SCT,M,M,M,10000.00,M,M,M,M,M,M,M,M,M,M,71.60,KWYS 202155Z AUTO 24010G16KT 220V280 10SM SCT100 22/M04 A3016 RMK AO2,M
WYS,2024-06-20 22:55,71.60,23.00,15.97,230.00,10.00,0.00,30.15,M,10.00,15.00,CLR,M,M,M,M,M,M,M,M,M,M,M,M,M,M,71.60,KWYS 202255Z AUTO 23010G15KT 210V270 10SM CLR 22/M05 A3015 RMK AO2,M
WYS,2024-06-20 23:55,71.60,21.20,14.80,230.00,7.00,0.00,30.13,M,10.00,16.00,CLR,M,M,M,M,M,M,M,M,M,M,M,M,M,M,71.60,KWYS 202355Z AUTO 23007G16KT 10SM CLR 22/M06 A3013 RMK AO2,M
WYS,2024-06-21 00:55,71.60,24.80,17.22,0.00,0.00,0.00,30.13,M,10.00,M,CLR,M,M,M,M,M,M,M,M,M,M,M,M,M,M,71.60,KWYS 210055Z AUTO 00000KT 10SM CLR 22/M04 A3013 RMK AO2,M
WYS,2024-06-21 01:55,69.80,24.80,18.30,320.00,4.00,0.00,30.13,M,10.00,M,CLR,M,M,M,M,M,M,M,M,M,M,M,M,M,M,69.80,KWYS 210155Z AUTO 32004KT 10SM CLR 21/M04 A3013 RMK AO2,M
WYS,2024-06-21 02:55,64.40,33.80,31.85,20.00,9.00,0.00,30.14,M,10.00,15.00,CLR,M,M,M,M,M,M,M,M,M,M,M,M,M,M,64.40,KWYS 210255Z AUTO 02009G15KT 10SM CLR 18/01 A3014 RMK AO2,M
WYS,2024-06-21 03:55,59.00,35.60,41.42,M,4.00,0.00,30.16,M,10.00,M,CLR,M,M,M,M,M,M,M,M,M,M,M,M,M,M,59.00,KWYS 210355Z AUTO VRB04KT 10SM CLR 15/02 A3016 RMK AO2,M
WYS,2024-06-21 04:55,53.60,37.40,54.07,0.00,0.00,0.00,30.18,M,10.00,M,CLR,M,M,M,M,M,M,M,M,M,M,M,M,M,M,53.60,KWYS 210455Z AUTO 00000KT 10SM CLR 12/03 A3018 RMK AO2,M
WYS,2024-06-21 05:55,50.00,37.40,61.76,0.00,0.00,0.00,30.17,M,10.00,M,SCT,M,M,M,12000.00,M,M,M,M,M,M,M,M,M,M,50.00,KWYS 210555Z AUTO 00000KT 10SM SCT120 10/03 A3017 RMK AO2,M
WYS,2024-06-21 06:55,48.20,39.20,70.88,0.00,0.00,0.00,30.15,M,10.00,M,SCT,M,M,M,11000.00,M,M,M,M,M,M,M,M,M,M,48.20,KWYS 210655Z AUTO 00000KT 10SM SCT110 09/04 A3015 RMK AO2,M
WYS,2024-06-21 07:55,44.60,39.20,81.20,0.00,0.00,0.00,30.15,M,10.00,M,CLR,M,M,M,M,M,M,M,M,M,M,M,M,M,M,44.60,KWYS 210755Z AUTO 00000KT 10SM CLR 07/04 A3015 RMK AO2,M
WYS,2024-06-21 08:55,42.80,41.00,93.30,0.00,0.00,0.00,30.15,M,10.00,M,CLR,M,M,M,M,M,M,M,M,M,M,M,M,M,M,42.80,KWYS 210855Z AUTO 00000KT 10SM CLR 06/05 A3015 RMK AO2,M
WYS,2024-06-21 09:55,42.80,41.00,93.30,0.00,0.00,0.00,30.14,M,10.00,M,CLR,M,M,M,M,M,M,M,M,M,M,M,M,M,M,42.80,KWYS 210955Z AUTO 00000KT 10SM CLR 06/05 A3014 RMK AO2,M
WYS,2024-06-21 10:55,39.20,39.20,100.00,0.00,0.00,0.00,30.14,M,10.00,M,CLR,M,M,M,M,M,M,M,M,M,M,M,M,M,M,39.20,KWYS 211055Z AUTO 00000KT 10SM CLR 04/04 A3014 RMK AO2,M
WYS,2024-06-21 11:55,35.60,35.60,100.00,0.00,0.00,0.00,30.14,M,10.00,M,CLR,M,M,M,M,M,M,M,M,M,M,M,M,M,M,35.60,KWYS 211155Z AUTO 00000KT 10SM CLR 02/02 A3014 RMK AO2,M
WYS,2024-06-21 12:55,41.00,41.00,100.00,0.00,0.00,0.00,30.15,M,10.00,M,CLR,M,M,M,M,M,M,M,M,M,M,M,M,M,M,41.00,KWYS 211255Z AUTO 00000KT 10SM CLR 05/05 A3015 RMK AO2,M
WYS,2024-06-21 13:55,50.00,41.00,71.07,0.00,0.00,0.00,30.15,M,10.00,M,CLR,M,M,M,M,M,M,M,M,M,M,M,M,M,M,50.00,KWYS 211355Z AUTO 00000KT 10SM CLR 10/05 A3015 RMK AO2,M
WYS,2024-06-21 14:55,55.40,41.00,58.27,0.00,0.00,0.00,30.14,M,10.00,M,CLR,M,M,M,M,M,M,M,M,M,M,M,M,M,M,55.40,KWYS 211455Z AUTO 00000KT 10SM CLR 13/05 A3014 RMK AO2,M
WYS,2024-06-21 15:55,60.80,41.00,48.00,0.00,0.00,0.00,30.14,M,10.00,M,CLR,M,M,M,M,M,M,M,M,M,M,M,M,M,M,60.80,KWYS 211555Z AUTO 00000KT 10SM CLR 16/05 A3014 RMK AO2,M
WYS,2024-06-21 16:50,66.20,39.20,37.03,M,3.00,0.00,30.12,M,10.00,M,CLR,M,M,M,M,M,M,M,M,M,M,M,M,M,M,66.20,KWYS 211650Z AUTO VRB03KT 10SM CLR 19/04 A3012 RMK AO2,M
WYS,2024-06-21 17:55,71.60,35.60,26.71,M,6.00,0.00,30.10,M,10.00,12.00,CLR,M,M,M,M,M,M,M,M,M,M,M,M,M,M,71.60,KWYS 211755Z AUTO VRB06G12KT 10SM CLR 22/02 A3010 RMK AO2,M
WYS,2024-06-21 18:55,75.20,28.40,17.70,290.00,8.00,0.00,30.10,M,10.00,14.00,CLR,M,M,M,M,M,M,M,M,M,M,M,M,M,M,75.20,KWYS 211855Z AUTO 29008G14KT 250V320 10SM CLR 24/M02 A3010 RMK AO2,M
WYS,2024-06-21 19:55,75.20,28.40,17.70,280.00,9.00,0.00,30.09,M,10.00,17.00,FEW,M,M,M,11000.00,M,M,M,M,M,M,M,M,M,M,75.20,KWYS 211955Z AUTO 28009G17KT 240V310 10SM FEW110 24/M02 A3009 RMK AO2,M
WYS,2024-06-21 20:55,75.20,28.40,17.70,260.00,9.00,0.00,30.07,M,9.00,19.00,FEW,M,M,M,10000.00,M,M,M,M,M,M,M,M,M,M,75.20,KWYS 212055Z AUTO 26009G19KT 210V300 9SM FEW100 24/M02 A3007 RMK AO2,M
WYS,2024-06-21 21:55,77.00,26.60,15.48,220.00,14.00,0.00,30.06,M,10.00,20.00,SCT,M,M,M,11000.00,M,M,M,M,M,M,M,M,M,M,77.00,KWYS 212155Z AUTO 22014G20KT 10SM SCT110 25/M03 A3006 RMK AO2,M
WYS,2024-06-21 22:55,77.00,28.40,16.67,280.00,9.00,0.00,30.05,M,10.00,16.00,FEW,M,M,M,11000.00,M,M,M,M,M,M,M,M,M,M,77.00,KWYS 212255Z AUTO 28009G16KT 260V320 10SM FEW110 25/M02 A3005 RMK AO2,M
WYS,2024-06-21 23:55,75.20,28.40,17.70,250.00,8.00,0.00,30.04,M,10.00,13.00,FEW,M,M,M,11000.00,M,M,M,M,M,M,M,M,M,M,75.20,KWYS 212355Z AUTO 25008G13KT 220V280 10SM FEW110 24/M02 A3004 RMK AO2,M
WYS,2024-06-22 00:55,75.20,28.40,17.70,M,4.00,0.00,30.04,M,10.00,M,SCT,M,M,M,11000.00,M,M,M,M,M,M,M,M,M,M,75.20,KWYS 220055Z AUTO VRB04KT 10SM SCT110 24/M02 A3004 RMK AO2,M
WYS,2024-06-22 01:55,73.40,28.40,18.80,M,4.00,0.00,30.05,M,10.00,M,CLR,M,M,M,M,M,M,M,M,M,M,M,M,M,M,73.40,KWYS 220155Z AUTO VRB04KT 10SM CLR 23/M02 A3005 RMK AO2,M
WYS,2024-06-22 02:55,68.00,32.00,26.15,0.00,0.00,0.00,30.06,M,10.00,M,BKN,M,M,M,12000.00,M,M,M,M,M,M,M,M,M,M,68.00,KWYS 220255Z AUTO 00000KT 10SM BKN120 20/00 A3006 RMK AO2,M
WYS,2024-06-22 03:55,60.80,37.40,41.71,40.00,4.00,0.00,30.09,M,10.00,M,BKN,M,M,M,12000.00,M,M,M,M,M,M,M,M,M,M,60.80,KWYS 220355Z AUTO 04004KT 10SM BKN120 16/03 A3009 RMK AO2,M
WYS,2024-06-22 04:55,55.40,39.20,54.34,210.00,4.00,0.00,30.11,M,10.00,M,CLR,M,M,M,M,M,M,M,M,M,M,M,M,M,M,55.40,KWYS 220455Z AUTO 21004KT 10SM CLR 13/04 A3011 RMK AO2,M
WYS,2024-06-22 05:55,50.00,39.20,66.27,0.00,0.00,0.00,30.12,M,10.00,M,SCT,M,M,M,11000.00,M,M,M,M,M,M,M,M,M,M,50.00,KWYS 220555Z AUTO 00000KT 10SM SCT110 10/04 A3012 RMK AO2,M
WYS,2024-06-22 06:55,46.40,41.00,81.34,0.00,0.00,0.00,30.12,M,10.00,M,SCT,M,M,M,11000.00,M,M,M,M,M,M,M,M,M,M,46.40,KWYS 220655Z AUTO 00000KT 10SM SCT110 08/05 A3012 RMK AO2,M
WYS,2024-06-22 07:55,44.60,41.00,87.09,0.00,0.00,0.00,30.13,M,10.00,M,FEW,M,M,M,12000.00,M,M,M,M,M,M,M,M,M,M,44.60,KWYS 220755Z AUTO 00000KT 10SM FEW120 07/05 A3013 RMK AO2,M
WYS,2024-06-22 08:55,41.00,41.00,100.00,0.00,0.00,0.00,30.14,M,10.00,M,CLR,M,M,M,M,M,M,M,M,M,M,M,M,M,M,41.00,KWYS 220855Z AUTO 00000KT 10SM CLR 05/05 A3014 RMK AO2,M
WYS,2024-06-22 09:55,39.20,39.20,100.00,0.00,0.00,0.00,30.15,M,10.00,M,CLR,M,M,M,M,M,M,M,M,M,M,M,M,M,M,39.20,KWYS 220955Z AUTO 00000KT 10SM CLR 04/04 A3015 RMK AO2,M
WYS,2024-06-22 10:55,37.40,37.40,100.00,0.00,0.00,0.00,30.15,M,10.00,M,CLR,M,M,M,M,M,M,M,M,M,M,M,M,M,M,37.40,KWYS 221055Z AUTO 00000KT 10SM CLR 03/03 A3015 RMK AO2,M
WYS,2024-06-22 11:55,33.80,35.60,M,0.00,0.00,0.00,30.18,M,10.00,M,CLR,M,M,M,M,M,M,M,M,M,M,M,M,M,M,M,KWYS 221155Z AUTO 00000KT 10SM CLR 01/02 A3018 RMK AO2,M
WYS,2024-06-22 12:55,42.80,41.00,93.30,0.00,0.00,0.00,30.20,M,10.00,M,CLR,M,M,M,M,M,M,M,M,M,M,M,M,M,M,42.80,KWYS 221255Z AUTO 00000KT 10SM CLR 06/05 A3020 RMK AO2,M
WYS,2024-06-22 13:50,48.20,41.00,76.01,0.00,0.00,0.00,30.20,M,10.00,M,CLR,M,M,M,M,M,M,M,M,M,M,M,M,M,M,48.20,KWYS 221350Z AUTO 00000KT 10SM CLR 09/05 A3020 RMK AO2,M
WYS,2024-06-22 14:55,55.40,41.00,58.27,0.00,0.00,0.00,30.20,M,10.00,M,CLR,M,M,M,M,M,M,M,M,M,M,M,M,M,M,55.40,KWYS 221455Z AUTO 00000KT 10SM CLR 13/05 A3020 RMK AO2,M
WYS,2024-06-22 15:55,62.60,41.00,45.04,0.00,0.00,0.00,30.20,M,10.00,M,CLR,M,M,M,M,M,M,M,M,M,M,M,M,M,M,62.60,KWYS 221555Z AUTO 00000KT 10SM CLR 17/05 A3020 RMK AO2,M
WYS,2024-06-22 16:55,71.60,37.40,28.68,190.00,11.00,0.00,30.18,M,10.00,M,CLR,M,M,M,M,M,M,M,M,M,M,M,M,M,M,71.60,KWYS 221655Z AUTO 19011KT 10SM CLR 22/03 A3018 RMK AO2,M
WYS,2024-06-22 17:55,73.40,30.20,20.23,250.00,11.00,0.00,30.18,M,10.00,19.00,CLR,M,M,M,M,M,M,M,M,M,M,M,M,M,M,73.40,KWYS 221755Z AUTO 25011G19KT 10SM CLR 23/M01 A3018 RMK AO2,M
WYS,2024-06-22 18:55,75.20,32.00,20.49,220.00,12.00,0.00,30.17,M,10.00,20.00,CLR,M,M,M,M,M,M,M,M,M,M,M,M,M,M,75.20,KWYS 221855Z AUTO 22012G20KT 10SM CLR 24/M00 A3017 RMK AO2,M
WYS,2024-06-22 19:55,75.20,30.20,19.05,260.00,13.00,0.00,30.17,M,10.00,19.00,CLR,M,M,M,M,M,M,M,M,M,M,M,M,M,M,75.20,KWYS 221955Z AUTO 26013G19KT 220V290 10SM CLR 24/M01 A3017 RMK AO2,M
WYS,2024-06-22 20:55,78.80,33.80,19.55,240.00,14.00,0.00,30.16,M,10.00,25.00,FEW,M,M,M,9500.00,M,M,M,M,M,M,M,M,M,M,78.80,KWYS 222055Z AUTO 24014G25KT 10SM FEW095 26/01 A3016 RMK AO2,M
WYS,2024-06-22 21:55,77.00,30.20,17.94,220.00,14.00,0.00,30.15,M,10.00,21.00,SCT,M,M,M,10000.00,M,M,M,M,M,M,M,M,M,M,77.00,KWYS 222155Z AUTO 22014G21KT 10SM SCT100 25/M01 A3015 RMK AO2,M
WYS,2024-06-22 22:55,78.80,32.00,18.18,220.00,18.00,0.00,30.13,M,10.00,23.00,FEW,M,M,M,11000.00,M,M,M,M,M,M,M,M,M,M,78.80,KWYS 222255Z AUTO 22018G23KT 10SM FEW110 26/M00 A3013 RMK AO2,M
WYS,2024-06-22 23:55,78.80,32.00,18.18,240.00,7.00,0.00,30.12,M,10.00,14.00,CLR,M,M,M,M,M,M,M,M,M,M,M,M,M,M,78.80,KWYS 222355Z AUTO 24007G14KT 210V290 10SM CLR 26/M00 A3012 RMK AO2,M
WYS,2024-06-23 00:55,78.80,32.00,18.18,220.00,8.00,0.00,30.11,M,10.00,17.00,CLR,M,M,M,M,M,M,M,M,M,M,M,M,M,M,78.80,KWYS 230055Z AUTO 22008G17KT 10SM CLR 26/M00 A3011 RMK AO2,M
WYS,2024-06-23 01:55,75.20,32.00,20.49,220.00,11.00,0.00,30.12,M,10.00,M,CLR,M,M,M,M,M,M,M,M,M,M,M,M,M,M,75.20,KWYS 230155Z AUTO 22011KT 10SM CLR 24/M00 A3012 RMK AO2,M
WYS,2024-06-23 02:55,68.00,37.40,32.43,0.00,0.00,0.00,30.11,M,10.00,M,CLR,M,M,M,M,M,M,M,M,M,M,M,M,M,M,68.00,KWYS 230255Z AUTO 00000KT 10SM CLR 20/03 A3011 RMK AO2,M
WYS,2024-06-23 03:55,57.20,39.20,50.91,0.00,0.00,0.00,30.12,M,10.00,M,CLR,M,M,M,M,M,M,M,M,M,M,M,M,M,M,57.20,KWYS 230355Z AUTO 00000KT 10SM CLR 14/04 A3012 RMK AO2,M
WYS,2024-06-23 04:55,51.80,39.20,61.99,0.00,0.00,0.00,30.12,M,10.00,M,CLR,M,M,M,M,M,M,M,M,M,M,M,M,M,M,51.80,KWYS 230455Z AUTO 00000KT 10SM CLR 11/04 A3012 RMK AO2,M
WYS,2024-06-23 05:55,53.60,37.40,54.07,0.00,0.00,0.00,30.12,M,10.00,M,CLR,M,M,M,M,M,M,M,M,M,M,M,M,M,M,53.60,KWYS 230555Z AUTO 00000KT 10SM CLR 12/03 A3012 RMK AO2,M
WYS,2024-06-23 06:55,51.80,37.40,57.77,0.00,0.00,0.00,30.13,M,10.00,M,CLR,M,M,M,M,M,M,M,M,M,M,M,M,M,M,51.80,KWYS 230655Z AUTO 00000KT 10SM CLR 11/03 A3013 RMK AO2,M
WYS,2024-06-23 07:55,46.40,37.40,70.68,0.00,0.00,0.00,30.13,M,10.00,M,CLR,M,M,M,M,M,M,M,M,M,M,M,M,M,M,46.40,KWYS 230755Z AUTO 00000KT 10SM CLR 08/03 A3013 RMK AO2,M
WYS,2024-06-23 08:55,42.80,37.40,81.07,0.00,0.00,0.00,30.13,M,10.00,M,CLR,M,M,M,M,M,M,M,M,M,M,M,M,M,M,42.80,KWYS 230855Z AUTO 00000KT 10SM CLR 06/03 A3013 RMK AO2,M
WYS,2024-06-23 09:55,41.00,39.20,93.24,0.00,0.00,0.00,30.13,M,10.00,M,CLR,M,M,M,M,M,M,M,M,M,M,M,M,M,M,41.00,KWYS 230955Z AUTO 00000KT 10SM CLR 05/04 A3013 RMK AO2,M
WYS,2024-06-23 10:55,39.20,39.20,100.00,0.00,0.00,0.00,30.13,M,10.00,M,CLR,M,M,M,M,M,M,M,M,M,M,M,M,M,M,39.20,KWYS 231055Z AUTO 00000KT 10SM CLR 04/04 A3013 RMK AO2,M
WYS,2024-06-23 11:55,37.40,37.40,100.00,0.00,0.00,0.00,30.14,M,10.00,M,CLR,M,M,M,M,M,M,M,M,M,M,M,M,M,M,37.40,KWYS 231155Z AUTO 00000KT 10SM CLR 03/03 A3014 RMK AO2,M
WYS,2024-06-23 12:55,42.80,41.00,93.30,0.00,0.00,0.00,30.14,M,10.00,M,CLR,M,M,M,M,M,M,M,M,M,M,M,M,M,M,42.80,KWYS 231255Z AUTO 00000KT 10SM CLR 06/05 A3014 RMK AO2,M
WYS,2024-06-23 13:55,51.80,39.20,61.99,0.00,0.00,0.00,30.14,M,10.00,M,CLR,M,M,M,M,M,M,M,M,M,M,M,M,M,M,51.80,KWYS 231355Z AUTO 00000KT 10SM CLR 11/04 A3014 RMK AO2,M
WYS,2024-06-23 14:55,59.00,41.00,51.18,0.00,0.00,0.00,30.13,M,10.00,M,CLR,M,M,M,M,M,M,M,M,M,M,M,M,M,M,59.00,KWYS 231455Z AUTO 00000KT 10SM CLR 15/05 A3013 RMK AO2,M
WYS,2024-06-23 15:55,69.80,42.80,37.61,0.00,0.00,0.00,30.11,M,9.00,M,CLR,M,M,M,M,M,M,M,M,M,M,M,M,M,M,69.80,KWYS 231555Z AUTO 00000KT 9SM CLR 21/06 A3011 RMK AO2,M
WYS,2024-06-23 16:55,77.00,39.20,25.67,220.00,16.00,0.00,30.09,M,10.00,25.00,CLR,M,M,M,M,M,M,M,M,M,M,M,M,M,M,77.00,KWYS 231655Z AUTO 22016G25KT 10SM CLR 25/04 A3009 RMK AO2,M
WYS,2024-06-23 17:55,78.80,37.40,22.54,210.00,23.00,0.00,30.10,M,10.00,28.00,CLR,M,M,M,M,M,M,M,M,M,M,M,M,M,M,78.80,KWYS 231755Z AUTO 21023G28KT 10SM CLR 26/03 A3010 RMK AO2,M
WYS,2024-06-23 18:55,80.60,39.20,22.81,210.00,21.00,0.00,30.09,M,10.00,27.00,CLR,M,M,M,M,M,M,M,M,M,M,M,M,M,M,79.10,KWYS 231855Z AUTO 21021G27KT 10SM CLR 27/04 A3009 RMK AO2,M
WYS,2024-06-23 19:55,82.40,39.20,21.51,210.00,16.00,0.00,30.08,M,10.00,31.00,CLR,M,M,M,M,M,M,M,M,M,M,M,M,M,M,80.21,KWYS 231955Z AUTO 21016G31KT 10SM CLR 28/04 A3008 RMK AO2,M
WYS,2024-06-23 20:55,84.20,37.40,18.91,190.00,17.00,0.00,30.07,M,10.00,32.00,CLR,M,M,M,M,M,M,M,M,M,M,M,M,M,M,81.38,KWYS 232055Z AUTO 19017G32KT 10SM CLR 29/03 A3007 RMK AO2,M
WYS,2024-06-23 21:55,84.20,37.40,18.91,210.00,20.00,0.00,30.05,M,10.00,33.00,CLR,M,M,M,M,M,M,M,M,M,M,M,M,M,M,81.38,KWYS 232155Z AUTO 21020G33KT 10SM CLR 29/03 A3005 RMK AO2,M
WYS,2024-06-23 22:55,84.20,39.20,20.29,220.00,20.00,0.00,30.04,M,10.00,36.00,CLR,M,M,M,M,M,M,M,M,M,M,M,M,M,M,81.44,KWYS 232255Z AUTO 22020G36KT 10SM CLR 29/04 A3004 RMK AO2,M
WYS,2024-06-23 23:55,82.40,39.20,21.51,210.00,17.00,0.00,30.02,M,10.00,28.00,CLR,M,M,M,M,M,M,M,M,M,M,M,M,M,M,80.21,KWYS 232355Z AUTO 21017G28KT 10SM CLR 28/04 A3002 RMK AO2,M
WYS,2024-06-24 00:55,80.60,37.40,21.25,210.00,24.00,0.00,30.01,M,10.00,34.00,CLR,M,M,M,M,M,M,M,M,M,M,M,M,M,M,79.02,KWYS 240055Z AUTO 21024G34KT 10SM CLR 27/03 A3001 RMK AO2,M
WYS,2024-06-24 01:55,78.80,35.60,21.00,210.00,18.00,0.00,30.01,M,10.00,29.00,CLR,M,M,M,M,M,M,M,M,M,M,M,M,M,M,78.80,KWYS 240155Z AUTO 21018G29KT 10SM CLR 26/02 A3001 RMK AO2,M
WYS,2024-06-24 02:55,73.40,35.60,25.13,210.00,13.00,0.00,30.02,M,10.00,18.00,CLR,M,M,M,M,M,M,M,M,M,M,M,M,M,M,73.40,KWYS 240255Z AUTO 21013G18KT 10SM CLR 23/02 A3002 RMK AO2,M
WYS,2024-06-24 03:55,68.00,37.40,32.43,0.00,0.00,0.00,30.03,M,10.00,M,CLR,M,M,M,M,M,M,M,M,M,M,M,M,M,M,68.00,KWYS 240355Z AUTO 00000KT 10SM CLR 20/03 A3003 RMK AO2,M
WYS,2024-06-24 04:55,66.20,37.40,34.51,0.00,0.00,0.00,30.06,M,10.00,M,CLR,M,M,M,M,M,M,M,M,M,M,M,M,M,M,66.20,KWYS 240455Z AUTO 00000KT 10SM CLR 19/03 A3006 RMK AO2,M
WYS,2024-06-24 05:55,64.40,39.20,39.43,180.00,9.00,0.00,30.06,M,10.00,M,CLR,M,M,M,M,M,M,M,M,M,M,M,M,M,M,64.40,KWYS 240555Z AUTO 18009KT 10SM CLR 18/04 A3006 RMK AO2,M
WYS,2024-06-24 06:55,60.80,37.40,41.71,220.00,7.00,0.00,30.06,M,10.00,M,CLR,M,M,M,M,M,M,M,M,M,M,M,M,M,M,60.80,KWYS 240655Z AUTO 22007KT 10SM CLR 16/03 A3006 RMK AO2,M
WYS,2024-06-24 07:55,60.80,35.60,38.85,290.00,4.00,0.00,30.06,M,10.00,10.00,CLR,M,M,M,M,M,M,M,M,M,M,M,M,M,M,60.80,KWYS 240755Z AUTO 29004G10KT 10SM CLR 16/02 A3006 RMK AO2,M
WYS,2024-06-24 08:55,51.80,37.40,57.77,0.00,0.00,0.00,30.06,M,10.00,M,CLR,M,M,M,M,M,M,M,M,M,M,M,M,M,M,51.80,KWYS 240855Z AUTO 00000KT 10SM CLR 11/03 A3006 RMK AO2,M
WYS,2024-06-24 09:55,48.20,37.40,66.05,0.00,0.00,0.00,30.07,M,10.00,M,CLR,M,M,M,M,M,M,M,M,M,M,M,M,M,M,48.20,KWYS 240955Z AUTO 00000KT 10SM CLR 09/03 A3007 RMK AO2,M
WYS,2024-06-24 10:55,42.80,39.20,86.99,0.00,0.00,0.00,30.08,M,10.00,M,CLR,M,M,M,M,M,M,M,M,M,M,M,M,M,M,42.80,KWYS 241055Z AUTO 00000KT 10SM CLR 06/04 A3008 RMK AO2,M
WYS,2024-06-24 11:55,41.00,39.20,93.24,0.00,0.00,0.00,30.09,M,10.00,M,CLR,M,M,M,M,M,M,M,M,M,M,M,M,M,M,41.00,KWYS 241155Z AUTO 00000KT 10SM CLR 05/04 A3009 RMK AO2,M
WYS,2024-06-24 12:55,46.40,41.00,81.34,0.00,0.00,0.00,30.10,M,10.00,M,CLR,M,M,M,M,M,M,M,M,M,M,M,M,M,M,46.40,KWYS 241255Z AUTO 00000KT 10SM CLR 08/05 A3010 RMK AO2,M
WYS,2024-06-24 13:55,53.60,39.20,58.02,0.00,0.00,0.00,30.11,M,10.00,M,CLR,M,M,M,M,M,M,M,M,M,M,M,M,M,M,53.60,KWYS 241355Z AUTO 00000KT 10SM CLR 12/04 A3011 RMK AO2,M
WYS,2024-06-24 14:55,62.60,41.00,45.04,0.00,0.00,0.00,30.11,M,10.00,M,CLR,M,M,M,M,M,M,M,M,M,M,M,M,M,M,62.60,KWYS 241455Z AUTO 00000KT 10SM CLR 17/05 A3011 RMK AO2,M
WYS,2024-06-24 15:55,73.40,41.00,31.05,210.00,16.00,0.00,30.10,M,10.00,M,CLR,M,M,M,M,M,M,M,M,M,M,M,M,M,M,73.40,KWYS 241555Z AUTO 21016KT 10SM CLR 23/05 A3010 RMK AO2,M
WYS,2024-06-24 16:55,75.20,41.00,29.23,210.00,12.00,0.00,30.10,M,10.00,20.00,CLR,M,M,M,M,M,M,M,M,M,M,M,M,M,M,75.20,KWYS 241655Z AUTO 21012G20KT 10SM CLR 24/05 A3010 RMK AO2,M
WYS,2024-06-24 17:55,77.00,39.20,25.67,210.00,13.00,0.00,30.09,M,10.00,24.00,CLR,M,M,M,M,M,M,M,M,M,M,M,M,M,M,77.00,KWYS 241755Z AUTO 21013G24KT 10SM CLR 25/04 A3009 RMK AO2,M
WYS,2024-06-24 18:55,78.80,41.00,25.95,230.00,19.00,0.00,30.09,M,10.00,25.00,CLR,M,M,M,M,M,M,M,M,M,M,M,M,M,M,78.80,KWYS 241855Z AUTO 23019G25KT 10SM CLR 26/05 A3009 RMK AO2,M
WYS,2024-06-24 19:55,78.80,41.00,25.95,210.00,21.00,0.00,30.09,M,10.00,29.00,CLR,M,M,M,M,M,M,M,M,M,M,M,M,M,M,78.80,KWYS 241955Z AUTO 21021G29KT 10SM CLR 26/05 A3009 RMK AO2,M
WYS,2024-06-24 20:55,80.60,41.00,24.46,220.00,16.00,0.00,30.07,M,10.00,27.00,CLR,M,M,M,M,M,M,M,M,M,M,M,M,M,M,79.20,KWYS 242055Z AUTO 22016G27KT 10SM CLR 27/05 A3007 RMK AO2,M
WYS,2024-06-24 21:55,80.60,39.20,22.81,220.00,18.00,0.00,30.06,M,10.00,28.00,CLR,M,M,M,M,M,M,M,M,M,M,M,M,M,M,79.10,KWYS 242155Z AUTO 22018G28KT 190V250 10SM CLR 27/04 A3006 RMK AO2,M
WYS,2024-06-24 22:50,80.60,37.40,21.25,210.00,26.00,0.00,30.05,M,10.00,35.00,CLR,M,M,M,M,M,M,M,M,M,M,M,M,M,M,79.02,KWYS 242250Z AUTO 21026G35KT 10SM CLR 27/03 A3005 RMK AO2,M
WYS,2024-06-24 23:55,78.80,35.60,21.00,210.00,20.00,0.00,30.04,M,10.00,29.00,FEW,M,M,M,11000.00,M,M,M,M,M,M,M,M,M,M,78.80,KWYS 242355Z AUTO 21020G29KT 10SM FEW110 26/02 A3004 RMK AO2,M
WYS,2024-06-25 00:55,77.00,33.80,20.74,210.00,22.00,0.00,30.03,M,10.00,30.00,CLR,M,M,M,M,M,M,M,M,M,M,M,M,M,M,77.00,KWYS 250055Z AUTO 21022G30KT 10SM CLR 25/01 A3003 RMK AO2,M
WYS,2024-06-25 01:55,75.20,32.00,20.49,220.00,20.00,0.00,30.04,M,10.00,26.00,FEW,M,M,M,11000.00,M,M,M,M,M,M,M,M,M,M,75.20,KWYS 250155Z AUTO 22020G26KT 10SM FEW110 24/M00 A3004 RMK AO2,M
WYS,2024-06-25 02:55,71.60,32.00,23.13,210.00,14.00,0.00,30.05,M,10.00,M,BKN,M,M,M,12000.00,M,M,M,M,M,M,M,M,M,M,71.60,KWYS 250255Z AUTO 21014KT 10SM BKN120 22/00 A3005 RMK AO2,M
WYS,2024-06-25 03:55,66.20,33.80,29.92,260.00,4.00,0.00,30.07,M,10.00,M,CLR,M,M,M,M,M,M,M,M,M,M,M,M,M,M,66.20,KWYS 250355Z AUTO 26004KT 10SM CLR 19/01 A3007 RMK AO2,M
WYS,2024-06-25 04:55,64.40,33.80,31.85,210.00,12.00,0.00,30.08,M,10.00,17.00,CLR,M,M,M,M,M,M,M,M,M,M,M,M,M,M,64.40,KWYS 250455Z AUTO 21012G17KT 10SM CLR 18/01 A3008 RMK AO2,M
WYS,2024-06-25 05:55,60.80,33.80,36.16,240.00,4.00,0.00,30.10,M,10.00,M,CLR,M,M,M,M,M,M,M,M,M,M,M,M,M,M,60.80,KWYS 250555Z AUTO 24004KT 10SM CLR 16/01 A3010 RMK AO2,M
WYS,2024-06-25 06:55,51.80,35.60,53.81,0.00,0.00,0.00,30.12,M,10.00,M,CLR,M,M,M,M,M,M,M,M,M,M,M,M,M,M,51.80,KWYS 250655Z AUTO 00000KT 10SM CLR 11/02 A3012 RMK AO2,M
WYS,2024-06-25 07:55,46.40,35.60,65.83,0.00,0.00,0.00,30.13,M,10.00,M,CLR,M,M,M,M,M,M,M,M,M,M,M,M,M,M,46.40,KWYS 250755Z AUTO 00000KT 10SM CLR 08/02 A3013 RMK AO2,M
WYS,2024-06-25 08:55,42.80,35.60,75.50,0.00,0.00,0.00,30.14,M,10.00,M,CLR,M,M,M,M,M,M,M,M,M,M,M,M,M,M,42.80,KWYS 250855Z AUTO 00000KT 10SM CLR 06/02 A3014 RMK AO2,M
WYS,2024-06-25 09:55,39.20,35.60,86.79,0.00,0.00,0.00,30.16,M,10.00,M,CLR,M,M,M,M,M,M,M,M,M,M,M,M,M,M,39.20,KWYS 250955Z AUTO 00000KT 10SM CLR 04/02 A3016 RMK AO2,M
WYS,2024-06-25 10:55,37.40,37.40,100.00,0.00,0.00,0.00,30.17,M,10.00,M,CLR,M,M,M,M,M,M,M,M,M,M,M,M,M,M,37.40,KWYS 251055Z AUTO 00000KT 10SM CLR 03/03 A3017 RMK AO2,M
WYS,2024-06-25 11:55,35.60,35.60,100.00,210.00,3.00,0.00,30.18,M,10.00,M,CLR,M,M,M,M,M,M,M,M,M,M,M,M,M,M,32.80,KWYS 251155Z AUTO 21003KT 10SM CLR 02/02 A3018 RMK AO2,M
WYS,2024-06-25 12:55,42.80,37.40,81.07,0.00,0.00,0.00,30.20,M,10.00,M,CLR,M,M,M,M,M,M,M,M,M,M,M,M,M,M,42.80,KWYS 251255Z AUTO 00000KT 10SM CLR 06/03 A3020 RMK AO2,M
WYS,2024-06-25 13:55,51.80,37.40,57.77,0.00,0.00,0.00,30.20,M,10.00,M,CLR,M,M,M,M,M,M,M,M,M,M,M,M,M,M,51.80,KWYS 251355Z AUTO 00000KT 10SM CLR 11/03 A3020 RMK AO2,M
WYS,2024-06-25 14:55,57.20,37.40,47.44,0.00,0.00,0.00,30.20,M,10.00,M,CLR,M,M,M,M,M,M,M,M,M,M,M,M,M,M,57.20,KWYS 251455Z AUTO 00000KT 10SM CLR 14/03 A3020 RMK AO2,M
WYS,2024-06-25 15:55,64.40,37.40,36.74,0.00,0.00,0.00,30.20,M,10.00,M,CLR,M,M,M,M,M,M,M,M,M,M,M,M,M,M,64.40,KWYS 251555Z AUTO 00000KT 10SM CLR 18/03 A3020 RMK AO2,M
WYS,2024-06-25 16:55,73.40,33.80,23.39,200.00,13.00,0.00,30.19,M,10.00,M,CLR,M,M,M,M,M,M,M,M,M,M,M,M,M,M,73.40,KWYS 251655Z AUTO 20013KT 10SM CLR 23/01 A3019 RMK AO2,M
WYS,2024-06-25 17:55,77.00,35.60,22.28,220.00,10.00,0.00,30.19,M,10.00,18.00,CLR,M,M,M,M,M,M,M,M,M,M,M,M,M,M,77.00,KWYS 251755Z AUTO 22010G18KT 180V250 10SM CLR 25/02 A3019 RMK AO2,M
WYS,2024-06-25 18:55,78.80,33.80,19.55,230.00,10.00,0.00,30.19,M,10.00,20.00,FEW,M,M,M,10000.00,M,M,M,M,M,M,M,M,M,M,78.80,KWYS 251855Z AUTO 23010G20KT 10SM FEW100 26/01 A3019 RMK AO2,M
WYS,2024-06-25 19:55,78.80,33.80,19.55,220.00,9.00,0.00,30.18,M,10.00,24.00,FEW,M,M,M,9500.00,M,M,M,M,M,M,M,M,M,M,78.80,KWYS 251955Z AUTO 22009G24KT 10SM FEW095 26/01 A3018 RMK AO2,M
WYS,2024-06-25 20:55,78.80,33.80,19.55,210.00,15.00,0.00,30.17,M,10.00,27.00,SCT,M,M,M,10000.00,M,M,M,M,M,M,M,M,M,M,78.80,KWYS 252055Z AUTO 21015G27KT 10SM SCT100 26/01 A3017 RMK AO2,M
WYS,2024-06-25 21:55,80.60,33.80,18.42,220.00,9.00,0.00,30.17,M,10.00,20.00,CLR,M,M,M,M,M,M,M,M,M,M,M,M,M,M,78.88,KWYS 252155Z AUTO 22009G20KT 10SM CLR 27/01 A3017 RMK AO2,M
WYS,2024-06-25 22:55,82.40,33.80,17.38,220.00,15.00,0.00,30.16,M,10.00,M,FEW,M,M,M,11000.00,M,M,M,M,M,M,M,M,M,M,80.03,KWYS 252255Z AUTO 22015KT 10SM FEW110 28/01 A3016 RMK AO2,M
WYS,2024-06-25 23:55,82.40,32.00,16.17,220.00,12.00,0.00,30.16,M,10.00,18.00,BKN,M,M,M,11000.00,M,M,M,M,M,M,M,M,M,M,80.00,KWYS 252355Z AUTO 22012G18KT 10SM BKN110 28/00 A3016 RMK AO2,M
WYS,2024-06-26 00:55,78.80,37.40,22.54,220.00,12.00,0.00,30.16,M,10.00,M,FEW,M,M,M,11000.00,M,M,M,M,M,M,M,M,M,M,78.80,KWYS 260055Z AUTO 22012KT 10SM FEW110 26/03 A3016 RMK AO2,M
WYS,2024-06-26 01:55,73.40,35.60,25.13,230.00,7.00,0.00,30.17,M,10.00,M,CLR,M,M,M,M,M,M,M,M,M,M,M,M,M,M,73.40,KWYS 260155Z AUTO 23007KT 10SM CLR 23/02 A3017 RMK AO2,M
WYS,2024-06-26 02:55,71.60,35.60,26.71,0.00,0.00,0.00,30.18,M,10.00,M,CLR,M,M,M,M,M,M,M,M,M,M,M,M,M,M,71.60,KWYS 260255Z AUTO 00000KT 10SM CLR 22/02 A3018 RMK AO2,M
WYS,2024-06-26 03:55,60.80,39.20,44.76,0.00,0.00,0.00,30.20,M,10.00,M,CLR,M,M,M,M,M,M,M,M,M,M,M,M,M,M,60.80,KWYS 260355Z AUTO 00000KT 10SM CLR 16/04 A3020 RMK AO2,M
WYS,2024-06-26 04:55,55.40,41.00,58.27,0.00,0.00,0.00,30.21,M,10.00,M,CLR,M,M,M,M,M,M,M,M,M,M,M,M,M,M,55.40,KWYS 260455Z AUTO 00000KT 10SM CLR 13/05 A3021 RMK AO2,M
WYS,2024-06-26 05:55,50.00,41.00,71.07,0.00,0.00,0.00,30.22,M,10.00,M,CLR,M,M,M,M,M,M,M,M,M,M,M,M,M,M,50.00,KWYS 260555Z AUTO 00000KT 10SM CLR 10/05 A3022 RMK AO2,M
WYS,2024-06-26 06:55,46.40,42.80,87.19,0.00,0.00,0.00,30.23,M,10.00,M,CLR,M,M,M,M,M,M,M,M,M,M,M,M,M,M,46.40,KWYS 260655Z AUTO 00000KT 10SM CLR 08/06 A3023 RMK AO2,M
WYS,2024-06-26 07:55,44.60,42.80,93.35,0.00,0.00,0.00,30.22,M,10.00,M,CLR,M,M,M,M,M,M,M,M,M,M,M,M,M,M,44.60,KWYS 260755Z AUTO 00000KT 10SM CLR 07/06 A3022 RMK AO2,M
WYS,2024-06-26 08:55,42.80,42.80,100.00,0.00,0.00,0.00,30.22,M,10.00,M,CLR,M,M,M,M,M,M,M,M,M,M,M,M,M,M,42.80,KWYS 260855Z AUTO 00000KT 10SM CLR 06/06 A3022 RMK AO2,M
WYS,2024-06-26 09:55,42.80,42.80,100.00,0.00,0.00,0.00,30.21,M,10.00,M,CLR,M,M,M,M,M,M,M,M,M,M,M,M,M,M,42.80,KWYS 260955Z AUTO 00000KT 10SM CLR 06/06 A3021 RMK AO2,M
WYS,2024-06-26 10:55,41.00,41.00,100.00,0.00,0.00,0.00,30.21,M,10.00,M,CLR,M,M,M,M,M,M,M,M,M,M,M,M,M,M,41.00,KWYS 261055Z AUTO 00000KT 10SM CLR 05/05 A3021 RMK AO2,M
WYS,2024-06-26 11:55,41.00,41.00,100.00,0.00,0.00,0.00,30.22,M,10.00,M,CLR,M,M,M,M,M,M,M,M,M,M,M,M,M,M,41.00,KWYS 261155Z AUTO 00000KT 10SM CLR 05/05 A3022 RMK AO2,M
WYS,2024-06-26 12:55,44.60,44.60,100.00,0.00,0.00,0.00,30.23,M,10.00,M,CLR,M,M,M,M,M,M,M,M,M,M,M,M,M,M,44.60,KWYS 261255Z AUTO 00000KT 10SM CLR 07/07 A3023 RMK AO2,M
WYS,2024-06-26 13:55,51.80,44.60,76.34,0.00,0.00,0.00,30.23,M,10.00,M,CLR,M,M,M,M,M,M,M,M,M,M,M,M,M,M,51.80,KWYS 261355Z AUTO 00000KT 10SM CLR 11/07 A3023 RMK AO2,M
WYS,2024-06-26 14:55,55.40,44.60,66.91,0.00,0.00,0.00,30.23,M,10.00,M,FEW,M,M,M,12000.00,M,M,M,M,M,M,M,M,M,M,55.40,KWYS 261455Z AUTO 00000KT 10SM FEW120 13/07 A3023 RMK AO2,M
WYS,2024-06-26 15:55,62.60,42.80,48.28,0.00,0.00,0.00,30.22,M,10.00,M,CLR,M,M,M,M,M,M,M,M,M,M,M,M,M,M,62.60,KWYS 261555Z AUTO 00000KT 10SM CLR 17/06 A3022 RMK AO2,M
WYS,2024-06-26 16:55,69.80,37.40,30.49,220.00,12.00,0.00,30.21,M,10.00,21.00,SCT,M,M,M,11000.00,M,M,M,M,M,M,M,M,M,M,69.80,KWYS 261655Z AUTO 22012G21KT 10SM SCT110 21/03 A3021 RMK AO2,M
WYS,2024-06-26 17:55,68.00,39.20,34.80,220.00,12.00,0.00,30.21,M,10.00,M,OVC,M,M,M,9500.00,M,M,M,M,M,M,M,M,M,M,68.00,KWYS 261755Z AUTO 22012KT 10SM OVC095 20/04 A3021 RMK AO2,M
WYS,2024-06-26 18:55,68.00,42.80,40.00,210.00,11.00,0.00,30.20,M,10.00,M,BKN,M,M,M,10000.00,M,M,M,M,M,M,M,M,M,M,68.00,KWYS 261855Z AUTO 21011KT 10SM BKN100 20/06 A3020 RMK AO2,M
WYS,2024-06-26 19:55,68.00,44.60,42.85,230.00,11.00,0.00,30.21,M,10.00,M,FEW,OVC,M,M,5500.00,7500.00,M,M,M,M,M,M,M,M,M,68.00,KWYS 261955Z AUTO 23011KT 10SM FEW055 OVC075 20/07 A3021 RMK AO2,M
WYS,2024-06-26 20:55,68.00,46.40,45.88,M,4.00,0.00,30.18,M,10.00,M,BKN,BKN,M,M,7500.00,9500.00,M,M,M,M,M,M,M,M,M,68.00,KWYS 262055Z AUTO VRB04KT 10SM BKN075 BKN095 20/08 A3018 RMK AO2,M
WYS,2024-06-26 21:55,55.40,55.40,100.00,230.00,7.00,0.09,30.23,M,2.00,M,FEW,OVC,M,M,300.00,3300.00,M,M,-RA,M,M,M,M,M,M,55.40,KWYS 262155Z AUTO 23007KT 2SM -RA FEW003 OVC033 13/13 A3023 RMK AO2 P0009,M
WYS,2024-06-26 22:55,57.20,57.20,100.00,150.00,7.00,0.07,30.18,M,10.00,M,FEW,M,M,M,12000.00,M,M,M,M,M,M,M,M,M,M,57.20,KWYS 262255Z AUTO 15007KT 10SM FEW120 14/14 A3018 RMK AO2 P0007,M
WYS,2024-06-26 23:55,60.80,59.00,93.79,0.00,0.00,0.00,30.15,M,10.00,M,FEW,FEW,M,M,1300.00,12000.00,M,M,M,M,M,M,M,M,M,60.80,KWYS 262355Z AUTO 00000KT 10SM FEW013 FEW120 16/15 A3015 RMK AO2,M
WYS,2024-06-27 00:55,62.60,55.40,77.29,0.00,0.00,0.00,30.13,M,10.00,M,CLR,M,M,M,M,M,M,M,M,M,M,M,M,M,M,62.60,KWYS 270055Z AUTO 00000KT 10SM CLR 17/13 A3013 RMK AO2,M
WYS,2024-06-27 01:55,62.60,59.00,88.00,0.00,0.00,0.00,30.11,M,10.00,M,CLR,M,M,M,M,M,M,M,M,M,M,M,M,M,M,62.60,KWYS 270155Z AUTO 00000KT 10SM CLR 17/15 A3011 RMK AO2,M
WYS,2024-06-27 02:55,57.20,57.20,100.00,0.00,0.00,0.00,30.09,M,10.00,M,CLR,M,M,M,M,M,M,M,M,M,M,M,M,M,M,57.20,KWYS 270255Z AUTO 00000KT 10SM CLR 14/14 A3009 RMK AO2,M
WYS,2024-06-27 03:55,53.60,53.60,100.00,0.00,0.00,0.00,30.09,M,10.00,M,CLR,M,M,M,M,M,M,M,M,M,M,M,M,M,M,53.60,KWYS 270355Z AUTO 00000KT 10SM CLR 12/12 A3009 RMK AO2,M
WYS,2024-06-27 04:55,53.60,53.60,100.00,0.00,0.00,0.00,30.11,M,10.00,M,FEW,SCT,SCT,M,7500.00,9500.00,12000.00,M,M,M,M,M,M,M,M,53.60,KWYS 270455Z AUTO 00000KT 10SM FEW075 SCT095 SCT120 12/12 A3011 RMK AO2,M
WYS,2024-06-27 05:55,53.60,53.60,100.00,150.00,8.00,0.06,30.07,M,10.00,14.00,FEW,SCT,BKN,M,3400.00,4600.00,10000.00,M,M,M,M,M,M,M,M,53.60,KWYS 270555Z AUTO 15008G14KT 10SM FEW034 SCT046 BKN100 12/12 A3007 RMK AO2 P0006,M
WYS,2024-06-27 06:55,53.60,53.60,100.00,0.00,0.00,0.00,30.07,M,10.00,M,BKN,BKN,OVC,M,6500.00,8000.00,12000.00,M,M,M,M,M,M,M,M,53.60,KWYS 270655Z AUTO 00000KT 10SM BKN065 BKN080 OVC120 12/12 A3007 RMK AO2,M
WYS,2024-06-27 07:55,53.60,53.60,100.00,0.00,0.00,0.00,30.10,M,5.00,M,FEW,BKN,OVC,M,2300.00,3500.00,6500.00,M,-RA,M,M,M,M,M,M,53.60,KWYS 270755Z AUTO 00000KT 5SM -RA FEW023 BKN035 OVC065 12/12 A3010 RMK AO2,M
WYS,2024-06-27 08:55,51.80,51.80,100.00,0.00,0.00,0.02,30.06,M,10.00,M,FEW,BKN,M,M,6500.00,8500.00,M,M,M,M,M,M,M,M,M,51.80,KWYS 270855Z AUTO 00000KT 10SM FEW065 BKN085 11/11 A3006 RMK AO2 P0002,M
WYS,2024-06-27 09:55,50.00,50.00,100.00,0.00,0.00,0.00,30.04,M,10.00,M,CLR,M,M,M,M,M,M,M,M,M,M,M,M,M,M,50.00,KWYS 270955Z AUTO 00000KT 10SM CLR 10/10 A3004 RMK AO2,M
WYS,2024-06-27 10:55,48.20,48.20,100.00,0.00,0.00,0.00,30.01,M,3.00,M,SCT,BKN,M,M,200.00,11000.00,M,M,BR,M,M,M,M,M,M,48.20,KWYS 271055Z AUTO 00000KT 3SM BR SCT002 BKN110 09/09 A3001 RMK AO2,M
WYS,2024-06-27 11:55,48.20,48.20,100.00,0.00,0.00,0.00,30.00,M,0.25,M,OVC,M,M,M,200.00,M,M,M,FG,M,M,M,M,M,M,48.20,KWYS 271155Z AUTO 00000KT M1/4SM FG OVC002 09/09 A3000 RMK AO2,M
WYS,2024-06-27 12:55,48.20,48.20,100.00,0.00,0.00,0.00,29.98,M,10.00,M,SCT,BKN,M,M,400.00,4900.00,M,M,M,M,M,M,M,M,M,48.20,KWYS 271255Z AUTO 00000KT 10SM SCT004 BKN049 09/09 A2998 RMK AO2,M
WYS,2024-06-27 13:55,51.80,51.80,100.00,190.00,7.00,0.00,29.97,M,8.00,M,FEW,SCT,OVC,M,200.00,2700.00,4200.00,M,M,M,M,M,M,M,M,51.80,KWYS 271355Z AUTO 19007KT 8SM FEW002 SCT027 OVC042 11/11 A2997 RMK AO2,M
WYS,2024-06-27 14:55,53.60,53.60,100.00,0.00,0.00,0.00,29.95,M,10.00,M,SCT,OVC,M,M,1900.00,3700.00,M,M,M,M,M,M,M,M,M,53.60,KWYS 271455Z AUTO 00000KT 10SM SCT019 OVC037 12/12 A2995 RMK AO2,M
WYS,2024-06-27 15:55,57.20,57.20,100.00,M,5.00,0.00,29.93,M,10.00,M,BKN,OVC,M,M,2800.00,3300.00,M,M,M,M,M,M,M,M,M,57.20,KWYS 271555Z AUTO VRB05KT 10SM BKN028 OVC033 14/14 A2993 RMK AO2,M
WYS,2024-06-27 16:55,64.40,57.20,77.45,230.00,11.00,0.00,29.90,M,10.00,29.00,SCT,SCT,SCT,M,2300.00,2800.00,3600.00,M,M,M,M,M,M,M,M,64.40,KWYS 271655Z AUTO 23011G29KT 200V260 10SM SCT023 SCT028 SCT036 18/14 A2990 RMK AO2,M
WYS,2024-06-27 17:55,68.00,48.20,49.10,220.00,29.00,0.00,29.88,M,10.00,45.00,FEW,FEW,M,M,3300.00,5000.00,M,M,M,M,M,M,M,M,M,68.00,KWYS 271755Z AUTO 22029G45KT 10SM FEW033 FEW050 20/09 A2988 RMK AO2,M
WYS,2024-06-27 18:55,68.00,44.60,42.85,230.00,27.00,0.00,29.88,M,10.00,38.00,CLR,M,M,M,M,M,M,M,M,M,M,M,M,M,M,68.00,KWYS 271855Z AUTO 23027G38KT 10SM CLR 20/07 A2988 RMK AO2,M
WYS,2024-06-27 19:55,69.80,42.80,37.61,210.00,21.00,0.00,29.86,M,10.00,36.00,CLR,M,M,M,M,M,M,M,M,M,M,M,M,M,M,69.80,KWYS 271955Z AUTO 21021G36KT 10SM CLR 21/06 A2986 RMK AO2,M
WYS,2024-06-27 20:55,69.80,42.80,37.61,210.00,25.00,0.00,29.86,M,10.00,40.00,CLR,M,M,M,M,M,M,M,M,M,M,M,M,M,M,69.80,KWYS 272055Z AUTO 21025G40KT 10SM CLR 21/06 A2986 RMK AO2,M
WYS,2024-06-27 21:55,71.60,33.80,24.86,210.00,21.00,0.00,29.87,M,10.00,31.00,FEW,M,M,M,10000.00,M,M,M,M,M,M,M,M,M,M,71.60,KWYS 272155Z AUTO 21021G31KT 10SM FEW100 22/01 A2987 RMK AO2,M
WYS,2024-06-27 22:55,69.80,32.00,24.59,210.00,17.00,0.00,29.87,M,10.00,32.00,SCT,SCT,M,M,10000.00,12000.00,M,M,M,M,M,M,M,M,M,69.80,KWYS 272255Z AUTO 21017G32KT 10SM SCT100 SCT120 21/00 A2987 RMK AO2,M
WYS,2024-06-27 23:55,66.20,30.20,25.88,220.00,19.00,0.00,29.86,M,10.00,27.00,SCT,SCT,M,M,9000.00,11000.00,M,M,M,M,M,M,M,M,M,66.20,KWYS 272355Z AUTO 22019G27KT 10SM SCT090 SCT110 19/M01 A2986 RMK AO2,M
WYS,2024-06-28 00:55,68.00,28.40,22.59,220.00,12.00,0.00,29.86,M,10.00,M,SCT,M,M,M,10000.00,M,M,M,M,M,M,M,M,M,M,68.00,KWYS 280055Z AUTO 22012KT 10SM SCT100 20/M02 A2986 RMK AO2,M
WYS,2024-06-28 01:55,66.20,24.80,20.72,220.00,14.00,0.00,29.85,M,10.00,21.00,CLR,M,M,M,M,M,M,M,M,M,M,M,M,M,M,66.20,KWYS 280155Z AUTO 22014G21KT 10SM CLR 19/M04 A2985 RMK AO2,M
WYS,2024-06-28 02:55,60.80,23.00,23.23,210.00,11.00,0.00,29.86,M,10.00,19.00,CLR,M,M,M,M,M,M,M,M,M,M,M,M,M,M,60.80,KWYS 280255Z AUTO 21011G19KT 10SM CLR 16/M05 A2986 RMK AO2,M
WYS,2024-06-28 03:55,55.40,26.60,32.76,250.00,6.00,0.00,29.89,M,10.00,M,CLR,M,M,M,M,M,M,M,M,M,M,M,M,M,M,55.40,KWYS 280355Z AUTO 25006KT 10SM CLR 13/M03 A2989 RMK AO2,M
WYS,2024-06-28 04:55,50.00,30.20,46.31,230.00,6.00,0.00,29.91,M,10.00,M,CLR,M,M,M,M,M,M,M,M,M,M,M,M,M,M,50.00,KWYS 280455Z AUTO 23006KT 10SM CLR 10/M01 A2991 RMK AO2,M
WYS,2024-06-28 05:55,48.20,39.20,70.88,220.00,5.00,0.00,29.91,M,10.00,M,CLR,M,M,M,M,M,M,M,M,M,M,M,M,M,M,45.63,KWYS 280555Z AUTO 22005KT 10SM CLR 09/04 A2991 RMK AO2,M
WYS,2024-06-28 06:55,46.40,41.00,81.34,0.00,0.00,0.00,29.92,M,10.00,M,CLR,M,M,M,M,M,M,M,M,M,M,M,M,M,M,46.40,KWYS 280655Z AUTO 00000KT 10SM CLR 08/05 A2992 RMK AO2,M
WYS,2024-06-28 07:55,41.00,41.00,100.00,0.00,0.00,0.00,29.94,M,10.00,M,CLR,M,M,M,M,M,M,M,M,M,M,M,M,M,M,41.00,KWYS 280755Z AUTO 00000KT 10SM CLR 05/05 A2994 RMK AO2,M
WYS,2024-06-28 08:55,37.40,37.40,100.00,0.00,0.00,0.00,29.94,M,10.00,M,CLR,M,M,M,M,M,M,M,M,M,M,M,M,M,M,37.40,KWYS 280855Z AUTO 00000KT 10SM CLR 03/03 A2994 RMK AO2,M
WYS,2024-06-28 09:55,37.40,37.40,100.00,250.00,4.00,0.00,29.94,M,10.00,M,CLR,M,M,M,M,M,M,M,M,M,M,M,M,M,M,33.73,KWYS 280955Z AUTO 25004KT 10SM CLR 03/03 A2994 RMK AO2,M
WYS,2024-06-28 10:55,33.80,33.80,100.00,0.00,0.00,0.00,29.96,M,10.00,M,CLR,M,M,M,M,M,M,M,M,M,M,M,M,M,M,33.80,KWYS 281055Z AUTO 00000KT 10SM CLR 01/01 A2996 RMK AO2,M
WYS,2024-06-28 11:55,37.40,35.60,93.14,0.00,0.00,0.00,29.97,M,10.00,M,CLR,M,M,M,M,M,M,M,M,M,M,M,M,M,M,37.40,KWYS 281155Z AUTO 00000KT 10SM CLR 03/02 A2997 RMK AO2,M
WYS,2024-06-28 12:55,44.60,33.80,65.61,240.00,6.00,0.00,29.99,M,10.00,M,CLR,M,M,M,M,M,M,M,M,M,M,M,M,M,M,40.71,KWYS 281255Z AUTO 24006KT 10SM CLR 07/01 A2999 RMK AO2,M
WYS,2024-06-28 13:55,50.00,33.80,53.54,M,4.00,0.00,30.01,M,10.00,M,CLR,M,M,M,M,M,M,M,M,M,M,M,M,M,M,50.00,KWYS 281355Z AUTO VRB04KT 10SM CLR 10/01 A3001 RMK AO2,M
WYS,2024-06-28 14:55,53.60,32.00,43.61,230.00,10.00,0.00,30.02,M,10.00,M,CLR,M,M,M,M,M,M,M,M,M,M,M,M,M,M,53.60,KWYS 281455Z AUTO 23010KT 10SM CLR 12/00 A3002 RMK AO2,M
WYS,2024-06-28 15:55,53.60,32.00,43.61,250.00,12.00,0.00,30.04,M,10.00,20.00,FEW,M,M,M,5000.00,M,M,M,M,M,M,M,M,M,M,53.60,KWYS 281555Z AUTO 25012G20KT 220V280 10SM FEW050 12/00 A3004 RMK AO2,M
WYS,2024-06-28 16:55,55.40,33.80,43.90,250.00,9.00,0.00,30.05,M,10.00,19.00,SCT,BKN,M,M,4700.00,5500.00,M,M,M,M,M,M,M,M,M,55.40,KWYS 281655Z AUTO 25009G19KT 230V290 10SM SCT047 BKN055 13/01 A3005 RMK AO2,M
WYS,2024-06-28 17:55,57.20,32.00,38.26,240.00,12.00,0.00,30.05,M,10.00,20.00,FEW,M,M,M,5000.00,M,M,M,M,M,M,M,M,M,M,57.20,KWYS 281755Z AUTO 24012G20KT 10SM FEW050 14/00 A3005 RMK AO2,M
WYS,2024-06-28 18:55,59.00,32.00,35.87,290.00,14.00,0.00,30.06,M,10.00,22.00,CLR,M,M,M,M,M,M,M,M,M,M,M,M,M,M,59.00,KWYS 281855Z AUTO 29014G22KT 240V340 10SM CLR 15/M00 A3006 RMK AO2,M
WYS,2024-06-28 19:55,60.80,32.00,33.64,280.00,11.00,0.00,30.07,M,10.00,18.00,FEW,M,M,M,6000.00,M,M,M,M,M,M,M,M,M,M,60.80,KWYS 281955Z AUTO 28011G18KT 250V310 10SM FEW060 16/M00 A3007 RMK AO2,M
WYS,2024-06-28 20:55,60.80,32.00,33.64,M,4.00,0.00,30.08,M,10.00,19.00,OVC,M,M,M,6000.00,M,M,M,M,M,M,M,M,M,M,60.80,KWYS 282055Z AUTO VRB04G19KT 10SM OVC060 16/M00 A3008 RMK AO2,M
WYS,2024-06-28 21:55,62.60,30.20,29.35,240.00,7.00,0.00,30.09,M,10.00,17.00,CLR,M,M,M,M,M,M,M,M,M,M,M,M,M,M,62.60,KWYS 282155Z AUTO 24007G17KT 200V290 10SM CLR 17/M01 A3009 RMK AO2,M
WYS,2024-06-28 22:55,64.40,32.00,29.63,M,6.00,0.00,30.10,M,10.00,18.00,FEW,FEW,M,M,7000.00,8000.00,M,M,M,M,M,M,M,M,M,64.40,KWYS 282255Z AUTO VRB06G18KT 10SM FEW070 FEW080 18/M00 A3010 RMK AO2,M
WYS,2024-06-28 23:55,64.40,32.00,29.63,350.00,6.00,0.00,30.11,M,10.00,14.00,CLR,M,M,M,M,M,M,M,M,M,M,M,M,M,M,64.40,KWYS 282355Z AUTO 35006G14KT 10SM CLR 18/M00 A3011 RMK AO2,M
WYS,2024-06-29 00:55,62.60,30.20,29.35,M,3.00,0.00,30.12,M,10.00,11.00,CLR,M,M,M,M,M,M,M,M,M,M,M,M,M,M,62.60,KWYS 290055Z AUTO VRB03G11KT 10SM CLR 17/M01 A3012 RMK AO2,M
WYS,2024-06-29 01:55,57.20,37.40,47.44,20.00,10.00,0.00,30.16,M,10.00,18.00,SCT,SCT,M,M,7500.00,8500.00,M,M,M,M,M,M,M,M,M,57.20,KWYS 290155Z AUTO 02010G18KT 10SM SCT075 SCT085 14/03 A3016 RMK AO2,M
WYS,2024-06-29 02:55,53.60,37.40,54.07,20.00,7.00,0.00,30.17,M,10.00,M,BKN,M,M,M,9000.00,M,M,M,M,M,M,M,M,M,M,53.60,KWYS 290255Z AUTO 02007KT 10SM BKN090 12/03 A3017 RMK AO2,M
WYS,2024-06-29 03:55,50.00,37.40,61.76,30.00,6.00,0.00,30.20,M,10.00,M,BKN,M,M,M,9000.00,M,M,M,M,M,M,M,M,M,M,50.00,KWYS 290355Z AUTO 03006KT 10SM BKN090 10/03 A3020 RMK AO2,M
WYS,2024-06-29 04:55,48.20,37.40,66.05,20.00,6.00,0.00,30.23,M,10.00,M,CLR,M,M,M,M,M,M,M,M,M,M,M,M,M,M,45.04,KWYS 290455Z AUTO 02006KT 10SM CLR 09/03 A3023 RMK AO2,M
WYS,2024-06-29 05:55,46.40,37.40,70.68,30.00,5.00,0.00,30.24,M,10.00,11.00,CLR,M,M,M,M,M,M,M,M,M,M,M,M,M,M,43.50,KWYS 290555Z AUTO 03005G11KT 10SM CLR 08/03 A3024 RMK AO2,M
WYS,2024-06-29 06:55,42.80,39.20,86.99,0.00,0.00,0.00,30.24,M,10.00,M,CLR,M,M,M,M,M,M,M,M,M,M,M,M,M,M,42.80,KWYS 290655Z AUTO 00000KT 10SM CLR 06/04 A3024 RMK AO2,M
WYS,2024-06-29 07:55,41.00,41.00,100.00,360.00,5.00,0.00,30.24,M,10.00,M,CLR,M,M,M,M,M,M,M,M,M,M,M,M,M,M,37.08,KWYS 290755Z AUTO 36005KT 10SM CLR 05/05 A3024 RMK AO2,M
WYS,2024-06-29 08:55,35.60,35.60,100.00,0.00,0.00,0.00,30.24,M,10.00,M,CLR,M,M,M,M,M,M,M,M,M,M,M,M,M,M,35.60,KWYS 290855Z AUTO 00000KT 10SM CLR 02/02 A3024 RMK AO2,M
WYS,2024-06-29 09:55,33.80,33.80,100.00,0.00,0.00,0.00,30.25,M,10.00,M,CLR,M,M,M,M,M,M,M,M,M,M,M,M,M,M,33.80,KWYS 290955Z AUTO 00000KT 10SM CLR 01/01 A3025 RMK AO2,M
WYS,2024-06-29 10:55,32.00,32.00,100.00,0.00,0.00,0.00,30.25,M,10.00,M,CLR,M,M,M,M,M,M,M,M,M,M,M,M,M,M,32.00,KWYS 291055Z AUTO 00000KT 10SM CLR M00/M00 A3025 RMK AO2,M
WYS,2024-06-29 11:55,28.40,28.40,100.00,210.00,3.00,0.00,30.25,M,10.00,M,CLR,M,M,M,M,M,M,M,M,M,M,M,M,M,M,24.57,KWYS 291155Z AUTO 21003KT 10SM CLR M02/M02 A3025 RMK AO2,M
WYS,2024-06-29 12:55,35.60,35.60,100.00,0.00,0.00,0.00,30.26,M,10.00,M,CLR,M,M,M,M,M,M,M,M,M,M,M,M,M,M,35.60,KWYS 291255Z AUTO 00000KT 10SM CLR 02/02 A3026 RMK AO2,M
WYS,2024-06-29 13:55,42.80,41.00,93.30,0.00,0.00,0.00,30.26,M,10.00,M,CLR,M,M,M,M,M,M,M,M,M,M,M,M,M,M,42.80,KWYS 291355Z AUTO 00000KT 10SM CLR 06/05 A3026 RMK AO2,M
WYS,2024-06-29 14:55,48.20,39.20,70.88,0.00,0.00,0.00,30.25,M,10.00,M,CLR,M,M,M,M,M,M,M,M,M,M,M,M,M,M,48.20,KWYS 291455Z AUTO 00000KT 10SM CLR 09/04 A3025 RMK AO2,M
WYS,2024-06-29 15:55,53.60,39.20,58.02,0.00,0.00,0.00,30.24,M,10.00,M,CLR,M,M,M,M,M,M,M,M,M,M,M,M,M,M,53.60,KWYS 291555Z AUTO 00000KT 10SM CLR 12/04 A3024 RMK AO2,M
WYS,2024-06-29 16:55,59.00,39.20,47.72,M,3.00,0.00,30.23,M,10.00,M,CLR,M,M,M,M,M,M,M,M,M,M,M,M,M,M,59.00,KWYS 291655Z AUTO VRB03KT 10SM CLR 15/04 A3023 RMK AO2,M
WYS,2024-06-29 17:55,66.20,37.40,34.51,M,4.00,0.00,30.20,M,10.00,M,CLR,M,M,M,M,M,M,M,M,M,M,M,M,M,M,66.20,KWYS 291755Z AUTO VRB04KT 10SM CLR 19/03 A3020 RMK AO2,M
WYS,2024-06-29 18:55,71.60,30.20,21.50,M,6.00,0.00,30.18,M,10.00,11.00,CLR,M,M,M,M,M,M,M,M,M,M,M,M,M,M,71.60,KWYS 291855Z AUTO VRB06G11KT 10SM CLR 22/M01 A3018 RMK AO2,M
WYS,2024-06-29 19:55,73.40,35.60,25.13,200.00,11.00,0.00,30.18,M,10.00,M,CLR,M,M,M,M,M,M,M,M,M,M,M,M,M,M,73.40,KWYS 291955Z AUTO 20011KT 10SM CLR 23/02 A3018 RMK AO2,M
WYS,2024-06-29 20:55,75.20,35.60,23.66,210.00,15.00,0.00,30.17,M,10.00,M,CLR,M,M,M,M,M,M,M,M,M,M,M,M,M,M,75.20,KWYS 292055Z AUTO 21015KT 10SM CLR 24/02 A3017 RMK AO2,M
WYS,2024-06-29 21:55,77.00,33.80,20.74,220.00,12.00,0.00,30.16,M,10.00,19.00,CLR,M,M,M,M,M,M,M,M,M,M,M,M,M,M,77.00,KWYS 292155Z AUTO 22012G19KT 10SM CLR 25/01 A3016 RMK AO2,M
WYS,2024-06-29 22:55,75.20,35.60,23.66,190.00,10.00,0.00,30.16,M,10.00,M,CLR,M,M,M,M,M,M,M,M,M,M,M,M,M,M,75.20,KWYS 292255Z AUTO 19010KT 10SM CLR 24/02 A3016 RMK AO2,M
WYS,2024-06-29 23:55,77.00,33.80,20.74,240.00,9.00,0.00,30.15,M,10.00,17.00,FEW,M,M,M,12000.00,M,M,M,M,M,M,M,M,M,M,77.00,KWYS 292355Z AUTO 24009G17KT 10SM FEW120 25/01 A3015 RMK AO2,M
WYS,2024-06-30 00:55,77.00,33.80,20.74,220.00,7.00,0.00,30.14,M,10.00,M,CLR,M,M,M,M,M,M,M,M,M,M,M,M,M,M,77.00,KWYS 300055Z AUTO 22007KT 10SM CLR 25/01 A3014 RMK AO2,M
WYS,2024-06-30 01:55,75.20,33.80,22.02,220.00,7.00,0.00,30.14,M,10.00,14.00,CLR,M,M,M,M,M,M,M,M,M,M,M,M,M,M,75.20,KWYS 300155Z AUTO 22007G14KT 10SM CLR 24/01 A3014 RMK AO2,M
WYS,2024-06-30 02:55,68.00,39.20,34.80,200.00,4.00,0.00,30.15,M,10.00,M,CLR,M,M,M,M,M,M,M,M,M,M,M,M,M,M,68.00,KWYS 300255Z AUTO 20004KT 10SM CLR 20/04 A3015 RMK AO2,M
WYS,2024-06-30 03:55,60.80,44.60,55.12,200.00,3.00,0.00,30.15,M,10.00,M,CLR,M,M,M,M,M,M,M,M,M,M,M,M,M,M,60.80,KWYS 300355Z AUTO 20003KT 10SM CLR 16/07 A3015 RMK AO2,M
WYS,2024-06-30 04:55,55.40,44.60,66.91,0.00,0.00,0.00,30.16,M,10.00,M,CLR,M,M,M,M,M,M,M,M,M,M,M,M,M,M,55.40,KWYS 300455Z AUTO 00000KT 10SM CLR 13/07 A3016 RMK AO2,M
WYS,2024-06-30 05:55,53.60,46.40,76.50,0.00,0.00,0.00,30.16,M,10.00,M,SCT,M,M,M,11000.00,M,M,M,M,M,M,M,M,M,M,53.60,KWYS 300555Z AUTO 00000KT 10SM SCT110 12/08 A3016 RMK AO2,M
WYS,2024-06-30 06:55,53.60,44.60,71.45,0.00,0.00,0.00,30.17,M,10.00,M,SCT,M,M,M,12000.00,M,M,M,M,M,M,M,M,M,M,53.60,KWYS 300655Z AUTO 00000KT 10SM SCT120 12/07 A3017 RMK AO2,M
WYS,2024-06-30 07:55,53.60,44.60,71.45,290.00,5.00,0.00,30.15,M,10.00,M,SCT,SCT,M,M,10000.00,12000.00,M,M,M,M,M,M,M,M,M,53.60,KWYS 300755Z AUTO 29005KT 10SM SCT100 SCT120 12/07 A3015 RMK AO2,M
WYS,2024-06-30 08:55,51.80,44.60,76.34,40.00,6.00,0.00,30.14,M,10.00,M,FEW,BKN,M,M,6000.00,11000.00,M,M,M,M,M,M,M,M,M,51.80,KWYS 300855Z AUTO 04006KT 10SM FEW060 BKN110 11/07 A3014 RMK AO2,M
WYS,2024-06-30 09:55,48.20,48.20,100.00,230.00,4.00,0.00,30.14,M,10.00,M,CLR,M,M,M,M,M,M,M,M,M,M,M,M,M,M,46.34,KWYS 300955Z AUTO 23004KT 10SM CLR 09/09 A3014 RMK AO2,M
WYS,2024-06-30 10:55,44.60,44.60,100.00,0.00,0.00,0.00,30.13,M,10.00,M,CLR,M,M,M,M,M,M,M,M,M,M,M,M,M,M,44.60,KWYS 301055Z AUTO 00000KT 10SM CLR 07/07 A3013 RMK AO2,M
WYS,2024-06-30 11:55,41.00,41.00,100.00,200.00,3.00,0.00,30.15,M,10.00,M,CLR,M,M,M,M,M,M,M,M,M,M,M,M,M,M,38.98,KWYS 301155Z AUTO 20003KT 10SM CLR 05/05 A3015 RMK AO2,M
WYS,2024-06-30 12:55,46.40,46.40,100.00,0.00,0.00,0.00,30.15,M,10.00,M,CLR,M,M,M,M,M,M,M,M,M,M,M,M,M,M,46.40,KWYS 301255Z AUTO 00000KT 10SM CLR 08/08 A3015 RMK AO2,M
WYS,2024-06-30 13:55,55.40,48.20,76.66,0.00,0.00,0.00,30.15,M,10.00,M,CLR,M,M,M,M,M,M,M,M,M,M,M,M,M,M,55.40,KWYS 301355Z AUTO 00000KT 10SM CLR 13/09 A3015 RMK AO2,M
WYS,2024-06-30 14:55,62.60,46.40,55.37,0.00,0.00,0.00,30.15,M,10.00,M,CLR,M,M,M,M,M,M,M,M,M,M,M,M,M,M,62.60,KWYS 301455Z AUTO 00000KT 10SM CLR 17/08 A3015 RMK AO2,M
WYS,2024-06-30 15:55,64.40,44.60,48.55,0.00,0.00,0.00,30.14,M,10.00,M,CLR,M,M,M,M,M,M,M,M,M,M,M,M,M,M,64.40,KWYS 301555Z AUTO 00000KT 10SM CLR 18/07 A3014 RMK AO2,M
WYS,2024-06-30 16:55,73.40,35.60,25.13,220.00,14.00,0.00,30.12,M,10.00,22.00,CLR,M,M,M,M,M,M,M,M,M,M,M,M,M,M,73.40,KWYS 301655Z AUTO 22014G22KT 10SM CLR 23/02 A3012 RMK AO2,M
WYS,2024-06-30 17:55,77.00,37.40,23.93,220.00,19.00,0.00,30.12,M,10.00,31.00,CLR,M,M,M,M,M,M,M,M,M,M,M,M,M,M,77.00,KWYS 301755Z AUTO 22019G31KT 10SM CLR 25/03 A3012 RMK AO2,M
WYS,2024-06-30 18:55,78.80,39.20,24.19,200.00,19.00,0.00,30.12,M,10.00,30.00,CLR,M,M,M,M,M,M,M,M,M,M,M,M,M,M,78.80,KWYS 301855Z AUTO 20019G30KT 10SM CLR 26/04 A3012 RMK AO2,M
WYS,2024-06-30 19:55,78.80,35.60,21.00,210.00,19.00,0.00,30.11,M,10.00,26.00,CLR,M,M,M,M,M,M,M,M,M,M,M,M,M,M,78.80,KWYS 301955Z AUTO 21019G26KT 10SM CLR 26/02 A3011 RMK AO2,M
WYS,2024-06-30 20:55,78.80,35.60,21.00,230.00,18.00,0.00,30.10,M,10.00,31.00,CLR,M,M,M,M,M,M,M,M,M,M,M,M,M,M,78.80,KWYS 302055Z AUTO 23018G31KT 10SM CLR 26/02 A3010 RMK AO2,M
WYS,2024-06-30 21:55,78.80,37.40,22.54,230.00,18.00,0.00,30.08,M,10.00,30.00,CLR,M,M,M,M,M,M,M,M,M,M,M,M,M,M,78.80,KWYS 302155Z AUTO 23018G30KT 10SM CLR 26/03 A3008 RMK AO2,M
WYS,2024-06-30 22:55,75.20,44.60,33.57,290.00,12.00,0.00,30.11,M,10.00,20.00,CLR,M,M,M,M,M,M,M,M,M,M,M,M,M,M,75.20,KWYS 302255Z AUTO 29012G20KT 270V350 10SM CLR 24/07 A3011 RMK AO2,M
WYS,2024-06-30 23:55,69.80,44.60,40.29,M,4.00,0.00,30.11,M,10.00,M,CLR,M,M,M,M,M,M,M,M,M,M,M,M,M,M,69.80,KWYS 302355Z AUTO VRB04KT 10SM CLR 21/07 A3011 RMK AO2,M
WYS,2024-07-01 00:55,69.80,44.60,40.29,340.00,7.00,0.00,30.11,M,10.00,M,CLR,M,M,M,M,M,M,M,M,M,M,M,M,M,M,69.80,KWYS 010055Z AUTO 34007KT 320V020 10SM CLR 21/07 A3011 RMK AO2,M
WYS,2024-07-01 01:55,66.20,46.40,48.83,20.00,9.00,0.00,30.10,M,10.00,M,CLR,M,M,M,M,M,M,M,M,M,M,M,M,M,M,66.20,KWYS 010155Z AUTO 02009KT 10SM CLR 19/08 A3010 RMK AO2,M
WYS,2024-07-01 02:55,60.80,48.20,63.15,320.00,4.00,0.00,30.11,M,10.00,M,CLR,M,M,M,M,M,M,M,M,M,M,M,M,M,M,60.80,KWYS 010255Z AUTO 32004KT 10SM CLR 16/09 A3011 RMK AO2,M
WYS,2024-07-01 03:55,59.00,48.20,67.33,0.00,0.00,0.00,30.12,M,10.00,M,SCT,M,M,M,11000.00,M,M,M,M,M,M,M,M,M,M,59.00,KWYS 010355Z AUTO 00000KT 10SM SCT110 15/09 A3012 RMK AO2,M
WYS,2024-07-01 04:55,59.00,50.00,72.01,0.00,0.00,0.00,30.11,M,10.00,M,CLR,M,M,M,M,M,M,M,M,M,M,M,M,M,M,59.00,KWYS 010455Z AUTO 00000KT 10SM CLR 15/10 A3011 RMK AO2,M
WYS,2024-07-01 05:55,53.60,53.60,100.00,0.00,0.00,0.00,30.11,M,7.00,M,FEW,SCT,BKN,M,600.00,7000.00,10000.00,M,-RA,M,M,M,M,M,M,53.60,KWYS 010555Z AUTO 00000KT 7SM -RA FEW006 SCT070 BKN100 12/12 A3011 RMK AO2,M
WYS,2024-07-01 06:55,53.60,51.80,93.60,30.00,9.00,0.00,30.10,M,10.00,M,FEW,FEW,OVC,M,6000.00,7500.00,11000.00,M,M,M,M,M,M,M,M,53.60,KWYS 010655Z AUTO 03009KT 10SM FEW060 FEW075 OVC110 12/11 A3010 RMK AO2,M
WYS,2024-07-01 07:55,53.60,53.60,100.00,0.00,0.00,0.00,30.12,M,10.00,M,FEW,BKN,OVC,M,7500.00,9000.00,11000.00,M,M,M,M,M,M,M,M,53.60,KWYS 010755Z AUTO 00000KT 10SM FEW075 BKN090 OVC110 12/12 A3012 RMK AO2,M
WYS,2024-07-01 08:55,51.80,51.80,100.00,180.00,8.00,0.01,30.14,M,10.00,M,FEW,SCT,BKN,M,3800.00,5500.00,7000.00,M,M,M,M,M,M,M,M,51.80,KWYS 010855Z AUTO 18008KT 10SM FEW038 SCT055 BKN070 11/11 A3014 RMK AO2 P0001,M
WYS,2024-07-01 09:55,50.00,50.00,100.00,320.00,8.00,0.02,30.10,M,10.00,M,FEW,SCT,BKN,M,6500.00,7500.00,11000.00,M,M,M,M,M,M,M,M,50.00,KWYS 010955Z AUTO 32008KT 10SM FEW065 SCT075 BKN110 10/10 A3010 RMK AO2 P0002,M
WYS,2024-07-01 10:55,51.80,50.00,93.55,0.00,0.00,0.00,30.08,M,10.00,M,CLR,M,M,M,M,M,M,M,M,M,M,M,M,M,M,51.80,KWYS 011055Z AUTO 00000KT 10SM CLR 11/10 A3008 RMK AO2,M
WYS,2024-07-01 11:55,48.20,48.20,100.00,30.00,4.00,0.00,30.10,M,10.00,M,CLR,M,M,M,M,M,M,M,M,M,M,M,M,M,M,46.34,KWYS 011155Z AUTO 03004KT 10SM CLR 09/09 A3010 RMK AO2,M
WYS,2024-07-01 12:55,48.20,48.20,100.00,0.00,0.00,0.00,30.11,M,10.00,M,CLR,M,M,M,M,M,M,M,M,M,M,M,M,M,M,48.20,KWYS 011255Z AUTO 00000KT 10SM CLR 09/09 A3011 RMK AO2,M
WYS,2024-07-01 13:55,50.00,50.00,100.00,0.00,0.00,0.00,30.12,M,10.00,M,FEW,M,M,M,3900.00,M,M,M,M,M,M,M,M,M,M,50.00,KWYS 011355Z AUTO 00000KT 10SM FEW039 10/10 A3012 RMK AO2,M
WYS,2024-07-01 14:55,55.40,46.40,71.64,240.00,3.00,0.00,30.12,M,10.00,M,FEW,BKN,OVC,M,3400.00,5500.00,6500.00,M,M,M,M,M,M,M,M,55.40,KWYS 011455Z AUTO 24003KT 10SM FEW034 BKN055 OVC065 13/08 A3012 RMK AO2,M
WYS,2024-07-01 15:55,53.60,50.00,87.56,250.00,5.00,0.00,30.12,M,10.00,10.00,FEW,BKN,OVC,M,4500.00,5500.00,6000.00,M,M,M,M,M,M,M,M,53.60,KWYS 011555Z AUTO 25005G10KT 10SM FEW045 BKN055 OVC060 12/10 A3012 RMK AO2,M
WYS,2024-07-01 16:55,57.20,46.40,67.12,220.00,7.00,0.00,30.11,M,10.00,M,SCT,BKN,BKN,M,3200.00,3900.00,5500.00,M,M,M,M,M,M,M,M,57.20,KWYS 011655Z AUTO 22007KT 10SM SCT032 BKN039 BKN055 14/08 A3011 RMK AO2,M
WYS,2024-07-01 17:55,60.80,46.40,59.01,M,6.00,0.00,30.10,M,10.00,M,FEW,SCT,SCT,M,3700.00,4400.00,5000.00,M,M,M,M,M,M,M,M,60.80,KWYS 011755Z AUTO VRB06KT 10SM FEW037 SCT044 SCT050 16/08 A3010 RMK AO2,M
WYS,2024-07-01 18:55,64.40,37.40,36.74,M,6.00,0.00,30.09,M,10.00,16.00,CLR,M,M,M,M,M,M,M,M,M,M,M,M,M,M,64.40,KWYS 011855Z AUTO VRB06G16KT 10SM CLR 18/03 A3009 RMK AO2,M
WYS,2024-07-01 19:55,66.20,35.60,32.14,250.00,10.00,0.00,30.07,M,10.00,17.00,CLR,M,M,M,M,M,M,M,M,M,M,M,M,M,M,66.20,KWYS 011955Z AUTO 25010G17KT 10SM CLR 19/02 A3007 RMK AO2,M
WYS,2024-07-01 20:55,62.60,37.40,39.14,240.00,11.00,0.00,30.09,M,10.00,M,CLR,M,M,M,M,M,M,M,M,M,M,M,M,M,M,62.60,KWYS 012055Z AUTO 24011KT 10SM CLR 17/03 A3009 RMK AO2,M
WYS,2024-07-01 21:55,59.00,41.00,51.18,340.00,6.00,0.00,30.08,M,6.00,14.00,FEW,FEW,SCT,M,2200.00,2900.00,6500.00,M,-RA,M,M,M,M,M,M,59.00,KWYS 012155Z AUTO 34006G14KT 6SM -RA FEW022 FEW029 SCT065 15/05 A3008 RMK AO2,M
WYS,2024-07-01 22:55,60.80,41.00,48.00,230.00,9.00,0.00,30.07,M,10.00,16.00,FEW,SCT,SCT,M,6500.00,9000.00,11000.00,M,M,M,M,M,M,M,M,60.80,KWYS 012255Z AUTO 23009G16KT 10SM FEW065 SCT090 SCT110 16/05 A3007 RMK AO2,M
WYS,2024-07-01 23:55,57.20,37.40,47.44,240.00,13.00,0.00,30.08,M,10.00,22.00,FEW,FEW,M,M,9000.00,11000.00,M,M,M,M,M,M,M,M,M,57.20,KWYS 012355Z AUTO 24013G22KT 10SM FEW090 FEW110 14/03 A3008 RMK AO2,M
WYS,2024-07-02 00:55,50.00,46.40,87.37,210.00,22.00,0.00,30.08,M,10.00,30.00,FEW,SCT,M,M,7000.00,8500.00,M,M,M,M,M,M,M,M,M,50.00,KWYS 020055Z AUTO 21022G30KT 10SM FEW070 SCT085 10/08 A3008 RMK AO2,M
WYS,2024-07-02 01:55,50.00,42.80,76.18,280.00,3.00,0.00,30.14,M,10.00,M,SCT,SCT,OVC,M,5000.00,6500.00,8000.00,M,M,M,M,M,M,M,M,50.00,KWYS 020155Z AUTO 28003KT 10SM SCT050 SCT065 OVC080 10/06 A3014 RMK AO2,M
WYS,2024-07-02 02:55,46.40,46.40,100.00,0.00,0.00,0.08,30.16,M,6.00,M,SCT,OVC,M,M,3000.00,4100.00,M,M,RA,M,M,M,M,M,M,46.40,KWYS 020255Z AUTO 00000KT 6SM RA SCT030 OVC041 08/08 A3016 RMK AO2 P0008,M
WYS,2024-07-02 03:55,46.40,46.40,100.00,0.00,0.00,0.06,30.17,M,5.00,M,BKN,BKN,OVC,M,800.00,1400.00,4100.00,M,-RA,M,M,M,M,M,M,46.40,KWYS 020355Z AUTO 00000KT 5SM -RA BKN008 BKN014 OVC041 08/08 A3017 RMK AO2 P0006,M
WYS,2024-07-02 04:55,44.60,44.60,100.00,0.00,0.00,0.03,30.16,M,10.00,M,BKN,BKN,OVC,M,1100.00,1600.00,5500.00,M,M,M,M,M,M,M,M,44.60,KWYS 020455Z AUTO 00000KT 10SM BKN011 BKN016 OVC055 07/07 A3016 RMK AO2 P0003,M
WYS,2024-07-02 05:55,44.60,44.60,100.00,0.00,0.00,0.00,30.16,M,10.00,M,SCT,BKN,OVC,M,2000.00,7500.00,9000.00,M,M,M,M,M,M,M,M,44.60,KWYS 020555Z AUTO 00000KT 10SM SCT020 BKN075 OVC090 07/07 A3016 RMK AO2,M
WYS,2024-07-02 06:55,44.60,44.60,100.00,210.00,3.00,0.00,30.17,M,10.00,M,BKN,OVC,M,M,4700.00,8500.00,M,M,M,M,M,M,M,M,M,43.09,KWYS 020655Z AUTO 21003KT 10SM BKN047 OVC085 07/07 A3017 RMK AO2,M
WYS,2024-07-02 07:45,42.80,42.80,100.00,0.00,0.00,0.00,30.17,M,10.00,M,SCT,BKN,M,M,6000.00,10000.00,M,M,M,M,M,M,M,M,M,42.80,KWYS 020745Z AUTO 00000KT 10SM SCT060 BKN100 06/06 A3017 RMK AO2,M
WYS,2024-07-02 08:55,39.20,39.20,100.00,0.00,0.00,0.00,30.17,M,10.00,M,FEW,SCT,BKN,M,200.00,700.00,11000.00,M,M,M,M,M,M,M,M,39.20,KWYS 020855Z AUTO 00000KT 10SM FEW002 SCT007 BKN110 04/04 A3017 RMK AO2,M
WYS,2024-07-02 09:55,39.20,39.20,100.00,0.00,0.00,0.00,30.17,M,2.50,M,BKN,OVC,M,M,200.00,1200.00,M,M,BR,M,M,M,M,M,M,39.20,KWYS 020955Z AUTO 00000KT 2 1/2SM BR BKN002 OVC012 04/04 A3017 RMK AO2 VIS 1V5,M
WYS,2024-07-02 10:55,39.20,39.20,100.00,170.00,5.00,0.00,30.18,M,0.50,M,OVC,M,M,M,200.00,M,M,M,BR,M,M,M,M,M,M,34.95,KWYS 021055Z AUTO 17005KT 1/2SM BR OVC002 04/04 A3018 RMK AO2,M
WYS,2024-07-02 11:55,37.40,37.40,100.00,0.00,0.00,0.00,30.19,M,10.00,M,BKN,M,M,M,1200.00,M,M,M,M,M,M,M,M,M,M,37.40,KWYS 021155Z AUTO 00000KT 10SM BKN012 03/03 A3019 RMK AO2,M
WYS,2024-07-02 12:55,39.20,39.20,100.00,0.00,0.00,0.00,30.21,M,10.00,M,OVC,M,M,M,1100.00,M,M,M,M,M,M,M,M,M,M,39.20,KWYS 021255Z AUTO 00000KT 10SM OVC011 04/04 A3021 RMK AO2,M
WYS,2024-07-02 13:55,42.80,42.80,100.00,0.00,0.00,0.00,30.20,M,10.00,M,SCT,M,M,M,1100.00,M,M,M,M,M,M,M,M,M,M,42.80,KWYS 021355Z AUTO 00000KT 10SM SCT011 06/06 A3020 RMK AO2,M
WYS,2024-07-02 14:55,46.40,46.40,100.00,0.00,0.00,0.00,30.22,M,10.00,M,OVC,M,M,M,1400.00,M,M,M,M,M,M,M,M,M,M,46.40,KWYS 021455Z AUTO 00000KT 10SM OVC014 08/08 A3022 RMK AO2,M
WYS,2024-07-02 15:55,48.20,48.20,100.00,240.00,4.00,0.00,30.22,M,10.00,M,OVC,M,M,M,1600.00,M,M,M,M,M,M,M,M,M,M,46.34,KWYS 021555Z AUTO 24004KT 10SM OVC016 09/09 A3022 RMK AO2,M
WYS,2024-07-02 16:55,53.60,46.40,76.50,230.00,7.00,0.00,30.21,M,10.00,14.00,SCT,M,M,M,2100.00,M,M,M,M,M,M,M,M,M,M,53.60,KWYS 021655Z AUTO 23007G14KT 10SM SCT021 12/08 A3021 RMK AO2,M
WYS,2024-07-02 17:55,57.20,39.20,50.91,220.00,8.00,0.00,30.20,M,10.00,M,FEW,SCT,BKN,M,3800.00,4400.00,4900.00,M,M,M,M,M,M,M,M,57.20,KWYS 021755Z AUTO 22008KT 10SM FEW038 SCT044 BKN049 14/04 A3020 RMK AO2,M
WYS,2024-07-02 18:55,59.00,37.40,44.47,240.00,11.00,0.00,30.19,M,10.00,M,FEW,SCT,BKN,M,4500.00,5500.00,7500.00,M,M,M,M,M,M,M,M,59.00,KWYS 021855Z AUTO 24011KT 10SM FEW045 SCT055 BKN075 15/03 A3019 RMK AO2,M
WYS,2024-07-02 19:55,59.00,37.40,44.47,220.00,13.00,0.00,30.19,M,10.00,M,FEW,SCT,BKN,M,5000.00,6000.00,7000.00,M,M,M,M,M,M,M,M,59.00,KWYS 021955Z AUTO 22013KT 10SM FEW050 SCT060 BKN070 15/03 A3019 RMK AO2,M
WYS,2024-07-02 20:55,59.00,39.20,47.72,220.00,13.00,0.00,30.18,M,10.00,22.00,SCT,BKN,BKN,M,5500.00,6500.00,7500.00,M,M,M,M,M,M,M,M,59.00,KWYS 022055Z AUTO 22013G22KT 10SM SCT055 BKN065 BKN075 15/04 A3018 RMK AO2,M
WYS,2024-07-02 21:55,62.60,37.40,39.14,250.00,11.00,0.00,30.17,M,10.00,22.00,FEW,FEW,M,M,5000.00,6000.00,M,M,M,M,M,M,M,M,M,62.60,KWYS 022155Z AUTO 25011G22KT 10SM FEW050 FEW060 17/03 A3017 RMK AO2,M
WYS,2024-07-02 22:55,64.40,39.20,39.43,210.00,13.00,0.00,30.16,M,10.00,20.00,FEW,BKN,M,M,6000.00,9000.00,M,M,M,M,M,M,M,M,M,64.40,KWYS 022255Z AUTO 21013G20KT 10SM FEW060 BKN090 18/04 A3016 RMK AO2,M
WYS,2024-07-02 23:55,62.60,37.40,39.14,230.00,9.00,0.00,30.15,M,10.00,17.00,FEW,FEW,M,M,8000.00,10000.00,M,M,M,M,M,M,M,M,M,62.60,KWYS 022355Z AUTO 23009G17KT 10SM FEW080 FEW100 17/03 A3015 RMK AO2,M
WYS,2024-07-03 00:55,62.60,39.20,42.00,210.00,11.00,0.00,30.14,M,10.00,19.00,FEW,SCT,M,M,6000.00,9000.00,M,M,M,M,M,M,M,M,M,62.60,KWYS 030055Z AUTO 21011G19KT 10SM FEW060 SCT090 17/04 A3014 RMK AO2,M
WYS,2024-07-03 01:55,60.80,41.00,48.00,220.00,12.00,0.00,30.14,M,10.00,M,BKN,M,M,M,9000.00,M,M,M,M,M,M,M,M,M,M,60.80,KWYS 030155Z AUTO 22012KT 10SM BKN090 16/05 A3014 RMK AO2,M
WYS,2024-07-03 02:55,57.20,42.80,58.52,220.00,6.00,0.00,30.15,M,10.00,M,SCT,M,M,M,7500.00,M,M,M,M,M,M,M,M,M,M,57.20,KWYS 030255Z AUTO 22006KT 10SM SCT075 14/06 A3015 RMK AO2,M
WYS,2024-07-03 03:55,53.60,42.80,66.70,250.00,4.00,0.00,30.15,M,10.00,M,SCT,M,M,M,11000.00,M,M,M,M,M,M,M,M,M,M,53.60,KWYS 030355Z AUTO 25004KT 10SM SCT110 12/06 A3015 RMK AO2,M
WYS,2024-07-03 04:55,51.80,42.80,71.26,210.00,4.00,0.00,30.15,M,10.00,M,FEW,BKN,M,M,8500.00,11000.00,M,M,M,M,M,M,M,M,M,51.80,KWYS 030455Z AUTO 21004KT 10SM FEW085 BKN110 11/06 A3015 RMK AO2,M
WYS,2024-07-03 05:55,48.20,44.60,87.28,0.00,0.00,0.00,30.15,M,10.00,M,BKN,OVC,M,M,8000.00,10000.00,M,M,M,M,M,M,M,M,M,48.20,KWYS 030555Z AUTO 00000KT 10SM BKN080 OVC100 09/07 A3015 RMK AO2,M
WYS,2024-07-03 06:55,46.40,42.80,87.19,200.00,3.00,0.00,30.14,M,10.00,M,FEW,M,M,M,11000.00,M,M,M,M,M,M,M,M,M,M,45.15,KWYS 030655Z AUTO 20003KT 10SM FEW110 08/06 A3014 RMK AO2,M
WYS,2024-07-03 07:55,42.80,42.80,100.00,0.00,0.00,0.00,30.14,M,10.00,M,BKN,M,M,M,9000.00,M,M,M,M,M,M,M,M,M,M,42.80,KWYS 030755Z AUTO 00000KT 10SM BKN090 06/06 A3014 RMK AO2,M
WYS,2024-07-03 08:55,42.80,42.80,100.00,0.00,0.00,0.00,30.13,M,10.00,M,SCT,BKN,M,M,8000.00,11000.00,M,M,M,M,M,M,M,M,M,42.80,KWYS 030855Z AUTO 00000KT 10SM SCT080 BKN110 06/06 A3013 RMK AO2,M
WYS,2024-07-03 09:55,41.00,41.00,100.00,0.00,0.00,0.00,30.13,M,10.00,M,BKN,BKN,M,M,9000.00,11000.00,M,M,M,M,M,M,M,M,M,41.00,KWYS 030955Z AUTO 00000KT 10SM BKN090 BKN110 05/05 A3013 RMK AO2,M
WYS,2024-07-03 10:55,42.80,42.80,100.00,0.00,0.00,0.00,30.13,M,10.00,M,FEW,BKN,OVC,M,5500.00,8000.00,8500.00,M,M,M,M,M,M,M,M,42.80,KWYS 031055Z AUTO 00000KT 10SM FEW055 BKN080 OVC085 06/06 A3013 RMK AO2,M
WYS,2024-07-03 11:55,39.20,39.20,100.00,0.00,0.00,0.00,30.14,M,10.00,M,FEW,SCT,BKN,M,7500.00,9000.00,11000.00,M,M,M,M,M,M,M,M,39.20,KWYS 031155Z AUTO 00000KT 10SM FEW075 SCT090 BKN110 04/04 A3014 RMK AO2,M
WYS,2024-07-03 12:55,41.00,41.00,100.00,0.00,0.00,0.00,30.15,M,10.00,M,BKN,BKN,M,M,6500.00,7500.00,M,M,M,M,M,M,M,M,M,41.00,KWYS 031255Z AUTO 00000KT 10SM BKN065 BKN075 05/05 A3015 RMK AO2,M
WYS,2024-07-03 13:55,48.20,46.40,93.45,0.00,0.00,0.00,30.16,M,10.00,M,BKN,OVC,M,M,6000.00,7500.00,M,M,M,M,M,M,M,M,M,48.20,KWYS 031355Z AUTO 00000KT 10SM BKN060 OVC075 09/08 A3016 RMK AO2,M
WYS,2024-07-03 14:55,51.80,41.00,66.48,0.00,0.00,0.00,30.16,M,10.00,M,FEW,M,M,M,8500.00,M,M,M,M,M,M,M,M,M,M,51.80,KWYS 031455Z AUTO 00000KT 10SM FEW085 11/05 A3016 RMK AO2,M
WYS,2024-07-03 15:55,57.20,39.20,50.91,0.00,0.00,0.00,30.15,M,10.00,M,FEW,M,M,M,7500.00,M,M,M,M,M,M,M,M,M,M,57.20,KWYS 031555Z AUTO 00000KT 10SM FEW075 14/04 A3015 RMK AO2,M
WYS,2024-07-03 16:55,59.00,32.00,35.87,M,4.00,0.00,30.15,M,10.00,12.00,FEW,SCT,SCT,M,4700.00,5500.00,6500.00,M,M,M,M,M,M,M,M,59.00,KWYS 031655Z AUTO VRB04G12KT 10SM FEW047 SCT055 SCT065 15/00 A3015 RMK AO2,M
WYS,2024-07-03 17:55,59.00,33.80,38.56,260.00,9.00,0.00,30.16,M,10.00,17.00,FEW,M,M,M,11000.00,M,M,M,M,M,M,M,M,M,M,59.00,KWYS 031755Z AUTO 26009G17KT 10SM FEW110 15/01 A3016 RMK AO2,M
WYS,2024-07-03 18:55,60.80,33.80,36.16,280.00,8.00,0.01,30.15,M,10.00,15.00,SCT,BKN,BKN,M,6500.00,7500.00,9000.00,M,M,M,M,M,M,M,M,60.80,KWYS 031855Z AUTO 28008G15KT 240V310 10SM SCT065 BKN075 BKN090 16/01 A3015 RMK AO2 P0001,M
WYS,2024-07-03 19:55,62.60,32.00,31.56,290.00,8.00,0.00,30.15,M,10.00,19.00,SCT,M,M,M,10000.00,M,M,M,M,M,M,M,M,M,M,62.60,KWYS 031955Z AUTO 29008G19KT 260V320 10SM SCT100 17/M00 A3015 RMK AO2,M
WYS,2024-07-03 20:55,62.60,28.40,27.27,270.00,6.00,0.00,30.16,M,10.00,15.00,SCT,BKN,M,M,8000.00,10000.00,M,M,M,M,M,M,M,M,M,62.60,KWYS 032055Z AUTO 27006G15KT 10SM SCT080 BKN100 17/M02 A3016 RMK AO2,M
WYS,2024-07-03 21:55,59.00,32.00,35.87,290.00,9.00,0.00,30.19,M,10.00,24.00,FEW,SCT,BKN,M,6000.00,8000.00,9000.00,M,M,M,M,M,M,M,M,59.00,KWYS 032155Z AUTO 29009G24KT 250V330 10SM FEW060 SCT080 BKN090 15/M00 A3019 RMK AO2,M
WYS,2024-07-03 22:55,62.60,30.20,29.35,M,4.00,0.00,30.18,M,10.00,14.00,FEW,M,M,M,11000.00,M,M,M,M,M,M,M,M,M,M,62.60,KWYS 032255Z AUTO VRB04G14KT 10SM FEW110 17/M01 A3018 RMK AO2,M
WYS,2024-07-03 23:55,60.80,32.00,33.64,300.00,6.00,0.00,30.18,M,10.00,M,FEW,SCT,M,M,7500.00,11000.00,M,M,M,M,M,M,M,M,M,60.80,KWYS 032355Z AUTO 30006KT 10SM FEW075 SCT110 16/M00 A3018 RMK AO2,M
WYS,2024-07-04 00:55,62.60,30.20,29.35,310.00,7.00,0.00,30.19,M,10.00,14.00,FEW,FEW,BKN,M,7500.00,8500.00,11000.00,M,M,M,M,M,M,M,M,62.60,KWYS 040055Z AUTO 31007G14KT 240V350 10SM FEW075 FEW085 BKN110 17/M01 A3019 RMK AO2,M
WYS,2024-07-04 01:55,60.80,30.20,31.28,M,6.00,0.00,30.21,M,10.00,M,FEW,M,M,M,12000.00,M,M,M,M,M,M,M,M,M,M,60.80,KWYS 040155Z AUTO VRB06KT 10SM FEW120 16/M01 A3021 RMK AO2,M
WYS,2024-07-04 02:55,53.60,33.80,46.88,30.00,13.00,0.00,30.24,M,10.00,M,CLR,M,M,M,M,M,M,M,M,M,M,M,M,M,M,53.60,KWYS 040255Z AUTO 03013KT 10SM CLR 12/01 A3024 RMK AO2,M
WYS,2024-07-04 03:55,51.80,35.60,53.81,90.00,7.00,0.00,30.27,M,10.00,M,CLR,M,M,M,M,M,M,M,M,M,M,M,M,M,M,51.80,KWYS 040355Z AUTO 09007KT 10SM CLR 11/02 A3027 RMK AO2,M
WYS,2024-07-04 04:55,44.60,35.60,70.48,0.00,0.00,0.00,30.29,M,10.00,M,CLR,M,M,M,M,M,M,M,M,M,M,M,M,M,M,44.60,KWYS 040455Z AUTO 00000KT 10SM CLR 07/02 A3029 RMK AO2,M
WYS,2024-07-04 05:55,44.60,35.60,70.48,50.00,4.00,0.00,30.30,M,10.00,M,CLR,M,M,M,M,M,M,M,M,M,M,M,M,M,M,42.13,KWYS 040555Z AUTO 05004KT 10SM CLR 07/02 A3030 RMK AO2,M
WYS,2024-07-04 06:55,42.80,37.40,81.07,0.00,0.00,0.00,30.32,M,10.00,M,CLR,M,M,M,M,M,M,M,M,M,M,M,M,M,M,42.80,KWYS 040655Z AUTO 00000KT 10SM CLR 06/03 A3032 RMK AO2,M
WYS,2024-07-04 07:55,41.00,41.00,100.00,0.00,0.00,0.00,30.33,M,10.00,M,OVC,M,M,M,6000.00,M,M,M,M,M,M,M,M,M,M,41.00,KWYS 040755Z AUTO 00000KT 10SM OVC060 05/05 A3033 RMK AO2,M
WYS,2024-07-04 08:55,39.20,39.20,100.00,0.00,0.00,0.00,30.33,M,10.00,M,BKN,M,M,M,7000.00,M,M,M,M,M,M,M,M,M,M,39.20,KWYS 040855Z AUTO 00000KT 10SM BKN070 04/04 A3033 RMK AO2,M
WYS,2024-07-04 09:55,35.60,35.60,100.00,0.00,0.00,0.00,30.33,M,10.00,M,BKN,M,M,M,7000.00,M,M,M,M,M,M,M,M,M,M,35.60,KWYS 040955Z AUTO 00000KT 10SM BKN070 02/02 A3033 RMK AO2,M
WYS,2024-07-04 10:55,33.80,33.80,100.00,0.00,0.00,0.00,30.33,M,10.00,M,CLR,M,M,M,M,M,M,M,M,M,M,M,M,M,M,33.80,KWYS 041055Z AUTO 00000KT 10SM CLR 01/01 A3033 RMK AO2,M
WYS,2024-07-04 12:55,33.80,33.80,100.00,0.00,0.00,0.00,30.36,M,10.00,M,CLR,M,M,M,M,M,M,M,M,M,M,M,M,M,M,33.80,KWYS 041255Z AUTO 00000KT 10SM CLR 01/01 A3036 RMK AO2,M
WYS,2024-07-04 13:55,42.80,41.00,93.30,0.00,0.00,0.00,30.36,M,10.00,M,CLR,M,M,M,M,M,M,M,M,M,M,M,M,M,M,42.80,KWYS 041355Z AUTO 00000KT 10SM CLR 06/05 A3036 RMK AO2,M
WYS,2024-07-04 14:55,48.20,37.40,66.05,0.00,0.00,0.00,30.37,M,10.00,M,CLR,M,M,M,M,M,M,M,M,M,M,M,M,M,M,48.20,KWYS 041455Z AUTO 00000KT 10SM CLR 09/03 A3037 RMK AO2,M
WYS,2024-07-04 15:55,55.40,35.60,47.16,0.00,0.00,0.00,30.36,M,10.00,M,CLR,M,M,M,M,M,M,M,M,M,M,M,M,M,M,55.40,KWYS 041555Z AUTO 00000KT 10SM CLR 13/02 A3036 RMK AO2,M
WYS,2024-07-04 16:55,57.20,33.80,41.13,M,5.00,0.00,30.36,M,10.00,M,BKN,SCT,M,M,4800.00,6000.00,M,M,M,M,M,M,M,M,M,57.20,KWYS 041655Z AUTO VRB05KT 10SM BKN048 SCT060 14/01 A3036 RMK AO2,M
WYS,2024-07-04 17:55,59.00,32.00,35.87,M,4.00,0.00,30.36,M,10.00,M,SCT,M,M,M,7000.00,M,M,M,M,M,M,M,M,M,M,59.00,KWYS 041755Z AUTO VRB04KT 10SM SCT070 15/M00 A3036 RMK AO2,M
WYS,2024-07-04 18:55,60.80,30.20,31.28,M,6.00,0.00,30.35,M,10.00,16.00,FEW,M,M,M,6500.00,M,M,M,M,M,M,M,M,M,M,60.80,KWYS 041855Z AUTO VRB06G16KT 220V300 10SM FEW065 16/M01 A3035 RMK AO2,M
WYS,2024-07-04 19:55,62.60,30.20,29.35,0.00,0.00,0.00,30.35,M,10.00,11.00,SCT,SCT,M,M,7500.00,9000.00,M,M,M,M,M,M,M,M,M,62.60,KWYS 041955Z AUTO 00000G11KT 10SM SCT075 SCT090 17/M01 A3035 RMK AO2,M
WYS,2024-07-04 20:55,62.60,28.40,27.27,300.00,5.00,0.00,30.35,M,10.00,10.00,FEW,SCT,M,M,7000.00,8500.00,M,M,M,M,M,M,M,M,M,62.60,KWYS 042055Z AUTO 30005G10KT 10SM FEW070 SCT085 17/M02 A3035 RMK AO2,M
WYS,2024-07-04 21:55,64.40,32.00,29.63,250.00,12.00,0.00,30.34,M,10.00,M,SCT,BKN,M,M,7000.00,9500.00,M,M,M,M,M,M,M,M,M,64.40,KWYS 042155Z AUTO 25012KT 10SM SCT070 BKN095 18/M00 A3034 RMK AO2,M
WYS,2024-07-04 22:55,64.40,30.20,27.55,M,4.00,0.00,30.34,M,10.00,M,BKN,BKN,M,M,8000.00,9500.00,M,M,M,M,M,M,M,M,M,64.40,KWYS 042255Z AUTO VRB04KT 10SM BKN080 BKN095 18/M01 A3034 RMK AO2,M
WYS,2024-07-04 23:55,66.20,28.40,24.04,300.00,7.00,0.00,30.33,M,10.00,14.00,FEW,M,M,M,9500.00,M,M,M,M,M,M,M,M,M,M,66.20,KWYS 042355Z AUTO 30007G14KT 280V020 10SM FEW095 19/M02 A3033 RMK AO2,M
WYS,2024-07-05 00:55,66.20,26.60,22.33,M,6.00,0.00,30.33,M,10.00,12.00,FEW,M,M,M,9500.00,M,M,M,M,M,M,M,M,M,M,66.20,KWYS 050055Z AUTO VRB06G12KT 10SM FEW095 19/M03 A3033 RMK AO2,M
WYS,2024-07-05 01:55,64.40,28.40,25.60,320.00,4.00,0.00,30.34,M,10.00,12.00,FEW,M,M,M,10000.00,M,M,M,M,M,M,M,M,M,M,64.40,KWYS 050155Z AUTO 32004G12KT 10SM FEW100 18/M02 A3034 RMK AO2,M
WYS,2024-07-05 02:55,59.00,30.20,33.35,350.00,3.00,0.00,30.34,M,10.00,M,CLR,M,M,M,M,M,M,M,M,M,M,M,M,M,M,59.00,KWYS 050255Z AUTO 35003KT 10SM CLR 15/M01 A3034 RMK AO2,M
WYS,2024-07-05 03:55,51.80,33.80,50.08,0.00,0.00,0.00,30.36,M,10.00,M,CLR,M,M,M,M,M,M,M,M,M,M,M,M,M,M,51.80,KWYS 050355Z AUTO 00000KT 10SM CLR 11/01 A3036 RMK AO2,M
WYS,2024-07-05 04:55,44.60,35.60,70.48,0.00,0.00,0.00,30.37,M,10.00,M,CLR,M,M,M,M,M,M,M,M,M,M,M,M,M,M,44.60,KWYS 050455Z AUTO 00000KT 10SM CLR 07/02 A3037 RMK AO2,M
WYS,2024-07-05 05:55,42.80,35.60,75.50,0.00,0.00,0.00,30.38,M,10.00,M,CLR,M,M,M,M,M,M,M,M,M,M,M,M,M,M,42.80,KWYS 050555Z AUTO 00000KT 10SM CLR 06/02 A3038 RMK AO2,M
WYS,2024-07-05 06:55,39.20,39.20,100.00,0.00,0.00,0.00,30.39,M,10.00,M,CLR,M,M,M,M,M,M,M,M,M,M,M,M,M,M,39.20,KWYS 050655Z AUTO 00000KT 10SM CLR 04/04 A3039 RMK AO2,M
WYS,2024-07-05 07:55,37.40,37.40,100.00,0.00,0.00,0.00,30.38,M,10.00,M,CLR,M,M,M,M,M,M,M,M,M,M,M,M,M,M,37.40,KWYS 050755Z AUTO 00000KT 10SM CLR 03/03 A3038 RMK AO2,M
WYS,2024-07-05 08:55,33.80,33.80,100.00,0.00,0.00,0.00,30.38,M,10.00,M,CLR,M,M,M,M,M,M,M,M,M,M,M,M,M,M,33.80,KWYS 050855Z AUTO 00000KT 10SM CLR 01/01 A3038 RMK AO2,M
WYS,2024-07-05 09:55,32.00,32.00,100.00,0.00,0.00,0.00,30.37,M,10.00,M,CLR,M,M,M,M,M,M,M,M,M,M,M,M,M,M,32.00,KWYS 050955Z AUTO 00000KT 10SM CLR 00/00 A3037 RMK AO2,M
WYS,2024-07-05 10:55,30.20,30.20,100.00,0.00,0.00,0.00,30.38,M,10.00,M,CLR,M,M,M,M,M,M,M,M,M,M,M,M,M,M,30.20,KWYS 051055Z AUTO 00000KT 10SM CLR M01/M01 A3038 RMK AO2,M
WYS,2024-07-05 11:55,30.20,30.20,100.00,0.00,0.00,0.00,30.38,M,10.00,M,CLR,M,M,M,M,M,M,M,M,M,M,M,M,M,M,30.20,KWYS 051155Z AUTO 00000KT 10SM CLR M01/M01 A3038 RMK AO2,M
WYS,2024-07-05 12:55,33.80,33.80,100.00,0.00,0.00,0.00,30.39,M,10.00,M,CLR,M,M,M,M,M,M,M,M,M,M,M,M,M,M,33.80,KWYS 051255Z AUTO 00000KT 10SM CLR 01/01 A3039 RMK AO2,M
WYS,2024-07-05 13:55,42.80,37.40,81.07,0.00,0.00,0.00,30.39,M,10.00,M,CLR,M,M,M,M,M,M,M,M,M,M,M,M,M,M,42.80,KWYS 051355Z AUTO 00000KT 10SM CLR 06/03 A3039 RMK AO2,M
WYS,2024-07-05 14:55,50.00,37.40,61.76,0.00,0.00,0.00,30.38,M,10.00,M,CLR,M,M,M,M,M,M,M,M,M,M,M,M,M,M,50.00,KWYS 051455Z AUTO 00000KT 10SM CLR 10/03 A3038 RMK AO2,M
WYS,2024-07-05 15:55,55.40,37.40,50.64,0.00,0.00,0.00,30.37,M,10.00,M,CLR,M,M,M,M,M,M,M,M,M,M,M,M,M,M,55.40,KWYS 051555Z AUTO 00000KT 10SM CLR 13/03 A3037 RMK AO2,M
WYS,2024-07-05 16:35,60.80,33.80,36.16,0.00,0.00,0.00,30.35,M,10.00,M,CLR,M,M,M,M,M,M,M,M,M,M,M,M,M,M,60.80,KWYS 051635Z AUTO 00000KT 10SM CLR 16/01 A3035 RMK AO2,M
WYS,2024-07-05 17:55,66.20,33.80,29.92,190.00,8.00,0.00,30.33,M,10.00,M,CLR,M,M,M,M,M,M,M,M,M,M,M,M,M,M,66.20,KWYS 051755Z AUTO 19008KT 10SM CLR 19/01 A3033 RMK AO2,M
WYS,2024-07-05 18:55,68.00,26.60,20.98,230.00,11.00,0.00,30.31,M,10.00,M,CLR,M,M,M,M,M,M,M,M,M,M,M,M,M,M,68.00,KWYS 051855Z AUTO 23011KT 10SM CLR 20/M03 A3031 RMK AO2,M
WYS,2024-07-05 19:55,71.60,30.20,21.50,250.00,8.00,0.00,30.30,M,10.00,15.00,CLR,M,M,M,M,M,M,M,M,M,M,M,M,M,M,71.60,KWYS 051955Z AUTO 25008G15KT 210V320 10SM CLR 22/M01 A3030 RMK AO2,M
WYS,2024-07-05 20:55,71.60,32.00,23.13,250.00,7.00,0.00,30.28,M,10.00,17.00,CLR,M,M,M,M,M,M,M,M,M,M,M,M,M,M,71.60,KWYS 052055Z AUTO 25007G17KT 220V300 10SM CLR 22/M00 A3028 RMK AO2,M
WYS,2024-07-05 21:55,73.40,30.20,20.23,230.00,10.00,0.00,30.26,M,10.00,16.00,FEW,M,M,M,9000.00,M,M,M,M,M,M,M,M,M,M,73.40,KWYS 052155Z AUTO 23010G16KT 210V270 10SM FEW090 23/M01 A3026 RMK AO2,M
WYS,2024-07-05 22:55,73.40,28.40,18.80,300.00,7.00,0.00,30.25,M,10.00,15.00,CLR,M,M,M,M,M,M,M,M,M,M,M,M,M,M,73.40,KWYS 052255Z AUTO 30007G15KT 250V360 10SM CLR 23/M02 A3025 RMK AO2,M
WYS,2024-07-05 23:55,73.40,28.40,18.80,M,3.00,0.00,30.23,M,10.00,12.00,FEW,M,M,M,10000.00,M,M,M,M,M,M,M,M,M,M,73.40,KWYS 052355Z AUTO VRB03G12KT 10SM FEW100 23/M02 A3023 RMK AO2,M
WYS,2024-07-06 00:55,73.40,30.20,20.23,250.00,8.00,0.00,30.22,M,10.00,14.00,FEW,M,M,M,10000.00,M,M,M,M,M,M,M,M,M,M,73.40,KWYS 060055Z AUTO 25008G14KT 230V300 10SM FEW100 23/M01 A3022 RMK AO2,M
WYS,2024-07-06 01:55,71.60,30.20,21.50,M,6.00,0.00,30.23,M,10.00,13.00,CLR,M,M,M,M,M,M,M,M,M,M,M,M,M,M,71.60,KWYS 060155Z AUTO VRB06G13KT 10SM CLR 22/M01 A3023 RMK AO2,M
WYS,2024-07-06 02:55,66.20,30.20,25.88,320.00,5.00,0.00,30.22,M,10.00,M,CLR,M,M,M,M,M,M,M,M,M,M,M,M,M,M,66.20,KWYS 060255Z AUTO 32005KT 10SM CLR 19/M01 A3022 RMK AO2,M
WYS,2024-07-06 03:55,57.20,33.80,41.13,0.00,0.00,0.00,30.24,M,10.00,M,CLR,M,M,M,M,M,M,M,M,M,M,M,M,M,M,57.20,KWYS 060355Z AUTO 00000KT 10SM CLR 14/01 A3024 RMK AO2,M
WYS,2024-07-06 04:55,50.00,35.60,57.52,0.00,0.00,0.00,30.25,M,10.00,M,CLR,M,M,M,M,M,M,M,M,M,M,M,M,M,M,50.00,KWYS 060455Z AUTO 00000KT 10SM CLR 10/02 A3025 RMK AO2,M
WYS,2024-07-06 05:55,46.40,35.60,65.83,0.00,0.00,0.00,30.24,M,10.00,M,CLR,M,M,M,M,M,M,M,M,M,M,M,M,M,M,46.40,KWYS 060555Z AUTO 00000KT 10SM CLR 08/02 A3024 RMK AO2,M
WYS,2024-07-06 06:55,44.60,37.40,75.68,0.00,0.00,0.00,30.24,M,10.00,M,CLR,M,M,M,M,M,M,M,M,M,M,M,M,M,M,44.60,KWYS 060655Z AUTO 00000KT 10SM CLR 07/03 A3024 RMK AO2,M
WYS,2024-07-06 07:55,41.00,37.40,86.89,0.00,0.00,0.00,30.24,M,10.00,M,CLR,M,M,M,M,M,M,M,M,M,M,M,M,M,M,41.00,KWYS 060755Z AUTO 00000KT 10SM CLR 05/03 A3024 RMK AO2,M
WYS,2024-07-06 08:55,39.20,39.20,100.00,0.00,0.00,0.00,30.24,M,10.00,M,CLR,M,M,M,M,M,M,M,M,M,M,M,M,M,M,39.20,KWYS 060855Z AUTO 00000KT 10SM CLR 04/04 A3024 RMK AO2,M
WYS,2024-07-06 09:55,37.40,37.40,100.00,0.00,0.00,0.00,30.24,M,10.00,M,CLR,M,M,M,M,M,M,M,M,M,M,M,M,M,M,37.40,KWYS 060955Z AUTO 00000KT 10SM CLR 03/03 A3024 RMK AO2,M
WYS,2024-07-06 10:55,33.80,33.80,100.00,0.00,0.00,0.00,30.23,M,10.00,M,CLR,M,M,M,M,M,M,M,M,M,M,M,M,M,M,33.80,KWYS 061055Z AUTO 00000KT 10SM CLR 01/01 A3023 RMK AO2,M
WYS,2024-07-06 11:55,32.00,32.00,100.00,0.00,0.00,0.00,30.24,M,10.00,M,CLR,M,M,M,M,M,M,M,M,M,M,M,M,M,M,32.00,KWYS 061155Z AUTO 00000KT 10SM CLR 00/00 A3024 RMK AO2,M
WYS,2024-07-06 12:55,37.40,37.40,100.00,0.00,0.00,0.00,30.23,M,10.00,M,CLR,M,M,M,M,M,M,M,M,M,M,M,M,M,M,37.40,KWYS 061255Z AUTO 00000KT 10SM CLR 03/03 A3023 RMK AO2,M
WYS,2024-07-06 13:55,46.40,37.40,70.68,0.00,0.00,0.00,30.23,M,10.00,M,CLR,M,M,M,M,M,M,M,M,M,M,M,M,M,M,46.40,KWYS 061355Z AUTO 00000KT 10SM CLR 08/03 A3023 RMK AO2,M
WYS,2024-07-06 14:55,53.60,39.20,58.02,0.00,0.00,0.00,30.23,M,10.00,M,CLR,M,M,M,M,M,M,M,M,M,M,M,M,M,M,53.60,KWYS 061455Z AUTO 00000KT 10SM CLR 12/04 A3023 RMK AO2,M
WYS,2024-07-06 15:55,60.80,39.20,44.76,170.00,4.00,0.00,30.21,M,10.00,M,CLR,M,M,M,M,M,M,M,M,M,M,M,M,M,M,60.80,KWYS 061555Z AUTO 17004KT 10SM CLR 16/04 A3021 RMK AO2,M
WYS,2024-07-06 16:55,66.20,33.80,29.92,M,4.00,0.00,30.19,M,10.00,17.00,SCT,SCT,M,M,6500.00,7500.00,M,M,M,M,M,M,M,M,M,66.20,KWYS 061655Z AUTO VRB04G17KT 10SM SCT065 SCT075 19/01 A3019 RMK AO2,M
WYS,2024-07-06 17:55,68.00,32.00,26.15,M,4.00,0.00,30.19,M,10.00,M,FEW,M,M,M,7500.00,M,M,M,M,M,M,M,M,M,M,68.00,KWYS 061755Z AUTO VRB04KT 10SM FEW075 20/M00 A3019 RMK AO2,M
WYS,2024-07-06 18:55,69.80,32.00,24.59,0.00,0.00,0.00,30.18,M,10.00,14.00,FEW,M,M,M,8000.00,M,M,M,M,M,M,M,M,M,M,69.80,KWYS 061855Z AUTO 00000G14KT 10SM FEW080 21/M00 A3018 RMK AO2,M
WYS,2024-07-06 19:55,69.80,32.00,24.59,270.00,9.00,0.00,30.16,M,10.00,22.00,FEW,FEW,M,M,8000.00,11000.00,M,M,M,M,M,M,M,M,M,69.80,KWYS 061955Z AUTO 27009G22KT 210V290 10SM FEW080 FEW110 21/M00 A3016 RMK AO2,M
WYS,2024-07-06 20:55,69.80,32.00,24.59,270.00,9.00,0.00,30.15,M,10.00,15.00,SCT,BKN,M,M,8500.00,11000.00,M,M,M,M,M,M,M,M,M,69.80,KWYS 062055Z AUTO 27009G15KT 240V310 10SM SCT085 BKN110 21/M00 A3015 RMK AO2,M
WYS,2024-07-06 21:55,69.80,30.20,22.86,290.00,7.00,0.00,30.13,M,10.00,13.00,FEW,M,M,M,12000.00,M,M,M,M,M,M,M,M,M,M,69.80,KWYS 062155Z AUTO 29007G13KT 230V330 10SM FEW120 21/M01 A3013 RMK AO2,M
WYS,2024-07-06 22:55,71.60,32.00,23.13,M,5.00,0.00,30.13,M,10.00,M,CLR,M,M,M,M,M,M,M,M,M,M,M,M,M,M,71.60,KWYS 062255Z AUTO VRB05KT 10SM CLR 22/M00 A3013 RMK AO2,M
WYS,2024-07-06 23:55,73.40,26.60,17.46,M,6.00,0.00,30.12,M,10.00,14.00,FEW,M,M,M,12000.00,M,M,M,M,M,M,M,M,M,M,73.40,KWYS 062355Z AUTO VRB06G14KT 10SM FEW120 23/M03 A3012 RMK AO2,M
WYS,2024-07-07 00:55,73.40,24.80,16.20,330.00,12.00,0.00,30.12,M,10.00,20.00,CLR,M,M,M,M,M,M,M,M,M,M,M,M,M,M,73.40,KWYS 070055Z AUTO 33012G20KT 10SM CLR 23/M04 A3012 RMK AO2,M
WYS,2024-07-07 01:55,71.60,24.80,17.22,M,5.00,0.00,30.13,M,10.00,10.00,FEW,M,M,M,12000.00,M,M,M,M,M,M,M,M,M,M,71.60,KWYS 070155Z AUTO VRB05G10KT 10SM FEW120 22/M04 A3013 RMK AO2,M
WYS,2024-07-07 02:55,62.60,41.00,45.04,20.00,11.00,0.00,30.16,M,10.00,M,CLR,M,M,M,M,M,M,M,M,M,M,M,M,M,M,62.60,KWYS 070255Z AUTO 02011KT 10SM CLR 17/05 A3016 RMK AO2,M
WYS,2024-07-07 03:55,59.00,41.00,51.18,30.00,4.00,0.00,30.19,M,10.00,11.00,CLR,M,M,M,M,M,M,M,M,M,M,M,M,M,M,59.00,KWYS 070355Z AUTO 03004G11KT 10SM CLR 15/05 A3019 RMK AO2,M
WYS,2024-07-07 04:55,57.20,41.00,54.60,40.00,4.00,0.00,30.21,M,10.00,M,CLR,M,M,M,M,M,M,M,M,M,M,M,M,M,M,57.20,KWYS 070455Z AUTO 04004KT 10SM CLR 14/05 A3021 RMK AO2,M
WYS,2024-07-07 05:35,55.40,39.20,54.34,360.00,7.00,0.00,30.21,M,10.00,12.00,CLR,M,M,M,M,M,M,M,M,M,M,M,M,M,M,55.40,KWYS 070535Z AUTO 36007G12KT 10SM CLR 13/04 A3021 RMK AO2,M
WYS,2024-07-07 06:55,50.00,39.20,66.27,0.00,0.00,0.00,30.23,M,10.00,M,CLR,M,M,M,M,M,M,M,M,M,M,M,M,M,M,50.00,KWYS 070655Z AUTO 00000KT 10SM CLR 10/04 A3023 RMK AO2,M
WYS,2024-07-07 07:55,46.40,39.20,75.84,160.00,3.00,0.00,30.23,M,10.00,M,CLR,M,M,M,M,M,M,M,M,M,M,M,M,M,M,45.15,KWYS 070755Z AUTO 16003KT 10SM CLR 08/04 A3023 RMK AO2,M
WYS,2024-07-07 08:55,41.00,41.00,100.00,0.00,0.00,0.00,30.23,M,10.00,M,CLR,M,M,M,M,M,M,M,M,M,M,M,M,M,M,41.00,KWYS 070855Z AUTO 00000KT 10SM CLR 05/05 A3023 RMK AO2,M
WYS,2024-07-07 09:55,39.20,39.20,100.00,0.00,0.00,0.00,30.23,M,10.00,M,CLR,M,M,M,M,M,M,M,M,M,M,M,M,M,M,39.20,KWYS 070955Z AUTO 00000KT 10SM CLR 04/04 A3023 RMK AO2,M
WYS,2024-07-07 10:55,37.40,37.40,100.00,0.00,0.00,0.00,30.24,M,10.00,M,SCT,M,M,M,9000.00,M,M,M,M,M,M,M,M,M,M,37.40,KWYS 071055Z AUTO 00000KT 10SM SCT090 03/03 A3024 RMK AO2,M
WYS,2024-07-07 11:55,35.60,35.60,100.00,0.00,0.00,0.00,30.25,M,10.00,M,SCT,M,M,M,9500.00,M,M,M,M,M,M,M,M,M,M,35.60,KWYS 071155Z AUTO 00000KT 10SM SCT095 02/02 A3025 RMK AO2,M
WYS,2024-07-07 12:55,41.00,41.00,100.00,0.00,0.00,0.00,30.26,M,10.00,M,CLR,M,M,M,M,M,M,M,M,M,M,M,M,M,M,41.00,KWYS 071255Z AUTO 00000KT 10SM CLR 05/05 A3026 RMK AO2,M
WYS,2024-07-07 13:55,50.00,41.00,71.07,0.00,0.00,0.00,30.28,M,10.00,M,CLR,M,M,M,M,M,M,M,M,M,M,M,M,M,M,50.00,KWYS 071355Z AUTO 00000KT 10SM CLR 10/05 A3028 RMK AO2,M
WYS,2024-07-07 14:55,55.40,41.00,58.27,0.00,0.00,0.00,30.28,M,10.00,M,CLR,M,M,M,M,M,M,M,M,M,M,M,M,M,M,55.40,KWYS 071455Z AUTO 00000KT 10SM CLR 13/05 A3028 RMK AO2,M
WYS,2024-07-07 15:55,60.80,37.40,41.71,0.00,0.00,0.00,30.27,M,10.00,M,CLR,M,M,M,M,M,M,M,M,M,M,M,M,M,M,60.80,KWYS 071555Z AUTO 00000KT 10SM CLR 16/03 A3027 RMK AO2,M
WYS,2024-07-07 16:55,64.40,35.60,34.22,80.00,11.00,0.00,30.27,M,10.00,M,FEW,FEW,M,M,6000.00,7000.00,M,M,M,M,M,M,M,M,M,64.40,KWYS 071655Z AUTO 08011KT 10SM FEW060 FEW070 18/02 A3027 RMK AO2,M
WYS,2024-07-07 17:55,66.20,32.00,27.83,20.00,6.00,0.00,30.28,M,10.00,17.00,BKN,BKN,M,M,7500.00,8500.00,M,M,M,M,M,M,M,M,M,66.20,KWYS 071755Z AUTO 02006G17KT 10SM BKN075 BKN085 19/00 A3028 RMK AO2,M
WYS,2024-07-07 18:55,68.00,32.00,26.15,M,5.00,0.00,30.28,M,10.00,11.00,FEW,BKN,M,M,7500.00,9000.00,M,M,M,M,M,M,M,M,M,68.00,KWYS 071855Z AUTO VRB05G11KT 10SM FEW075 BKN090 20/00 A3028 RMK AO2,M
WYS,2024-07-07 19:55,69.80,33.80,26.43,0.00,0.00,0.00,30.28,M,10.00,10.00,SCT,BKN,M,M,8000.00,9000.00,M,M,M,M,M,M,M,M,M,69.80,KWYS 071955Z AUTO 00000G10KT 10SM SCT080 BKN090 21/01 A3028 RMK AO2,M
WYS,2024-07-07 20:55,69.80,33.80,26.43,M,4.00,0.00,30.27,M,10.00,M,FEW,BKN,M,M,8000.00,9500.00,M,M,M,M,M,M,M,M,M,69.80,KWYS 072055Z AUTO VRB04KT 10SM FEW080 BKN095 21/01 A3027 RMK AO2,M
WYS,2024-07-07 21:50,73.40,32.00,21.76,M,5.00,0.00,30.26,M,10.00,12.00,BKN,M,M,M,9000.00,M,M,M,M,M,M,M,M,M,M,73.40,KWYS 072150Z AUTO VRB05G12KT 10SM BKN090 23/M00 A3026 RMK AO2,M
WYS,2024-07-07 22:55,73.40,33.80,23.39,M,3.00,0.00,30.25,M,10.00,15.00,SCT,M,M,M,8500.00,M,M,M,M,M,M,M,M,M,M,73.40,KWYS 072255Z AUTO VRB03G15KT 10SM SCT085 23/01 A3025 RMK AO2,M
WYS,2024-07-07 23:55,73.40,32.00,21.76,270.00,7.00,0.00,30.24,M,10.00,M,FEW,M,M,M,9000.00,M,M,M,M,M,M,M,M,M,M,73.40,KWYS 072355Z AUTO 27007KT 250V310 10SM FEW090 23/00 A3024 RMK AO2,M
WYS,2024-07-08 00:55,71.60,32.00,23.13,M,4.00,0.00,30.25,M,10.00,M,CLR,M,M,M,M,M,M,M,M,M,M,M,M,M,M,71.60,KWYS 080055Z AUTO VRB04KT 10SM CLR 22/M00 A3025 RMK AO2,M
WYS,2024-07-08 01:55,69.80,28.40,21.24,20.00,8.00,0.00,30.25,M,10.00,M,FEW,M,M,M,9000.00,M,M,M,M,M,M,M,M,M,M,69.80,KWYS 080155Z AUTO 02008KT 10SM FEW090 21/M02 A3025 RMK AO2,M
WYS,2024-07-08 02:55,64.40,26.60,23.77,30.00,5.00,0.00,30.26,M,10.00,M,CLR,M,M,M,M,M,M,M,M,M,M,M,M,M,M,64.40,KWYS 080255Z AUTO 03005KT 10SM CLR 18/M03 A3026 RMK AO2,M
WYS,2024-07-08 03:55,53.60,32.00,43.61,0.00,0.00,0.00,30.27,M,10.00,M,CLR,M,M,M,M,M,M,M,M,M,M,M,M,M,M,53.60,KWYS 080355Z AUTO 00000KT 10SM CLR 12/00 A3027 RMK AO2,M
WYS,2024-07-08 04:55,48.20,33.80,57.26,0.00,0.00,0.00,30.27,M,10.00,M,CLR,M,M,M,M,M,M,M,M,M,M,M,M,M,M,48.20,KWYS 080455Z AUTO 00000KT 10SM CLR 09/01 A3027 RMK AO2,M
WYS,2024-07-08 05:55,46.40,33.80,61.28,50.00,4.00,0.00,30.27,M,10.00,M,CLR,M,M,M,M,M,M,M,M,M,M,M,M,M,M,44.24,KWYS 080555Z AUTO 05004KT 10SM CLR 08/01 A3027 RMK AO2,M
WYS,2024-07-08 06:55,42.80,35.60,75.50,0.00,0.00,0.00,30.28,M,10.00,M,CLR,M,M,M,M,M,M,M,M,M,M,M,M,M,M,42.80,KWYS 080655Z AUTO 00000KT 10SM CLR 06/02 A3028 RMK AO2,M
WYS,2024-07-08 07:55,41.00,35.60,80.93,0.00,0.00,0.00,30.28,M,10.00,M,CLR,M,M,M,M,M,M,M,M,M,M,M,M,M,M,41.00,KWYS 080755Z AUTO 00000KT 10SM CLR 05/02 A3028 RMK AO2,M
WYS,2024-07-08 08:55,39.20,35.60,86.79,0.00,0.00,0.00,30.29,M,10.00,M,CLR,M,M,M,M,M,M,M,M,M,M,M,M,M,M,39.20,KWYS 080855Z AUTO 00000KT 10SM CLR 04/02 A3029 RMK AO2,M
WYS,2024-07-08 09:55,35.60,37.40,M,0.00,0.00,0.00,30.29,M,10.00,M,CLR,M,M,M,M,M,M,M,M,M,M,M,M,M,M,M,KWYS 080955Z AUTO 00000KT 10SM CLR 02/03 A3029 RMK AO2,M
WYS,2024-07-08 10:55,33.80,35.60,M,0.00,0.00,0.00,30.29,M,10.00,M,CLR,M,M,M,M,M,M,M,M,M,M,M,M,M,M,M,KWYS 081055Z AUTO 00000KT 10SM CLR 01/02 A3029 RMK AO2,M
WYS,2024-07-08 11:55,32.00,32.00,100.00,0.00,0.00,0.00,30.30,M,10.00,M,CLR,M,M,M,M,M,M,M,M,M,M,M,M,M,M,32.00,KWYS 081155Z AUTO 00000KT 10SM CLR 00/00 A3030 RMK AO2,M
WYS,2024-07-08 12:55,37.40,37.40,100.00,0.00,0.00,0.00,30.30,M,10.00,M,CLR,M,M,M,M,M,M,M,M,M,M,M,M,M,M,37.40,KWYS 081255Z AUTO 00000KT 10SM CLR 03/03 A3030 RMK AO2,M
WYS,2024-07-08 13:55,48.20,37.40,66.05,0.00,0.00,0.00,30.30,M,10.00,M,CLR,M,M,M,M,M,M,M,M,M,M,M,M,M,M,48.20,KWYS 081355Z AUTO 00000KT 10SM CLR 09/03 A3030 RMK AO2,M
WYS,2024-07-08 14:55,53.60,37.40,54.07,0.00,0.00,0.00,30.29,M,10.00,M,CLR,M,M,M,M,M,M,M,M,M,M,M,M,M,M,53.60,KWYS 081455Z AUTO 00000KT 10SM CLR 12/03 A3029 RMK AO2,M
WYS,2024-07-08 15:55,60.80,35.60,38.85,0.00,0.00,0.00,30.28,M,10.00,M,CLR,M,M,M,M,M,M,M,M,M,M,M,M,M,M,60.80,KWYS 081555Z AUTO 00000KT 10SM CLR 16/02 A3028 RMK AO2,M
WYS,2024-07-08 16:55,68.00,39.20,34.80,0.00,0.00,0.00,30.26,M,10.00,M,CLR,M,M,M,M,M,M,M,M,M,M,M,M,M,M,68.00,KWYS 081655Z AUTO 00000KT 10SM CLR 20/04 A3026 RMK AO2,M
WYS,2024-07-08 17:55,73.40,37.40,26.98,220.00,8.00,0.00,30.24,M,10.00,14.00,CLR,M,M,M,M,M,M,M,M,M,M,M,M,M,M,73.40,KWYS 081755Z AUTO 22008G14KT 210V310 10SM CLR 23/03 A3024 RMK AO2,M
WYS,2024-07-08 18:55,77.00,35.60,22.28,220.00,9.00,0.00,30.23,M,10.00,18.00,SCT,M,M,M,8000.00,M,M,M,M,M,M,M,M,M,M,77.00,KWYS 081855Z AUTO 22009G18KT 180V260 10SM SCT080 25/02 A3023 RMK AO2,M
WYS,2024-07-08 19:55,77.00,35.60,22.28,230.00,10.00,0.00,30.23,M,10.00,18.00,FEW,M,M,M,8500.00,M,M,M,M,M,M,M,M,M,M,77.00,KWYS 081955Z AUTO 23010G18KT 10SM FEW085 25/02 A3023 RMK AO2,M
WYS,2024-07-08 20:55,77.00,35.60,22.28,240.00,8.00,0.00,30.22,M,10.00,19.00,SCT,M,M,M,9000.00,M,M,M,M,M,M,M,M,M,M,77.00,KWYS 082055Z AUTO 24008G19KT 210V270 10SM SCT090 25/02 A3022 RMK AO2,M
WYS,2024-07-08 21:55,78.80,35.60,21.00,220.00,11.00,0.00,30.20,M,10.00,M,CLR,M,M,M,M,M,M,M,M,M,M,M,M,M,M,78.80,KWYS 082155Z AUTO 22011KT 190V250 10SM CLR 26/02 A3020 RMK AO2,M
WYS,2024-07-08 22:55,78.80,35.60,21.00,M,5.00,0.00,30.20,M,10.00,13.00,CLR,M,M,M,M,M,M,M,M,M,M,M,M,M,M,78.80,KWYS 082255Z AUTO VRB05G13KT 10SM CLR 26/02 A3020 RMK AO2,M
WYS,2024-07-08 23:55,78.80,37.40,22.54,250.00,8.00,0.00,30.19,M,10.00,14.00,CLR,M,M,M,M,M,M,M,M,M,M,M,M,M,M,78.80,KWYS 082355Z AUTO 25008G14KT 10SM CLR 26/03 A3019 RMK AO2,M
WYS,2024-07-09 00:55,78.80,37.40,22.54,220.00,11.00,0.00,30.19,M,10.00,M,FEW,M,M,M,11000.00,M,M,M,M,M,M,M,M,M,M,78.80,KWYS 090055Z AUTO 22011KT 10SM FEW110 26/03 A3019 RMK AO2,M
WYS,2024-07-09 01:55,77.00,37.40,23.93,250.00,7.00,0.00,30.19,M,10.00,M,SCT,M,M,M,10000.00,M,M,M,M,M,M,M,M,M,M,77.00,KWYS 090155Z AUTO 25007KT 230V290 10SM SCT100 25/03 A3019 RMK AO2,M
WYS,2024-07-09 02:55,71.60,39.20,30.77,220.00,8.00,0.00,30.20,M,10.00,M,CLR,M,M,M,M,M,M,M,M,M,M,M,M,M,M,71.60,KWYS 090255Z AUTO 22008KT 10SM CLR 22/04 A3020 RMK AO2,M
WYS,2024-07-09 03:55,68.00,39.20,34.80,0.00,0.00,0.00,30.23,M,10.00,M,CLR,M,M,M,M,M,M,M,M,M,M,M,M,M,M,68.00,KWYS 090355Z AUTO 00000KT 10SM CLR 20/04 A3023 RMK AO2,M
WYS,2024-07-09 04:55,59.00,41.00,51.18,0.00,0.00,0.00,30.25,M,10.00,M,CLR,M,M,M,M,M,M,M,M,M,M,M,M,M,M,59.00,KWYS 090455Z AUTO 00000KT 10SM CLR 15/05 A3025 RMK AO2,M
WYS,2024-07-09 05:55,51.80,41.00,66.48,0.00,0.00,0.00,30.26,M,10.00,M,CLR,M,M,M,M,M,M,M,M,M,M,M,M,M,M,51.80,KWYS 090555Z AUTO 00000KT 10SM CLR 11/05 A3026 RMK AO2,M
WYS,2024-07-09 06:55,50.00,41.00,71.07,230.00,3.00,0.00,30.26,M,10.00,M,CLR,M,M,M,M,M,M,M,M,M,M,M,M,M,M,50.00,KWYS 090655Z AUTO 23003KT 10SM CLR 10/05 A3026 RMK AO2,M
WYS,2024-07-09 07:55,48.20,42.80,81.47,0.00,0.00,0.00,30.26,M,10.00,M,CLR,M,M,M,M,M,M,M,M,M,M,M,M,M,M,48.20,KWYS 090755Z AUTO 00000KT 10SM CLR 09/06 A3026 RMK AO2,M
WYS,2024-07-09 08:55,44.60,42.80,93.35,0.00,0.00,0.00,30.26,M,10.00,M,CLR,M,M,M,M,M,M,M,M,M,M,M,M,M,M,44.60,KWYS 090855Z AUTO 00000KT 10SM CLR 07/06 A3026 RMK AO2,M
WYS,2024-07-09 09:55,41.00,41.00,100.00,0.00,0.00,0.00,30.27,M,10.00,M,CLR,M,M,M,M,M,M,M,M,M,M,M,M,M,M,41.00,KWYS 090955Z AUTO 00000KT 10SM CLR 05/05 A3027 RMK AO2,M
WYS,2024-07-09 10:55,41.00,41.00,100.00,0.00,0.00,0.00,30.27,M,10.00,M,CLR,M,M,M,M,M,M,M,M,M,M,M,M,M,M,41.00,KWYS 091055Z AUTO 00000KT 10SM CLR 05/05 A3027 RMK AO2,M
WYS,2024-07-09 11:55,39.20,39.20,100.00,0.00,0.00,0.00,30.28,M,10.00,M,CLR,M,M,M,M,M,M,M,M,M,M,M,M,M,M,39.20,KWYS 091155Z AUTO 00000KT 10SM CLR 04/04 A3028 RMK AO2,M
WYS,2024-07-09 12:55,42.80,42.80,100.00,0.00,0.00,0.00,30.30,M,10.00,M,CLR,M,M,M,M,M,M,M,M,M,M,M,M,M,M,42.80,KWYS 091255Z AUTO 00000KT 10SM CLR 06/06 A3030 RMK AO2,M
WYS,2024-07-09 13:55,51.80,42.80,71.26,0.00,0.00,0.00,30.30,M,10.00,M,CLR,M,M,M,M,M,M,M,M,M,M,M,M,M,M,51.80,KWYS 091355Z AUTO 00000KT 10SM CLR 11/06 A3030 RMK AO2,M
WYS,2024-07-09 14:55,59.00,42.80,54.86,0.00,0.00,0.00,30.31,M,10.00,M,CLR,M,M,M,M,M,M,M,M,M,M,M,M,M,M,59.00,KWYS 091455Z AUTO 00000KT 10SM CLR 15/06 A3031 RMK AO2,M
WYS,2024-07-09 15:55,66.20,42.80,42.57,0.00,0.00,0.00,30.30,M,10.00,M,CLR,M,M,M,M,M,M,M,M,M,M,M,M,M,M,66.20,KWYS 091555Z AUTO 00000KT 10SM CLR 19/06 A3030 RMK AO2,M
WYS,2024-07-09 16:55,73.40,42.80,33.29,0.00,0.00,0.00,30.29,M,10.00,M,CLR,M,M,M,M,M,M,M,M,M,M,M,M,M,M,73.40,KWYS 091655Z AUTO 00000KT 10SM CLR 23/06 A3029 RMK AO2,M
WYS,2024-07-09 17:55,77.00,39.20,25.67,0.00,0.00,0.00,30.27,M,10.00,M,CLR,M,M,M,M,M,M,M,M,M,M,M,M,M,M,77.00,KWYS 091755Z AUTO 00000KT 10SM CLR 25/04 A3027 RMK AO2,M
WYS,2024-07-09 18:50,80.60,35.60,19.79,M,4.00,0.00,30.26,M,10.00,13.00,CLR,M,M,M,M,M,M,M,M,M,M,M,M,M,M,78.94,KWYS 091850Z AUTO VRB04G13KT 10SM CLR 27/02 A3026 RMK AO2,M
WYS,2024-07-09 19:55,80.60,35.60,19.79,M,4.00,0.00,30.25,M,10.00,11.00,BKN,M,M,M,9500.00,M,M,M,M,M,M,M,M,M,M,78.94,KWYS 091955Z AUTO VRB04G11KT 10SM BKN095 27/02 A3025 RMK AO2,M
WYS,2024-07-09 20:55,82.40,33.80,17.38,270.00,6.00,0.00,30.24,M,10.00,15.00,CLR,M,M,M,M,M,M,M,M,M,M,M,M,M,M,80.03,KWYS 092055Z AUTO 27006G15KT 10SM CLR 28/01 A3024 RMK AO2,M
WYS,2024-07-09 21:55,80.60,32.00,17.14,0.00,0.00,0.00,30.24,M,10.00,M,CLR,M,M,M,M,M,M,M,M,M,M,M,M,M,M,78.82,KWYS 092155Z AUTO 00000KT 10SM CLR 27/00 A3024 RMK AO2,M
WYS,2024-07-09 22:55,84.20,30.20,14.18,M,4.00,0.00,30.23,M,10.00,18.00,FEW,M,M,M,12000.00,M,M,M,M,M,M,M,M,M,M,81.26,KWYS 092255Z AUTO VRB04G18KT 10SM FEW120 29/M01 A3023 RMK AO2,M
WYS,2024-07-09 23:55,84.20,35.60,17.61,230.00,11.00,0.00,30.22,M,10.00,M,CLR,M,M,M,M,M,M,M,M,M,M,M,M,M,M,81.34,KWYS 092355Z AUTO 23011KT 10SM CLR 29/02 A3022 RMK AO2,M
WYS,2024-07-10 00:55,82.40,35.60,18.67,240.00,10.00,0.00,30.22,M,10.00,16.00,CLR,M,M,M,M,M,M,M,M,M,M,M,M,M,M,80.08,KWYS 100055Z AUTO 24010G16KT 10SM CLR 28/02 A3022 RMK AO2,M
WYS,2024-07-10 01:55,80.60,37.40,21.25,360.00,5.00,0.00,30.23,M,10.00,M,CLR,M,M,M,M,M,M,M,M,M,M,M,M,M,M,79.02,KWYS 100155Z AUTO 36005KT 10SM CLR 27/03 A3023 RMK AO2,M
WYS,2024-07-10 02:55,71.60,42.80,35.37,0.00,0.00,0.00,30.24,M,10.00,M,CLR,M,M,M,M,M,M,M,M,M,M,M,M,M,M,71.60,KWYS 100255Z AUTO 00000KT 10SM CLR 22/06 A3024 RMK AO2,M
WYS,2024-07-10 03:55,62.60,42.80,48.28,0.00,0.00,0.00,30.25,M,10.00,M,CLR,M,M,M,M,M,M,M,M,M,M,M,M,M,M,62.60,KWYS 100355Z AUTO 00000KT 10SM CLR 17/06 A3025 RMK AO2,M
WYS,2024-07-10 04:55,59.00,44.60,58.77,0.00,0.00,0.00,30.26,M,10.00,M,CLR,M,M,M,M,M,M,M,M,M,M,M,M,M,M,59.00,KWYS 100455Z AUTO 00000KT 10SM CLR 15/07 A3026 RMK AO2,M
WYS,2024-07-10 05:55,55.40,44.60,66.91,0.00,0.00,0.00,30.27,M,10.00,M,CLR,M,M,M,M,M,M,M,M,M,M,M,M,M,M,55.40,KWYS 100555Z AUTO 00000KT 10SM CLR 13/07 A3027 RMK AO2,M
WYS,2024-07-10 06:55,55.40,44.60,66.91,0.00,0.00,0.00,30.28,M,10.00,M,FEW,M,M,M,12000.00,M,M,M,M,M,M,M,M,M,M,55.40,KWYS 100655Z AUTO 00000KT 10SM FEW120 13/07 A3028 RMK AO2,M
WYS,2024-07-10 07:55,51.80,44.60,76.34,0.00,0.00,0.00,30.28,M,10.00,M,FEW,M,M,M,12000.00,M,M,M,M,M,M,M,M,M,M,51.80,KWYS 100755Z AUTO 00000KT 10SM FEW120 11/07 A3028 RMK AO2,M
WYS,2024-07-10 08:55,48.20,46.40,93.45,0.00,0.00,0.00,30.28,M,10.00,M,CLR,M,M,M,M,M,M,M,M,M,M,M,M,M,M,48.20,KWYS 100855Z AUTO 00000KT 10SM CLR 09/08 A3028 RMK AO2,M
WYS,2024-07-10 09:55,46.40,46.40,100.00,0.00,0.00,0.00,30.28,M,10.00,M,CLR,M,M,M,M,M,M,M,M,M,M,M,M,M,M,46.40,KWYS 100955Z AUTO 00000KT 10SM CLR 08/08 A3028 RMK AO2,M
WYS,2024-07-10 10:55,44.60,44.60,100.00,0.00,0.00,0.00,30.28,M,10.00,M,CLR,M,M,M,M,M,M,M,M,M,M,M,M,M,M,44.60,KWYS 101055Z AUTO 00000KT 10SM CLR 07/07 A3028 RMK AO2,M
WYS,2024-07-10 11:55,42.80,42.80,100.00,0.00,0.00,0.00,30.29,M,10.00,M,CLR,M,M,M,M,M,M,M,M,M,M,M,M,M,M,42.80,KWYS 101155Z AUTO 00000KT 10SM CLR 06/06 A3029 RMK AO2,M
WYS,2024-07-10 12:55,44.60,44.60,100.00,0.00,0.00,0.00,30.31,M,10.00,M,CLR,M,M,M,M,M,M,M,M,M,M,M,M,M,M,44.60,KWYS 101255Z AUTO 00000KT 10SM CLR 07/07 A3031 RMK AO2,M
WYS,2024-07-10 13:55,53.60,46.40,76.50,0.00,0.00,0.00,30.31,M,10.00,M,CLR,M,M,M,M,M,M,M,M,M,M,M,M,M,M,53.60,KWYS 101355Z AUTO 00000KT 10SM CLR 12/08 A3031 RMK AO2,M
WYS,2024-07-10 14:55,60.80,44.60,55.12,0.00,0.00,0.00,30.32,M,10.00,M,CLR,M,M,M,M,M,M,M,M,M,M,M,M,M,M,60.80,KWYS 101455Z AUTO 00000KT 10SM CLR 16/07 A3032 RMK AO2,M
WYS,2024-07-10 15:55,68.00,44.60,42.85,0.00,0.00,0.00,30.31,M,10.00,M,CLR,M,M,M,M,M,M,M,M,M,M,M,M,M,M,68.00,KWYS 101555Z AUTO 00000KT 10SM CLR 20/07 A3031 RMK AO2,M
WYS,2024-07-10 16:55,73.40,42.80,33.29,280.00,3.00,0.00,30.30,M,10.00,M,CLR,M,M,M,M,M,M,M,M,M,M,M,M,M,M,73.40,KWYS 101655Z AUTO 28003KT 10SM CLR 23/06 A3030 RMK AO2,M
WYS,2024-07-10 17:55,80.60,42.80,26.22,M,6.00,0.00,30.28,M,10.00,M,CLR,M,M,M,M,M,M,M,M,M,M,M,M,M,M,79.30,KWYS 101755Z AUTO VRB06KT 10SM CLR 27/06 A3028 RMK AO2,M
WYS,2024-07-10 18:55,84.20,33.80,16.39,M,4.00,0.00,30.27,M,10.00,11.00,FEW,M,M,M,11000.00,M,M,M,M,M,M,M,M,M,M,81.30,KWYS 101855Z AUTO VRB04G11KT 10SM FEW110 29/01 A3027 RMK AO2,M
WYS,2024-07-10 19:55,86.00,26.60,11.55,360.00,9.00,0.00,30.26,M,10.00,17.00,FEW,M,M,M,12000.00,M,M,M,M,M,M,M,M,M,M,82.39,KWYS 101955Z AUTO 36009G17KT 10SM FEW120 30/M03 A3026 RMK AO2,M
WYS,2024-07-10 20:55,84.20,28.40,13.18,M,6.00,0.00,30.25,M,10.00,14.00,CLR,M,M,M,M,M,M,M,M,M,M,M,M,M,M,81.25,KWYS 102055Z AUTO VRB06G14KT 10SM CLR 29/M02 A3025 RMK AO2,M
WYS,2024-07-10 21:55,84.20,30.20,14.18,340.00,7.00,0.00,30.25,M,10.00,M,FEW,M,M,M,12000.00,M,M,M,M,M,M,M,M,M,M,81.26,KWYS 102155Z AUTO 34007KT 10SM FEW120 29/M01 A3025 RMK AO2,M
WYS,2024-07-10 22:55,86.00,28.40,12.44,M,3.00,0.00,30.23,M,10.00,M,CLR,M,M,M,M,M,M,M,M,M,M,M,M,M,M,82.54,KWYS 102255Z AUTO VRB03KT 10SM CLR 30/M02 A3023 RMK AO2,M
WYS,2024-07-10 23:55,84.20,30.20,14.18,M,5.00,0.00,30.23,M,10.00,M,CLR,M,M,M,M,M,M,M,M,M,M,M,M,M,M,81.26,KWYS 102355Z AUTO VRB05KT 10SM CLR 29/M01 A3023 RMK AO2,M
WYS,2024-07-11 00:55,86.00,30.20,13.38,M,3.00,0.00,30.22,M,10.00,M,CLR,M,M,M,M,M,M,M,M,M,M,M,M,M,M,82.64,KWYS 110055Z AUTO VRB03KT 10SM CLR 30/M01 A3022 RMK AO2,M
WYS,2024-07-11 01:55,84.20,32.00,15.25,0.00,0.00,0.00,30.22,M,10.00,M,CLR,M,M,M,M,M,M,M,M,M,M,M,M,M,M,81.28,KWYS 110155Z AUTO 00000KT 10SM CLR 29/M00 A3022 RMK AO2,M
WYS,2024-07-11 02:55,77.00,42.80,29.51,M,M,0.00,30.22,M,10.00,M,CLR,M,M,M,M,M,M,M,M,M,M,M,M,M,M,77.00,KWYS 110255Z AUTO 9.08333309KT 10SM CLR 25/06 A3022 RMK AO2,M
WYS,2024-07-11 03:55,71.60,42.80,35.37,0.00,0.00,0.00,30.23,M,10.00,M,CLR,M,M,M,M,M,M,M,M,M,M,M,M,M,M,71.60,KWYS 110355Z AUTO 00000KT 10SM CLR 22/06 A3023 RMK AO2,M
WYS,2024-07-11 04:55,68.00,42.80,40.00,0.00,0.00,0.00,30.24,M,10.00,M,CLR,M,M,M,M,M,M,M,M,M,M,M,M,M,M,68.00,KWYS 110455Z AUTO 00000KT 10SM CLR 20/06 A3024 RMK AO2,M
WYS,2024-07-11 05:55,60.80,42.80,51.45,0.00,0.00,0.00,30.25,M,10.00,M,CLR,M,M,M,M,M,M,M,M,M,M,M,M,M,M,60.80,KWYS 110555Z AUTO 00000KT 10SM CLR 16/06 A3025 RMK AO2,M
WYS,2024-07-11 06:55,55.40,42.80,62.46,0.00,0.00,0.00,30.26,M,10.00,M,CLR,M,M,M,M,M,M,M,M,M,M,M,M,M,M,55.40,KWYS 110655Z AUTO 00000KT 10SM CLR 13/06 A3026 RMK AO2,M
WYS,2024-07-11 07:55,51.80,44.60,76.34,0.00,0.00,0.00,30.26,M,10.00,M,CLR,M,M,M,M,M,M,M,M,M,M,M,M,M,M,51.80,KWYS 110755Z AUTO 00000KT 10SM CLR 11/07 A3026 RMK AO2,M
WYS,2024-07-11 08:55,50.00,42.80,76.18,0.00,0.00,0.00,30.25,M,10.00,M,CLR,M,M,M,M,M,M,M,M,M,M,M,M,M,M,50.00,KWYS 110855Z AUTO 00000KT 10SM CLR 10/06 A3025 RMK AO2,M
WYS,2024-07-11 09:55,46.40,42.80,87.19,0.00,0.00,0.00,30.25,M,10.00,M,CLR,M,M,M,M,M,M,M,M,M,M,M,M,M,M,46.40,KWYS 110955Z AUTO 00000KT 10SM CLR 08/06 A3025 RMK AO2,M
WYS,2024-07-11 10:55,44.60,44.60,100.00,0.00,0.00,0.00,30.25,M,10.00,M,CLR,M,M,M,M,M,M,M,M,M,M,M,M,M,M,44.60,KWYS 111055Z AUTO 00000KT 10SM CLR 07/07 A3025 RMK AO2,M
WYS,2024-07-11 11:55,42.80,42.80,100.00,0.00,0.00,0.00,30.26,M,10.00,M,CLR,M,M,M,M,M,M,M,M,M,M,M,M,M,M,42.80,KWYS 111155Z AUTO 00000KT 10SM CLR 06/06 A3026 RMK AO2,M
WYS,2024-07-11 12:55,46.40,44.60,93.40,0.00,0.00,0.00,30.26,M,10.00,M,CLR,M,M,M,M,M,M,M,M,M,M,M,M,M,M,46.40,KWYS 111255Z AUTO 00000KT 10SM CLR 08/07 A3026 RMK AO2,M
WYS,2024-07-11 13:55,55.40,44.60,66.91,0.00,0.00,0.00,30.26,M,10.00,M,CLR,M,M,M,M,M,M,M,M,M,M,M,M,M,M,55.40,KWYS 111355Z AUTO 00000KT 10SM CLR 13/07 A3026 RMK AO2,M
WYS,2024-07-11 14:55,62.60,42.80,48.28,0.00,0.00,0.00,30.27,M,10.00,M,CLR,M,M,M,M,M,M,M,M,M,M,M,M,M,M,62.60,KWYS 111455Z AUTO 00000KT 10SM CLR 17/06 A3027 RMK AO2,M
WYS,2024-07-11 15:55,69.80,42.80,37.61,0.00,0.00,0.00,30.26,M,10.00,M,CLR,M,M,M,M,M,M,M,M,M,M,M,M,M,M,69.80,KWYS 111555Z AUTO 00000KT 10SM CLR 21/06 A3026 RMK AO2,M
WYS,2024-07-11 16:55,78.80,42.80,27.81,0.00,0.00,0.00,30.25,M,10.00,M,CLR,M,M,M,M,M,M,M,M,M,M,M,M,M,M,78.80,KWYS 111655Z AUTO 00000KT 10SM CLR 26/06 A3025 RMK AO2,M
WYS,2024-07-11 17:55,84.20,35.60,17.61,240.00,12.00,0.00,30.24,M,10.00,20.00,CLR,M,M,M,M,M,M,M,M,M,M,M,M,M,M,81.34,KWYS 111755Z AUTO 24012G20KT 10SM CLR 29/02 A3024 RMK AO2,M
WYS,2024-07-11 18:55,86.00,37.40,17.85,240.00,12.00,0.00,30.24,M,10.00,18.00,CLR,M,M,M,M,M,M,M,M,M,M,M,M,M,M,82.73,KWYS 111855Z AUTO 24012G18KT 10SM CLR 30/03 A3024 RMK AO2,M
WYS,2024-07-11 19:55,87.80,32.00,13.59,250.00,10.00,0.00,30.22,M,10.00,19.00,CLR,M,M,M,M,M,M,M,M,M,M,M,M,M,M,84.08,KWYS 111955Z AUTO 25010G19KT 230V300 10SM CLR 31/00 A3022 RMK AO2,M
WYS,2024-07-11 20:55,87.80,30.20,12.64,230.00,15.00,0.00,30.21,M,10.00,21.00,CLR,M,M,M,M,M,M,M,M,M,M,M,M,M,M,84.01,KWYS 112055Z AUTO 23015G21KT 10SM CLR 31/M01 A3021 RMK AO2,M
WYS,2024-07-11 21:55,87.80,32.00,13.59,230.00,12.00,0.00,30.20,M,10.00,25.00,FEW,M,M,M,12000.00,M,M,M,M,M,M,M,M,M,M,84.08,KWYS 112155Z AUTO 23012G25KT 200V260 10SM FEW120 31/00 A3020 RMK AO2,M
WYS,2024-07-11 22:55,86.00,37.40,17.85,230.00,10.00,0.00,30.20,M,10.00,M,CLR,M,M,M,M,M,M,M,M,M,M,M,M,M,M,82.73,KWYS 112255Z AUTO 23010KT 10SM CLR 30/03 A3020 RMK AO2,M
WYS,2024-07-11 23:55,86.00,33.80,15.48,200.00,12.00,0.00,30.18,M,10.00,M,CLR,M,M,M,M,M,M,M,M,M,M,M,M,M,M,82.66,KWYS 112355Z AUTO 20012KT 10SM CLR 30/01 A3018 RMK AO2,M
WYS,2024-07-12 00:55,86.00,35.60,16.63,230.00,13.00,0.00,30.17,M,10.00,23.00,CLR,M,M,M,M,M,M,M,M,M,M,M,M,M,M,82.69,KWYS 120055Z AUTO 23013G23KT 10SM CLR 30/02 A3017 RMK AO2,M
WYS,2024-07-12 01:55,82.40,35.60,18.67,210.00,9.00,0.00,30.18,M,10.00,16.00,CLR,M,M,M,M,M,M,M,M,M,M,M,M,M,M,80.08,KWYS 120155Z AUTO 21009G16KT 10SM CLR 28/02 A3018 RMK AO2,M
WYS,2024-07-12 02:55,73.40,37.40,26.98,0.00,0.00,0.00,30.17,M,M,M,CLR,M,M,M,M,M,M,M,M,M,M,M,M,M,M,73.40,KWYS 120255Z AUTO 00000KT CLR 23/03 A3017 RMK AO2,M
WYS,2024-07-12 03:55,69.80,39.20,32.72,0.00,0.00,0.00,30.19,M,10.00,M,CLR,M,M,M,M,M,M,M,M,M,M,M,M,M,M,69.80,KWYS 120355Z AUTO 00000KT 10SM CLR 21/04 A3019 RMK AO2,M
WYS,2024-07-12 04:55,62.60,41.00,45.04,0.00,0.00,0.00,30.20,M,10.00,M,CLR,M,M,M,M,M,M,M,M,M,M,M,M,M,M,62.60,KWYS 120455Z AUTO 00000KT 10SM CLR 17/05 A3020 RMK AO2,M
WYS,2024-07-12 05:55,59.00,41.00,51.18,0.00,0.00,0.00,30.20,M,10.00,M,CLR,M,M,M,M,M,M,M,M,M,M,M,M,M,M,59.00,KWYS 120555Z AUTO 00000KT 10SM CLR 15/05 A3020 RMK AO2,M
WYS,2024-07-12 06:55,53.60,41.00,62.23,0.00,0.00,0.00,30.21,M,10.00,M,CLR,M,M,M,M,M,M,M,M,M,M,M,M,M,M,53.60,KWYS 120655Z AUTO 00000KT 10SM CLR 12/05 A3021 RMK AO2,M
WYS,2024-07-12 07:55,51.80,42.80,71.26,0.00,0.00,0.00,30.22,M,10.00,M,CLR,M,M,M,M,M,M,M,M,M,M,M,M,M,M,51.80,KWYS 120755Z AUTO 00000KT 10SM CLR 11/06 A3022 RMK AO2,M
WYS,2024-07-12 08:55,51.80,41.00,66.48,190.00,3.00,0.00,30.21,M,10.00,M,CLR,M,M,M,M,M,M,M,M,M,M,M,M,M,M,51.80,KWYS 120855Z AUTO 19003KT 10SM CLR 11/05 A3021 RMK AO2,M
WYS,2024-07-12 09:55,48.20,42.80,81.47,0.00,0.00,0.00,30.23,M,10.00,M,CLR,M,M,M,M,M,M,M,M,M,M,M,M,M,M,48.20,KWYS 120955Z AUTO 00000KT 10SM CLR 09/06 A3023 RMK AO2,M
WYS,2024-07-12 10:55,46.40,41.00,81.34,0.00,0.00,0.00,30.25,M,10.00,M,CLR,M,M,M,M,M,M,M,M,M,M,M,M,M,M,46.40,KWYS 121055Z AUTO 00000KT 10SM CLR 08/05 A3025 RMK AO2,M
WYS,2024-07-12 11:55,44.60,41.00,87.09,0.00,0.00,0.00,30.26,M,10.00,M,FEW,M,M,M,11000.00,M,M,M,M,M,M,M,M,M,M,44.60,KWYS 121155Z AUTO 00000KT 10SM FEW110 07/05 A3026 RMK AO2,M
WYS,2024-07-12 12:55,46.40,42.80,87.19,0.00,0.00,0.00,30.28,M,10.00,M,CLR,M,M,M,M,M,M,M,M,M,M,M,M,M,M,46.40,KWYS 121255Z AUTO 00000KT 10SM CLR 08/06 A3028 RMK AO2,M
WYS,2024-07-12 13:55,55.40,42.80,62.46,0.00,0.00,0.00,30.30,M,10.00,M,CLR,M,M,M,M,M,M,M,M,M,M,M,M,M,M,55.40,KWYS 121355Z AUTO 00000KT 10SM CLR 13/06 A3030 RMK AO2,M
WYS,2024-07-12 14:55,62.60,42.80,48.28,0.00,0.00,0.00,30.30,M,10.00,M,CLR,M,M,M,M,M,M,M,M,M,M,M,M,M,M,62.60,KWYS 121455Z AUTO 00000KT 10SM CLR 17/06 A3030 RMK AO2,M
WYS,2024-07-12 15:55,69.80,42.80,37.61,0.00,0.00,0.00,30.29,M,10.00,M,CLR,M,M,M,M,M,M,M,M,M,M,M,M,M,M,69.80,KWYS 121555Z AUTO 00000KT 10SM CLR 21/06 A3029 RMK AO2,M
WYS,2024-07-12 16:55,77.00,41.00,27.53,0.00,0.00,0.00,30.28,M,10.00,M,CLR,M,M,M,M,M,M,M,M,M,M,M,M,M,M,77.00,KWYS 121655Z AUTO 00000KT 10SM CLR 25/05 A3028 RMK AO2,M
WYS,2024-07-12 17:55,80.60,35.60,19.79,M,5.00,0.00,30.28,M,10.00,12.00,CLR,M,M,M,M,M,M,M,M,M,M,M,M,M,M,78.94,KWYS 121755Z AUTO VRB05G12KT 10SM CLR 27/02 A3028 RMK AO2,M
WYS,2024-07-12 18:55,82.40,33.80,17.38,230.00,7.00,0.00,30.27,M,10.00,14.00,FEW,M,M,M,10000.00,M,M,M,M,M,M,M,M,M,M,80.03,KWYS 121855Z AUTO 23007G14KT 10SM FEW100 28/01 A3027 RMK AO2,M
WYS,2024-07-12 19:55,84.20,32.00,15.25,260.00,10.00,0.00,30.25,M,10.00,22.00,CLR,M,M,M,M,M,M,M,M,M,M,M,M,M,M,81.28,KWYS 121955Z AUTO 26010G22KT 220V300 10SM CLR 29/00 A3025 RMK AO2,M
WYS,2024-07-12 20:55,84.20,37.40,18.91,200.00,17.00,0.00,30.24,M,10.00,M,CLR,M,M,M,M,M,M,M,M,M,M,M,M,M,M,81.38,KWYS 122055Z AUTO 20017KT 10SM CLR 29/03 A3024 RMK AO2,M
WYS,2024-07-12 21:55,86.00,39.20,19.15,220.00,8.00,0.00,30.23,M,10.00,17.00,CLR,M,M,M,M,M,M,M,M,M,M,M,M,M,M,82.79,KWYS 122155Z AUTO 22008G17KT 190V280 10SM CLR 30/04 A3023 RMK AO2,M
WYS,2024-07-12 22:55,86.00,37.40,17.85,200.00,16.00,0.00,30.21,M,10.00,21.00,FEW,M,M,M,11000.00,M,M,M,M,M,M,M,M,M,M,82.73,KWYS 122255Z AUTO 20016G21KT 10SM FEW110 30/03 A3021 RMK AO2,M
WYS,2024-07-12 23:55,80.60,35.60,19.79,240.00,11.00,0.00,30.22,M,10.00,17.00,CLR,M,M,M,M,M,M,M,M,M,M,M,M,M,M,78.94,KWYS 122355Z AUTO 24011G17KT 10SM CLR 27/02 A3022 RMK AO2,M
WYS,2024-07-13 00:55,64.40,50.00,59.50,180.00,9.00,0.03,30.25,M,10.00,M,FEW,FEW,SCT,M,3400.00,4900.00,11000.00,M,M,M,M,M,M,M,M,64.40,KWYS 130055Z AUTO 18009KT 160V220 10SM FEW034 FEW049 SCT110 18/10 A3025 RMK AO2 P0003,M
WYS,2024-07-13 01:55,73.40,41.00,31.05,170.00,7.00,0.00,30.23,M,10.00,14.00,CLR,M,M,M,M,M,M,M,M,M,M,M,M,M,M,73.40,KWYS 130155Z AUTO 17007G14KT 10SM CLR 23/05 A3023 RMK AO2,M
WYS,2024-07-13 02:55,64.40,51.80,63.60,0.00,0.00,0.00,30.23,M,10.00,M,CLR,M,M,M,M,M,M,M,M,M,M,M,M,M,M,64.40,KWYS 130255Z AUTO 00000KT 10SM CLR 18/11 A3023 RMK AO2,M
WYS,2024-07-13 03:55,57.20,55.40,93.69,310.00,6.00,0.00,30.24,M,10.00,M,CLR,M,M,M,M,M,M,M,M,M,M,M,M,M,M,57.20,KWYS 130355Z AUTO 31006KT 10SM CLR 14/13 A3024 RMK AO2,M
WYS,2024-07-13 04:50,59.00,48.20,67.33,10.00,6.00,0.00,30.28,M,10.00,M,CLR,M,M,M,M,M,M,M,M,M,M,M,M,M,M,59.00,KWYS 130450Z AUTO 01006KT 10SM CLR 15/09 A3028 RMK AO2,M
WYS,2024-07-13 05:55,59.00,44.60,58.77,170.00,7.00,0.00,30.25,M,10.00,M,CLR,M,M,M,M,M,M,M,M,M,M,M,M,M,M,59.00,KWYS 130555Z AUTO 17007KT 10SM CLR 15/07 A3025 RMK AO2,M
WYS,2024-07-13 06:55,51.80,51.80,100.00,50.00,4.00,0.00,30.26,M,10.00,M,CLR,M,M,M,M,M,M,M,M,M,M,M,M,M,M,51.80,KWYS 130655Z AUTO 05004KT 10SM CLR 11/11 A3026 RMK AO2,M
WYS,2024-07-13 07:55,48.20,48.20,100.00,0.00,0.00,0.00,30.27,M,10.00,M,CLR,M,M,M,M,M,M,M,M,M,M,M,M,M,M,48.20,KWYS 130755Z AUTO 00000KT 10SM CLR 09/09 A3027 RMK AO2,M
WYS,2024-07-13 08:55,44.60,44.60,100.00,0.00,0.00,0.00,30.28,M,10.00,M,CLR,M,M,M,M,M,M,M,M,M,M,M,M,M,M,44.60,KWYS 130855Z AUTO 00000KT 10SM CLR 07/07 A3028 RMK AO2,M
WYS,2024-07-13 09:55,42.80,42.80,100.00,0.00,0.00,0.00,30.29,M,10.00,M,BKN,M,M,M,9000.00,M,M,M,M,M,M,M,M,M,M,42.80,KWYS 130955Z AUTO 00000KT 10SM BKN090 06/06 A3029 RMK AO2,M
WYS,2024-07-13 10:55,42.80,42.80,100.00,0.00,0.00,0.00,30.30,M,10.00,M,BKN,SCT,M,M,5500.00,6500.00,M,M,M,M,M,M,M,M,M,42.80,KWYS 131055Z AUTO 00000KT 10SM BKN055 SCT065 06/06 A3030 RMK AO2,M
WYS,2024-07-13 11:55,39.20,39.20,100.00,0.00,0.00,0.00,30.32,M,10.00,M,CLR,M,M,M,M,M,M,M,M,M,M,M,M,M,M,39.20,KWYS 131155Z AUTO 00000KT 10SM CLR 04/04 A3032 RMK AO2,M
WYS,2024-07-13 12:55,42.80,42.80,100.00,0.00,0.00,0.00,30.33,M,10.00,M,CLR,M,M,M,M,M,M,M,M,M,M,M,M,M,M,42.80,KWYS 131255Z AUTO 00000KT 10SM CLR 06/06 A3033 RMK AO2,M
WYS,2024-07-13 13:55,50.00,50.00,100.00,0.00,0.00,0.00,30.33,M,10.00,M,CLR,M,M,M,M,M,M,M,M,M,M,M,M,M,M,50.00,KWYS 131355Z AUTO 00000KT 10SM CLR 10/10 A3033 RMK AO2,M
WYS,2024-07-13 14:55,55.40,48.20,76.66,0.00,0.00,0.00,30.34,M,10.00,M,CLR,M,M,M,M,M,M,M,M,M,M,M,M,M,M,55.40,KWYS 131455Z AUTO 00000KT 10SM CLR 13/09 A3034 RMK AO2,M
WYS,2024-07-13 15:55,62.60,46.40,55.37,0.00,0.00,0.00,30.33,M,10.00,M,CLR,M,M,M,M,M,M,M,M,M,M,M,M,M,M,62.60,KWYS 131555Z AUTO 00000KT 10SM CLR 17/08 A3033 RMK AO2,M
WYS,2024-07-13 16:55,69.80,44.60,40.29,0.00,0.00,0.00,30.31,M,10.00,M,CLR,M,M,M,M,M,M,M,M,M,M,M,M,M,M,69.80,KWYS 131655Z AUTO 00000KT 10SM CLR 21/07 A3031 RMK AO2,M
WYS,2024-07-13 17:55,80.60,42.80,26.22,M,3.00,0.00,30.30,M,10.00,M,CLR,M,M,M,M,M,M,M,M,M,M,M,M,M,M,79.30,KWYS 131755Z AUTO VRB03KT 10SM CLR 27/06 A3030 RMK AO2,M
WYS,2024-07-13 18:55,84.20,35.60,17.61,240.00,7.00,0.00,30.29,M,10.00,18.00,CLR,M,M,M,M,M,M,M,M,M,M,M,M,M,M,81.34,KWYS 131855Z AUTO 24007G18KT 220V280 10SM CLR 29/02 A3029 RMK AO2,M
WYS,2024-07-13 19:55,86.00,32.00,14.40,270.00,8.00,0.00,30.28,M,10.00,18.00,CLR,M,M,M,M,M,M,M,M,M,M,M,M,M,M,82.64,KWYS 131955Z AUTO 27008G18KT 240V300 10SM CLR 30/00 A3028 RMK AO2,M
WYS,2024-07-13 20:55,86.00,33.80,15.48,M,7.00,0.00,30.26,M,10.00,15.00,CLR,M,M,M,M,M,M,M,M,M,M,M,M,M,M,82.66,KWYS 132055Z AUTO VRB07G15KT 10SM CLR 30/01 A3026 RMK AO2,M
WYS,2024-07-13 21:55,87.80,33.80,14.61,230.00,9.00,0.00,30.25,M,10.00,16.00,CLR,M,M,M,M,M,M,M,M,M,M,M,M,M,M,84.10,KWYS 132155Z AUTO 23009G16KT 10SM CLR 31/01 A3025 RMK AO2,M
WYS,2024-07-13 22:55,87.80,35.60,15.70,210.00,15.00,0.00,30.25,M,10.00,24.00,CLR,M,M,M,M,M,M,M,M,M,M,M,M,M,M,84.12,KWYS 132255Z AUTO 21015G24KT 10SM CLR 31/02 A3025 RMK AO2,M
WYS,2024-07-13 23:55,86.00,35.60,16.63,240.00,12.00,0.00,30.25,M,10.00,19.00,CLR,M,M,M,M,M,M,M,M,M,M,M,M,M,M,82.69,KWYS 132355Z AUTO 24012G19KT 200V280 10SM CLR 30/02 A3025 RMK AO2,M
WYS,2024-07-14 00:55,80.60,39.20,22.81,210.00,15.00,0.00,30.25,M,10.00,20.00,CLR,M,M,M,M,M,M,M,M,M,M,M,M,M,M,79.10,KWYS 140055Z AUTO 21015G20KT 10SM CLR 27/04 A3025 RMK AO2,M
WYS,2024-07-14 01:55,77.00,39.20,25.67,220.00,12.00,0.00,30.26,M,10.00,18.00,CLR,M,M,M,M,M,M,M,M,M,M,M,M,M,M,77.00,KWYS 140155Z AUTO 22012G18KT 10SM CLR 25/04 A3026 RMK AO2,M
WYS,2024-07-14 02:55,73.40,41.00,31.05,220.00,5.00,0.00,30.26,M,10.00,M,CLR,M,M,M,M,M,M,M,M,M,M,M,M,M,M,73.40,KWYS 140255Z AUTO 22005KT 10SM CLR 23/05 A3026 RMK AO2,M
WYS,2024-07-14 03:55,66.20,42.80,42.57,200.00,6.00,0.00,30.27,M,10.00,M,CLR,M,M,M,M,M,M,M,M,M,M,M,M,M,M,66.20,KWYS 140355Z AUTO 20006KT 10SM CLR 19/06 A3027 RMK AO2,M
WYS,2024-07-14 04:55,60.80,42.80,51.45,0.00,0.00,0.00,30.28,M,10.00,M,CLR,M,M,M,M,M,M,M,M,M,M,M,M,M,M,60.80,KWYS 140455Z AUTO 00000KT 10SM CLR 16/06 A3028 RMK AO2,M
WYS,2024-07-14 05:55,55.40,42.80,62.46,0.00,0.00,0.00,30.28,M,10.00,M,CLR,M,M,M,M,M,M,M,M,M,M,M,M,M,M,55.40,KWYS 140555Z AUTO 00000KT 10SM CLR 13/06 A3028 RMK AO2,M
WYS,2024-07-14 06:55,51.80,44.60,76.34,0.00,0.00,0.00,30.30,M,10.00,M,CLR,M,M,M,M,M,M,M,M,M,M,M,M,M,M,51.80,KWYS 140655Z AUTO 00000KT 10SM CLR 11/07 A3030 RMK AO2,M
WYS,2024-07-14 07:55,50.00,44.60,81.61,0.00,0.00,0.00,30.29,M,10.00,M,CLR,M,M,M,M,M,M,M,M,M,M,M,M,M,M,50.00,KWYS 140755Z AUTO 00000KT 10SM CLR 10/07 A3029 RMK AO2,M
WYS,2024-07-14 08:55,48.20,44.60,87.28,0.00,0.00,0.00,30.28,M,10.00,M,FEW,M,M,M,11000.00,M,M,M,M,M,M,M,M,M,M,48.20,KWYS 140855Z AUTO 00000KT 10SM FEW110 09/07 A3028 RMK AO2,M
WYS,2024-07-14 09:55,46.40,44.60,93.40,0.00,0.00,0.00,30.28,M,10.00,M,CLR,M,M,M,M,M,M,M,M,M,M,M,M,M,M,46.40,KWYS 140955Z AUTO 00000KT 10SM CLR 08/07 A3028 RMK AO2,M
WYS,2024-07-14 10:55,46.40,46.40,100.00,20.00,6.00,0.00,30.28,M,10.00,M,CLR,M,M,M,M,M,M,M,M,M,M,M,M,M,M,42.87,KWYS 141055Z AUTO 02006KT 10SM CLR 08/08 A3028 RMK AO2,M
WYS,2024-07-14 11:55,46.40,46.40,100.00,0.00,0.00,0.00,30.30,M,10.00,M,CLR,M,M,M,M,M,M,M,M,M,M,M,M,M,M,46.40,KWYS 141155Z AUTO 00000KT 10SM CLR 08/08 A3030 RMK AO2,M
WYS,2024-07-14 12:55,46.40,46.40,100.00,0.00,0.00,0.00,30.31,M,10.00,M,CLR,M,M,M,M,M,M,M,M,M,M,M,M,M,M,46.40,KWYS 141255Z AUTO 00000KT 10SM CLR 08/08 A3031 RMK AO2,M
WYS,2024-07-14 13:55,51.80,46.40,81.74,0.00,0.00,0.00,30.32,M,10.00,M,CLR,M,M,M,M,M,M,M,M,M,M,M,M,M,M,51.80,KWYS 141355Z AUTO 00000KT 10SM CLR 11/08 A3032 RMK AO2,M
WYS,2024-07-14 14:55,57.20,44.60,62.69,0.00,0.00,0.00,30.33,M,10.00,M,CLR,M,M,M,M,M,M,M,M,M,M,M,M,M,M,57.20,KWYS 141455Z AUTO 00000KT 10SM CLR 14/07 A3033 RMK AO2,M
WYS,2024-07-14 15:55,64.40,42.80,45.32,50.00,3.00,0.00,30.32,M,10.00,M,CLR,M,M,M,M,M,M,M,M,M,M,M,M,M,M,64.40,KWYS 141555Z AUTO 05003KT 10SM CLR 18/06 A3032 RMK AO2,M
WYS,2024-07-14 16:55,69.80,42.80,37.61,0.00,0.00,0.00,30.30,M,10.00,M,CLR,M,M,M,M,M,M,M,M,M,M,M,M,M,M,69.80,KWYS 141655Z AUTO 00000KT 10SM CLR 21/06 A3030 RMK AO2,M
WYS,2024-07-14 17:55,78.80,41.00,25.95,200.00,11.00,0.00,30.28,M,10.00,M,CLR,M,M,M,M,M,M,M,M,M,M,M,M,M,M,78.80,KWYS 141755Z AUTO 20011KT 10SM CLR 26/05 A3028 RMK AO2,M
WYS,2024-07-14 18:55,82.40,41.00,23.07,220.00,13.00,0.00,30.26,M,10.00,19.00,CLR,M,M,M,M,M,M,M,M,M,M,M,M,M,M,80.29,KWYS 141855Z AUTO 22013G19KT 10SM CLR 28/05 A3026 RMK AO2,M
WYS,2024-07-14 19:55,84.20,39.20,20.29,230.00,16.00,0.00,30.26,M,10.00,23.00,CLR,M,M,M,M,M,M,M,M,M,M,M,M,M,M,81.44,KWYS 141955Z AUTO 23016G23KT 10SM CLR 29/04 A3026 RMK AO2,M
WYS,2024-07-14 20:55,84.20,42.80,23.33,210.00,18.00,0.00,30.24,M,10.00,24.00,CLR,M,M,M,M,M,M,M,M,M,M,M,M,M,M,81.61,KWYS 142055Z AUTO 21018G24KT 180V240 10SM CLR 29/06 A3024 RMK AO2,M
WYS,2024-07-14 21:55,82.40,42.80,24.72,210.00,20.00,0.00,30.23,M,10.00,M,CLR,M,M,M,M,M,M,M,M,M,M,M,M,M,M,80.39,KWYS 142155Z AUTO 21020KT 10SM CLR 28/06 A3023 RMK AO2,M
WYS,2024-07-14 22:55,82.40,44.60,26.49,220.00,18.00,0.00,30.22,M,10.00,23.00,CLR,M,M,M,M,M,M,M,M,M,M,M,M,M,M,80.50,KWYS 142255Z AUTO 22018G23KT 10SM CLR 28/07 A3022 RMK AO2,M
WYS,2024-07-14 23:55,75.20,46.40,35.94,260.00,16.00,0.00,30.26,M,9.00,23.00,SCT,BKN,M,M,8500.00,12000.00,M,M,M,M,M,M,M,M,M,75.20,KWYS 142355Z AUTO 26016G23KT 9SM SCT085 BKN120 24/08 A3026 RMK AO2,M
WYS,2024-07-15 00:55,68.00,53.60,59.97,210.00,10.00,0.00,30.26,M,10.00,M,SCT,BKN,M,M,9000.00,11000.00,M,M,M,M,M,M,M,M,M,68.00,KWYS 150055Z AUTO 21010KT 10SM SCT090 BKN110 20/12 A3026 RMK AO2,M
WYS,2024-07-15 01:55,68.00,50.00,52.51,140.00,5.00,0.00,30.28,M,10.00,M,OVC,M,M,M,8500.00,M,M,M,M,M,M,M,M,M,M,68.00,KWYS 150155Z AUTO 14005KT 10SM OVC085 20/10 A3028 RMK AO2,M
WYS,2024-07-15 02:55,66.20,53.60,63.82,180.00,5.00,0.00,30.27,M,10.00,M,BKN,M,M,M,10000.00,M,M,M,M,M,M,M,M,M,M,66.20,KWYS 150255Z AUTO 18005KT 10SM BKN100 19/12 A3027 RMK AO2,M
WYS,2024-07-15 03:55,62.60,55.40,77.29,0.00,0.00,0.00,30.29,M,10.00,M,CLR,M,M,M,M,M,M,M,M,M,M,M,M,M,M,62.60,KWYS 150355Z AUTO 00000KT 10SM CLR 17/13 A3029 RMK AO2,M
WYS,2024-07-15 04:55,57.20,57.20,100.00,0.00,0.00,0.00,30.29,M,10.00,M,CLR,M,M,M,M,M,M,M,M,M,M,M,M,M,M,57.20,KWYS 150455Z AUTO 00000KT 10SM CLR 14/14 A3029 RMK AO2,M
WYS,2024-07-15 05:55,55.40,55.40,100.00,220.00,3.00,0.00,30.29,M,10.00,M,SCT,M,M,M,12000.00,M,M,M,M,M,M,M,M,M,M,55.40,KWYS 150555Z AUTO 22003KT 10SM SCT120 13/13 A3029 RMK AO2,M
WYS,2024-07-15 06:55,53.60,53.60,100.00,0.00,0.00,0.00,30.29,M,10.00,M,BKN,M,M,M,12000.00,M,M,M,M,M,M,M,M,M,M,53.60,KWYS 150655Z AUTO 00000KT 10SM BKN120 12/12 A3029 RMK AO2,M
WYS,2024-07-15 07:55,50.00,50.00,100.00,0.00,0.00,0.00,30.30,M,10.00,M,FEW,M,M,M,11000.00,M,M,M,M,M,M,M,M,M,M,50.00,KWYS 150755Z AUTO 00000KT 10SM FEW110 10/10 A3030 RMK AO2,M
WYS,2024-07-15 08:55,51.80,51.80,100.00,0.00,0.00,0.00,30.28,M,10.00,M,SCT,M,M,M,11000.00,M,M,M,M,M,M,M,M,M,M,51.80,KWYS 150855Z AUTO 00000KT 10SM SCT110 11/11 A3028 RMK AO2,M
WYS,2024-07-15 09:55,51.80,51.80,100.00,0.00,0.00,0.00,30.28,M,10.00,M,SCT,M,M,M,10000.00,M,M,M,M,M,M,M,M,M,M,51.80,KWYS 150955Z AUTO 00000KT 10SM SCT100 11/11 A3028 RMK AO2,M
WYS,2024-07-15 10:55,51.80,51.80,100.00,0.00,0.00,0.00,30.29,M,10.00,M,CLR,M,M,M,M,M,M,M,M,M,M,M,M,M,M,51.80,KWYS 151055Z AUTO 00000KT 10SM CLR 11/11 A3029 RMK AO2,M
WYS,2024-07-15 11:55,50.00,50.00,100.00,0.00,0.00,0.00,30.30,M,10.00,M,BKN,M,M,M,10000.00,M,M,M,M,M,M,M,M,M,M,50.00,KWYS 151155Z AUTO 00000KT 10SM BKN100 10/10 A3030 RMK AO2,M
WYS,2024-07-15 12:55,51.80,51.80,100.00,0.00,0.00,0.00,30.31,M,10.00,M,OVC,M,M,M,10000.00,M,M,M,M,M,M,M,M,M,M,51.80,KWYS 151255Z AUTO 00000KT 10SM OVC100 11/11 A3031 RMK AO2,M
WYS,2024-07-15 13:55,53.60,53.60,100.00,160.00,4.00,0.00,30.31,M,10.00,M,SCT,M,M,M,10000.00,M,M,M,M,M,M,M,M,M,M,53.60,KWYS 151355Z AUTO 16004KT 10SM SCT100 12/12 A3031 RMK AO2,M
WYS,2024-07-15 14:55,55.40,55.40,100.00,0.00,0.00,0.00,30.32,M,10.00,M,BKN,OVC,M,M,9000.00,11000.00,M,M,M,M,M,M,M,M,M,55.40,KWYS 151455Z AUTO 00000KT 10SM BKN090 OVC110 13/13 A3032 RMK AO2,M
WYS,2024-07-15 15:55,55.40,55.40,100.00,150.00,6.00,0.01,30.32,M,10.00,M,FEW,FEW,OVC,M,6000.00,7500.00,9000.00,M,M,M,M,M,M,M,M,55.40,KWYS 151555Z AUTO 15006KT 10SM FEW060 FEW075 OVC090 13/13 A3032 RMK AO2 P0001,M
WYS,2024-07-15 16:55,55.40,55.40,100.00,150.00,3.00,0.02,30.32,M,10.00,M,FEW,FEW,OVC,M,3800.00,6000.00,9000.00,M,M,M,M,M,M,M,M,55.40,KWYS 151655Z AUTO 15003KT 10SM FEW038 FEW060 OVC090 13/13 A3032 RMK AO2 P0002,M
WYS,2024-07-15 17:55,57.20,57.20,100.00,0.00,0.00,0.00,30.33,M,10.00,M,OVC,M,M,M,10000.00,M,M,M,M,M,M,M,M,M,M,57.20,KWYS 151755Z AUTO 00000KT 10SM OVC100 14/14 A3033 RMK AO2,M
WYS,2024-07-15 18:55,62.60,59.00,88.00,0.00,0.00,0.00,30.31,M,10.00,M,BKN,M,M,M,12000.00,M,M,M,M,M,M,M,M,M,M,62.60,KWYS 151855Z AUTO 00000KT 10SM BKN120 17/15 A3031 RMK AO2,M
WYS,2024-07-15 19:55,71.60,44.60,37.89,210.00,11.00,0.00,30.28,M,10.00,18.00,CLR,M,M,M,M,M,M,M,M,M,M,M,M,M,M,71.60,KWYS 151955Z AUTO 21011G18KT 10SM CLR 22/07 A3028 RMK AO2,M
WYS,2024-07-15 20:55,73.40,42.80,33.29,190.00,13.00,0.00,30.26,M,10.00,M,CLR,M,M,M,M,M,M,M,M,M,M,M,M,M,M,73.40,KWYS 152055Z AUTO 19013KT 10SM CLR 23/06 A3026 RMK AO2,M
WYS,2024-07-15 21:55,77.00,41.00,27.53,220.00,13.00,0.00,30.23,M,10.00,19.00,CLR,M,M,M,M,M,M,M,M,M,M,M,M,M,M,77.00,KWYS 152155Z AUTO 22013G19KT 10SM CLR 25/05 A3023 RMK AO2,M
WYS,2024-07-15 22:55,77.00,44.60,31.62,220.00,16.00,0.00,30.21,M,10.00,M,CLR,M,M,M,M,M,M,M,M,M,M,M,M,M,M,77.00,KWYS 152255Z AUTO 22016KT 10SM CLR 25/07 A3021 RMK AO2,M
WYS,2024-07-15 23:55,77.00,42.80,29.51,210.00,15.00,0.00,30.20,M,10.00,21.00,FEW,M,M,M,9500.00,M,M,M,M,M,M,M,M,M,M,77.00,KWYS 152355Z AUTO 21015G21KT 10SM FEW095 25/06 A3020 RMK AO2,M
WYS,2024-07-16 00:55,75.20,44.60,33.57,210.00,12.00,0.00,30.19,M,10.00,17.00,CLR,M,M,M,M,M,M,M,M,M,M,M,M,M,M,75.20,KWYS 160055Z AUTO 21012G17KT 10SM CLR 24/07 A3019 RMK AO2,M
WYS,2024-07-16 01:55,73.40,48.20,40.85,230.00,10.00,0.00,30.19,M,10.00,19.00,CLR,M,M,M,M,M,M,M,M,M,M,M,M,M,M,73.40,KWYS 160155Z AUTO 23010G19KT 10SM CLR 23/09 A3019 RMK AO2,M
WYS,2024-07-16 02:55,69.80,48.20,46.16,230.00,8.00,0.00,30.20,M,10.00,M,CLR,M,M,M,M,M,M,M,M,M,M,M,M,M,M,69.80,KWYS 160255Z AUTO 23008KT 10SM CLR 21/09 A3020 RMK AO2,M
WYS,2024-07-16 03:55,64.40,48.20,55.63,0.00,0.00,0.00,30.21,M,10.00,M,CLR,M,M,M,M,M,M,M,M,M,M,M,M,M,M,64.40,KWYS 160355Z AUTO 00000KT 10SM CLR 18/09 A3021 RMK AO2,M
WYS,2024-07-16 04:55,62.60,48.20,59.26,210.00,4.00,0.00,30.23,M,10.00,M,CLR,M,M,M,M,M,M,M,M,M,M,M,M,M,M,62.60,KWYS 160455Z AUTO 21004KT 10SM CLR 17/09 A3023 RMK AO2,M
WYS,2024-07-16 05:55,55.40,50.00,81.99,0.00,0.00,0.00,30.24,M,10.00,M,CLR,M,M,M,M,M,M,M,M,M,M,M,M,M,M,55.40,KWYS 160555Z AUTO 00000KT 10SM CLR 13/10 A3024 RMK AO2,M
WYS,2024-07-16 06:55,51.80,51.80,100.00,30.00,4.00,0.00,30.26,M,10.00,M,CLR,M,M,M,M,M,M,M,M,M,M,M,M,M,M,51.80,KWYS 160655Z AUTO 03004KT 10SM CLR 11/11 A3026 RMK AO2,M
WYS,2024-07-16 07:55,50.00,50.00,100.00,0.00,0.00,0.00,30.25,M,10.00,M,CLR,M,M,M,M,M,M,M,M,M,M,M,M,M,M,50.00,KWYS 160755Z AUTO 00000KT 10SM CLR 10/10 A3025 RMK AO2,M
WYS,2024-07-16 08:55,46.40,46.40,100.00,0.00,0.00,0.00,30.26,M,10.00,M,SCT,SCT,M,M,3700.00,4300.00,M,M,M,M,M,M,M,M,M,46.40,KWYS 160855Z AUTO 00000KT 10SM SCT037 SCT043 08/08 A3026 RMK AO2,M
WYS,2024-07-16 09:55,42.80,42.80,100.00,0.00,0.00,0.00,30.27,M,10.00,M,FEW,M,M,M,3900.00,M,M,M,M,M,M,M,M,M,M,42.80,KWYS 160955Z AUTO 00000KT 10SM FEW039 06/06 A3027 RMK AO2,M
WYS,2024-07-16 10:55,41.00,41.00,100.00,0.00,0.00,0.00,30.28,M,10.00,M,CLR,M,M,M,M,M,M,M,M,M,M,M,M,M,M,41.00,KWYS 161055Z AUTO 00000KT 10SM CLR 05/05 A3028 RMK AO2,M
WYS,2024-07-16 11:55,37.40,39.20,M,0.00,0.00,0.00,30.30,M,10.00,M,CLR,M,M,M,M,M,M,M,M,M,M,M,M,M,M,M,KWYS 161155Z AUTO 00000KT 10SM CLR 03/04 A3030 RMK AO2,M
WYS,2024-07-16 12:55,39.20,39.20,100.00,0.00,0.00,0.00,30.31,M,10.00,M,CLR,M,M,M,M,M,M,M,M,M,M,M,M,M,M,39.20,KWYS 161255Z AUTO 00000KT 10SM CLR 04/04 A3031 RMK AO2,M
WYS,2024-07-16 13:55,48.20,48.20,100.00,0.00,0.00,0.00,30.33,M,10.00,M,CLR,M,M,M,M,M,M,M,M,M,M,M,M,M,M,48.20,KWYS 161355Z AUTO 00000KT 10SM CLR 09/09 A3033 RMK AO2,M
WYS,2024-07-16 14:55,55.40,50.00,81.99,0.00,0.00,0.00,30.33,M,10.00,M,CLR,M,M,M,M,M,M,M,M,M,M,M,M,M,M,55.40,KWYS 161455Z AUTO 00000KT 10SM CLR 13/10 A3033 RMK AO2,M
WYS,2024-07-16 15:55,62.60,48.20,59.26,0.00,0.00,0.00,30.32,M,10.00,M,CLR,M,M,M,M,M,M,M,M,M,M,M,M,M,M,62.60,KWYS 161555Z AUTO 00000KT 10SM CLR 17/09 A3032 RMK AO2,M
WYS,2024-07-16 16:55,69.80,46.40,43.13,M,3.00,0.00,30.32,M,10.00,M,CLR,M,M,M,M,M,M,M,M,M,M,M,M,M,M,69.80,KWYS 161655Z AUTO VRB03KT 10SM CLR 21/08 A3032 RMK AO2,M
WYS,2024-07-16 17:55,75.20,32.00,20.49,M,4.00,0.00,30.31,M,10.00,M,CLR,M,M,M,M,M,M,M,M,M,M,M,M,M,M,75.20,KWYS 161755Z AUTO VRB04KT 10SM CLR 24/00 A3031 RMK AO2,M
WYS,2024-07-16 18:55,78.80,33.80,19.55,200.00,6.00,0.00,30.29,M,10.00,12.00,CLR,M,M,M,M,M,M,M,M,M,M,M,M,M,M,78.80,KWYS 161855Z AUTO 20006G12KT 10SM CLR 26/01 A3029 RMK AO2,M
WYS,2024-07-16 19:55,80.60,35.60,19.79,M,4.00,0.00,30.28,M,10.00,17.00,CLR,M,M,M,M,M,M,M,M,M,M,M,M,M,M,78.94,KWYS 161955Z AUTO VRB04G17KT 10SM CLR 27/02 A3028 RMK AO2,M
WYS,2024-07-16 20:55,82.40,32.00,16.17,300.00,8.00,0.00,30.26,M,10.00,M,FEW,M,M,M,10000.00,M,M,M,M,M,M,M,M,M,M,80.00,KWYS 162055Z AUTO 30008KT 10SM FEW100 28/00 A3026 RMK AO2,M
WYS,2024-07-16 21:55,82.40,32.00,16.17,0.00,0.00,0.00,30.25,M,10.00,10.00,CLR,M,M,M,M,M,M,M,M,M,M,M,M,M,M,80.00,KWYS 162155Z AUTO 00000G10KT 10SM CLR 28/M00 A3025 RMK AO2,M
WYS,2024-07-16 22:55,84.20,30.20,14.18,M,4.00,0.00,30.24,M,10.00,13.00,BKN,M,M,M,11000.00,M,M,M,M,M,M,M,M,M,M,81.26,KWYS 162255Z AUTO VRB04G13KT 10SM BKN110 29/M01 A3024 RMK AO2,M
WYS,2024-07-16 23:55,82.40,28.40,13.96,0.00,0.00,0.00,30.22,M,10.00,10.00,CLR,M,M,M,M,M,M,M,M,M,M,M,M,M,M,79.94,KWYS 162355Z AUTO 00000G10KT 10SM CLR 28/M02 A3022 RMK AO2,M
WYS,2024-07-17 00:55,80.60,32.00,17.14,250.00,5.00,0.00,30.22,M,10.00,M,CLR,M,M,M,M,M,M,M,M,M,M,M,M,M,M,78.82,KWYS 170055Z AUTO 25005KT 10SM CLR 27/M00 A3022 RMK AO2,M
WYS,2024-07-17 01:55,77.00,35.60,22.28,0.00,0.00,0.00,30.24,M,10.00,M,CLR,M,M,M,M,M,M,M,M,M,M,M,M,M,M,77.00,KWYS 170155Z AUTO 00000KT 10SM CLR 25/02 A3024 RMK AO2,M
WYS,2024-07-17 02:55,71.60,39.20,30.77,230.00,19.00,0.00,30.27,M,9.00,25.00,FEW,SCT,BKN,M,4800.00,6500.00,9000.00,M,-RA,M,M,M,M,M,M,71.60,KWYS 170255Z AUTO 23019G25KT 9SM -RA FEW048 SCT065 BKN090 22/04 A3027 RMK AO2,M
WYS,2024-07-17 03:55,60.80,53.60,77.14,220.00,5.00,0.01,30.27,M,10.00,M,FEW,M,M,M,11000.00,M,M,M,M,M,M,M,M,M,M,60.80,KWYS 170355Z AUTO 22005KT 10SM FEW110 16/12 A3027 RMK AO2 P0001,M
WYS,2024-07-17 04:55,62.60,46.40,55.37,110.00,7.00,0.00,30.31,M,10.00,M,CLR,M,M,M,M,M,M,M,M,M,M,M,M,M,M,62.60,KWYS 170455Z AUTO 11007KT 10SM CLR 17/08 A3031 RMK AO2,M
WYS,2024-07-17 05:55,64.40,42.80,45.32,200.00,6.00,0.00,30.31,M,10.00,14.00,CLR,M,M,M,M,M,M,M,M,M,M,M,M,M,M,64.40,KWYS 170555Z AUTO 20006G14KT 10SM CLR 18/06 A3031 RMK AO2,M
WYS,2024-07-17 06:55,60.80,42.80,51.45,340.00,3.00,0.00,30.33,M,10.00,M,CLR,M,M,M,M,M,M,M,M,M,M,M,M,M,M,60.80,KWYS 170655Z AUTO 34003KT 10SM CLR 16/06 A3033 RMK AO2,M
WYS,2024-07-17 07:55,55.40,42.80,62.46,300.00,4.00,0.00,30.33,M,10.00,M,FEW,M,M,M,12000.00,M,M,M,M,M,M,M,M,M,M,55.40,KWYS 170755Z AUTO 30004KT 10SM FEW120 13/06 A3033 RMK AO2,M
WYS,2024-07-17 08:55,50.00,50.00,100.00,210.00,3.00,0.00,30.34,M,10.00,M,CLR,M,M,M,M,M,M,M,M,M,M,M,M,M,M,50.00,KWYS 170855Z AUTO 21003KT 10SM CLR 10/10 A3034 RMK AO2,M
WYS,2024-07-17 09:55,50.00,50.00,100.00,0.00,0.00,0.00,30.33,M,10.00,M,CLR,M,M,M,M,M,M,M,M,M,M,M,M,M,M,50.00,KWYS 170955Z AUTO 00000KT 10SM CLR 10/10 A3033 RMK AO2,M
WYS,2024-07-17 10:55,50.00,50.00,100.00,320.00,3.00,0.00,30.34,M,10.00,M,CLR,M,M,M,M,M,M,M,M,M,M,M,M,M,M,50.00,KWYS 171055Z AUTO 32003KT 10SM CLR 10/10 A3034 RMK AO2,M
WYS,2024-07-17 11:55,48.20,48.20,100.00,0.00,0.00,0.00,30.35,M,10.00,M,CLR,M,M,M,M,M,M,M,M,M,M,M,M,M,M,48.20,KWYS 171155Z AUTO 00000KT 10SM CLR 09/09 A3035 RMK AO2,M
WYS,2024-07-17 12:55,46.40,46.40,100.00,0.00,0.00,0.00,30.36,M,10.00,M,FEW,M,M,M,12000.00,M,M,M,M,M,M,M,M,M,M,46.40,KWYS 171255Z AUTO 00000KT 10SM FEW120 08/08 A3036 RMK AO2,M
WYS,2024-07-17 13:55,51.80,50.00,93.55,0.00,0.00,0.00,30.37,M,10.00,M,CLR,M,M,M,M,M,M,M,M,M,M,M,M,M,M,51.80,KWYS 171355Z AUTO 00000KT 10SM CLR 11/10 A3037 RMK AO2,M
WYS,2024-07-17 14:55,60.80,44.60,55.12,0.00,0.00,0.00,30.37,M,10.00,M,CLR,M,M,M,M,M,M,M,M,M,M,M,M,M,M,60.80,KWYS 171455Z AUTO 00000KT 10SM CLR 16/07 A3037 RMK AO2,M
WYS,2024-07-17 15:55,66.20,44.60,45.60,0.00,0.00,0.00,30.36,M,10.00,M,CLR,M,M,M,M,M,M,M,M,M,M,M,M,M,M,66.20,KWYS 171555Z AUTO 00000KT 10SM CLR 19/07 A3036 RMK AO2,M
WYS,2024-07-17 16:55,71.60,42.80,35.37,0.00,0.00,0.00,30.35,M,10.00,M,CLR,M,M,M,M,M,M,M,M,M,M,M,M,M,M,71.60,KWYS 171655Z AUTO 00000KT 10SM CLR 22/06 A3035 RMK AO2,M
WYS,2024-07-17 17:55,75.20,42.80,31.34,0.00,0.00,0.00,30.34,M,10.00,M,CLR,M,M,M,M,M,M,M,M,M,M,M,M,M,M,75.20,KWYS 171755Z AUTO 00000KT 10SM CLR 24/06 A3034 RMK AO2,M
WYS,2024-07-17 18:55,80.60,37.40,21.25,M,4.00,0.00,30.32,M,10.00,11.00,CLR,M,M,M,M,M,M,M,M,M,M,M,M,M,M,79.02,KWYS 171855Z AUTO VRB04G11KT 10SM CLR 27/03 A3032 RMK AO2,M
WYS,2024-07-17 19:55,82.40,39.20,21.51,250.00,9.00,0.00,30.30,M,10.00,M,CLR,M,M,M,M,M,M,M,M,M,M,M,M,M,M,80.21,KWYS 171955Z AUTO 25009KT 210V270 10SM CLR 28/04 A3030 RMK AO2,M
WYS,2024-07-17 20:55,84.20,35.60,17.61,240.00,10.00,0.00,30.29,M,10.00,18.00,SCT,M,M,M,9500.00,M,M,M,M,M,M,M,M,M,M,81.34,KWYS 172055Z AUTO 24010G18KT 10SM SCT095 29/02 A3029 RMK AO2,M
WYS,2024-07-17 21:55,77.00,35.60,22.28,350.00,13.00,0.00,30.31,M,10.00,M,SCT,SCT,M,M,10000.00,12000.00,M,M,M,M,M,M,M,M,M,77.00,KWYS 172155Z AUTO 35013KT 10SM SCT100 SCT120 25/02 A3031 RMK AO2,M
WYS,2024-07-17 22:55,68.00,46.40,45.88,40.00,7.00,0.00,30.34,M,9.00,M,SCT,BKN,M,M,7500.00,9500.00,M,M,M,M,M,M,M,M,M,68.00,KWYS 172255Z AUTO 04007KT 020V090 9SM SCT075 BKN095 20/08 A3034 RMK AO2,M
WYS,2024-07-17 23:55,66.20,51.80,59.74,240.00,3.00,0.00,30.33,M,10.00,M,FEW,SCT,BKN,M,4800.00,6000.00,8500.00,M,M,M,M,M,M,M,M,66.20,KWYS 172355Z AUTO 24003KT 10SM FEW048 SCT060 BKN085 19/11 A3033 RMK AO2,M
WYS,2024-07-18 00:55,71.60,44.60,37.89,160.00,5.00,0.00,30.30,M,10.00,11.00,CLR,M,M,M,M,M,M,M,M,M,M,M,M,M,M,71.60,KWYS 180055Z AUTO 16005G11KT 10SM CLR 22/07 A3030 RMK AO2,M
WYS,2024-07-18 01:55,71.60,44.60,37.89,0.00,0.00,0.00,30.31,M,10.00,M,CLR,M,M,M,M,M,M,M,M,M,M,M,M,M,M,71.60,KWYS 180155Z AUTO 00000KT 10SM CLR 22/07 A3031 RMK AO2,M
WYS,2024-07-18 02:55,64.40,44.60,48.55,100.00,4.00,0.00,30.32,M,10.00,M,CLR,M,M,M,M,M,M,M,M,M,M,M,M,M,M,64.40,KWYS 180255Z AUTO 10004KT 10SM CLR 18/07 A3032 RMK AO2,M
WYS,2024-07-18 03:55,60.80,51.80,72.20,230.00,9.00,0.00,30.37,M,10.00,M,SCT,M,M,M,12000.00,M,M,M,M,M,M,M,M,M,M,60.80,KWYS 180355Z AUTO 23009KT 10SM SCT120 16/11 A3037 RMK AO2,M
WYS,2024-07-18 04:55,60.80,48.20,63.15,120.00,5.00,0.00,30.37,M,10.00,M,CLR,M,M,M,M,M,M,M,M,M,M,M,M,M,M,60.80,KWYS 180455Z AUTO 12005KT 10SM CLR 16/09 A3037 RMK AO2,M
WYS,2024-07-18 05:55,59.00,48.20,67.33,120.00,6.00,0.00,30.35,M,10.00,M,FEW,M,M,M,12000.00,M,M,M,M,M,M,M,M,M,M,59.00,KWYS 180555Z AUTO 12006KT 10SM FEW120 15/09 A3035 RMK AO2,M
WYS,2024-07-18 06:55,57.20,48.20,71.83,0.00,0.00,0.00,30.34,M,10.00,M,BKN,M,M,M,11000.00,M,M,M,M,M,M,M,M,M,M,57.20,KWYS 180655Z AUTO 00000KT 10SM BKN110 14/09 A3034 RMK AO2,M
WYS,2024-07-18 07:55,55.40,51.80,87.65,0.00,0.00,0.00,30.32,M,10.00,M,BKN,M,M,M,11000.00,M,M,M,M,M,M,M,M,M,M,55.40,KWYS 180755Z AUTO 00000KT 10SM BKN110 13/11 A3032 RMK AO2,M
WYS,2024-07-18 08:55,51.80,51.80,100.00,220.00,3.00,0.00,30.32,M,10.00,M,CLR,M,M,M,M,M,M,M,M,M,M,M,M,M,M,51.80,KWYS 180855Z AUTO 22003KT 10SM CLR 11/11 A3032 RMK AO2,M
WYS,2024-07-18 09:50,48.20,48.20,100.00,0.00,0.00,0.00,30.32,M,10.00,M,CLR,M,M,M,M,M,M,M,M,M,M,M,M,M,M,48.20,KWYS 180950Z AUTO 00000KT 10SM CLR 09/09 A3032 RMK AO2,M
WYS,2024-07-18 10:55,46.40,46.40,100.00,0.00,0.00,0.00,30.33,M,10.00,M,CLR,M,M,M,M,M,M,M,M,M,M,M,M,M,M,46.40,KWYS 181055Z AUTO 00000KT 10SM CLR 08/08 A3033 RMK AO2,M
WYS,2024-07-18 11:50,42.80,42.80,100.00,0.00,0.00,0.00,30.34,M,10.00,M,CLR,M,M,M,M,M,M,M,M,M,M,M,M,M,M,42.80,KWYS 181150Z AUTO 00000KT 10SM CLR 06/06 A3034 RMK AO2,M
WYS,2024-07-18 12:55,44.60,44.60,100.00,0.00,0.00,0.00,30.35,M,10.00,M,CLR,M,M,M,M,M,M,M,M,M,M,M,M,M,M,44.60,KWYS 181255Z AUTO 00000KT 10SM CLR 07/07 A3035 RMK AO2,M
WYS,2024-07-18 13:55,53.60,50.00,87.56,0.00,0.00,0.00,30.36,M,10.00,M,CLR,M,M,M,M,M,M,M,M,M,M,M,M,M,M,53.60,KWYS 181355Z AUTO 00000KT 10SM CLR 12/10 A3036 RMK AO2,M
WYS,2024-07-18 14:55,59.00,48.20,67.33,0.00,0.00,0.00,30.36,M,10.00,M,CLR,M,M,M,M,M,M,M,M,M,M,M,M,M,M,59.00,KWYS 181455Z AUTO 00000KT 10SM CLR 15/09 A3036 RMK AO2,M
WYS,2024-07-18 15:50,64.40,46.40,51.98,0.00,0.00,0.00,30.35,M,10.00,M,CLR,M,M,M,M,M,M,M,M,M,M,M,M,M,M,64.40,KWYS 181550Z AUTO 00000KT 10SM CLR 18/08 A3035 RMK AO2,M
WYS,2024-07-18 16:55,71.60,44.60,37.89,0.00,0.00,0.00,30.35,M,10.00,M,CLR,M,M,M,M,M,M,M,M,M,M,M,M,M,M,71.60,KWYS 181655Z AUTO 00000KT 10SM CLR 22/07 A3035 RMK AO2,M
WYS,2024-07-18 17:50,78.80,46.40,31.90,M,6.00,0.00,30.33,M,10.00,M,CLR,M,M,M,M,M,M,M,M,M,M,M,M,M,M,78.80,KWYS 181750Z AUTO VRB06KT 10SM CLR 26/08 A3033 RMK AO2,M
WYS,2024-07-18 18:50,82.40,41.00,23.07,180.00,11.00,0.00,30.31,M,10.00,19.00,CLR,M,M,M,M,M,M,M,M,M,M,M,M,M,M,80.29,KWYS 181850Z AUTO 18011G19KT 10SM CLR 28/05 A3031 RMK AO2,M
WYS,2024-07-18 19:55,84.20,41.00,21.76,200.00,11.00,0.00,30.30,M,10.00,17.00,CLR,M,M,M,M,M,M,M,M,M,M,M,M,M,M,81.52,KWYS 181955Z AUTO 20011G17KT 10SM CLR 29/05 A3030 RMK AO2,M
WYS,2024-07-18 20:55,86.00,39.20,19.15,190.00,17.00,0.00,30.27,M,10.00,23.00,CLR,M,M,M,M,M,M,M,M,M,M,M,M,M,M,82.79,KWYS 182055Z AUTO 19017G23KT 10SM CLR 30/04 A3027 RMK AO2,M
WYS,2024-07-18 21:55,84.20,39.20,20.29,240.00,10.00,0.00,30.27,M,10.00,18.00,CLR,M,M,M,M,M,M,M,M,M,M,M,M,M,M,81.44,KWYS 182155Z AUTO 24010G18KT 210V270 10SM CLR 29/04 A3027 RMK AO2,M
WYS,2024-07-18 22:55,80.60,42.80,26.22,60.00,8.00,0.00,30.27,M,10.00,M,CLR,M,M,M,M,M,M,M,M,M,M,M,M,M,M,79.30,KWYS 182255Z AUTO 06008KT 10SM CLR 27/06 A3027 RMK AO2,M
WYS,2024-07-18 23:55,80.60,41.00,24.46,0.00,0.00,0.00,30.26,M,10.00,M,CLR,M,M,M,M,M,M,M,M,M,M,M,M,M,M,79.20,KWYS 182355Z AUTO 00000KT 10SM CLR 27/05 A3026 RMK AO2,M
WYS,2024-07-19 00:55,78.80,44.60,29.79,0.00,0.00,0.00,30.26,M,10.00,M,CLR,M,M,M,M,M,M,M,M,M,M,M,M,M,M,78.80,KWYS 190055Z AUTO 00000KT 10SM CLR 26/07 A3026 RMK AO2,M
WYS,2024-07-19 01:55,77.00,46.40,33.85,0.00,0.00,0.00,30.25,M,10.00,M,CLR,M,M,M,M,M,M,M,M,M,M,M,M,M,M,77.00,KWYS 190155Z AUTO 00000KT 10SM CLR 25/08 A3025 RMK AO2,M
WYS,2024-07-19 02:55,75.20,39.20,27.26,M,4.00,0.00,30.27,M,10.00,10.00,SCT,M,M,M,12000.00,M,M,M,M,M,M,M,M,M,M,75.20,KWYS 190255Z AUTO VRB04G10KT 10SM SCT120 24/04 A3027 RMK AO2,M
WYS,2024-07-19 03:55,69.80,41.00,35.09,210.00,4.00,0.00,30.30,M,10.00,M,SCT,M,M,M,12000.00,M,M,M,M,M,M,M,M,M,M,69.80,KWYS 190355Z AUTO 21004KT 10SM SCT120 21/05 A3030 RMK AO2,M
WYS,2024-07-19 04:55,69.80,44.60,40.29,180.00,13.00,0.00,30.31,M,10.00,19.00,FEW,BKN,OVC,M,3900.00,5500.00,11000.00,M,M,M,M,M,M,M,M,69.80,KWYS 190455Z AUTO 18013G19KT 150V280 10SM FEW039 BKN055 OVC110 21/07 A3031 RMK AO2,M
WYS,2024-07-19 05:55,69.80,41.00,35.09,M,9.00,0.00,30.37,M,7.00,33.00,FEW,SCT,BKN,M,500.00,3000.00,5000.00,M,M,M,M,M,M,M,M,69.80,KWYS 190555Z AUTO VRB09G33KT 7SM FEW005 SCT030 BKN050 21/05 A3037 RMK AO2,M
WYS,2024-07-19 06:55,62.60,48.20,59.26,290.00,7.00,0.02,30.31,M,10.00,M,CLR,M,M,M,M,M,M,M,M,M,M,M,M,M,M,62.60,KWYS 190655Z AUTO 29007KT 250V320 10SM CLR 17/09 A3031 RMK AO2 P0002,M
WYS,2024-07-19 07:55,57.20,50.00,76.82,190.00,4.00,0.00,30.31,M,10.00,M,CLR,M,M,M,M,M,M,M,M,M,M,M,M,M,M,57.20,KWYS 190755Z AUTO 19004KT 10SM CLR 14/10 A3031 RMK AO2,M
WYS,2024-07-19 08:55,53.60,51.80,93.60,0.00,0.00,0.00,30.32,M,10.00,M,CLR,M,M,M,M,M,M,M,M,M,M,M,M,M,M,53.60,KWYS 190855Z AUTO 00000KT 10SM CLR 12/11 A3032 RMK AO2,M
WYS,2024-07-19 09:50,50.00,50.00,100.00,0.00,0.00,0.00,30.32,M,10.00,M,CLR,M,M,M,M,M,M,M,M,M,M,M,M,M,M,50.00,KWYS 190950Z AUTO 00000KT 10SM CLR 10/10 A3032 RMK AO2,M
WYS,2024-07-19 10:55,46.40,46.40,100.00,0.00,0.00,0.00,30.33,M,10.00,M,CLR,M,M,M,M,M,M,M,M,M,M,M,M,M,M,46.40,KWYS 191055Z AUTO 00000KT 10SM CLR 08/08 A3033 RMK AO2,M
WYS,2024-07-19 11:55,44.60,44.60,100.00,0.00,0.00,0.00,30.35,M,10.00,M,CLR,M,M,M,M,M,M,M,M,M,M,M,M,M,M,44.60,KWYS 191155Z AUTO 00000KT 10SM CLR 07/07 A3035 RMK AO2,M
WYS,2024-07-19 12:55,46.40,46.40,100.00,0.00,0.00,0.00,30.36,M,10.00,M,CLR,M,M,M,M,M,M,M,M,M,M,M,M,M,M,46.40,KWYS 191255Z AUTO 00000KT 10SM CLR 08/08 A3036 RMK AO2,M
WYS,2024-07-19 13:55,53.60,50.00,87.56,0.00,0.00,0.00,30.38,M,10.00,M,CLR,M,M,M,M,M,M,M,M,M,M,M,M,M,M,53.60,KWYS 191355Z AUTO 00000KT 10SM CLR 12/10 A3038 RMK AO2,M
WYS,2024-07-19 14:55,60.80,46.40,59.01,M,3.00,0.00,30.38,M,10.00,M,CLR,M,M,M,M,M,M,M,M,M,M,M,M,M,M,60.80,KWYS 191455Z AUTO VRB03KT 10SM CLR 16/08 A3038 RMK AO2,M
WYS,2024-07-19 15:55,68.00,46.40,45.88,0.00,0.00,0.00,30.37,M,10.00,M,CLR,M,M,M,M,M,M,M,M,M,M,M,M,M,M,68.00,KWYS 191555Z AUTO 00000KT 10SM CLR 20/08 A3037 RMK AO2,M
WYS,2024-07-19 16:55,75.20,44.60,33.57,M,3.00,0.00,30.37,M,10.00,M,CLR,M,M,M,M,M,M,M,M,M,M,M,M,M,M,75.20,KWYS 191655Z AUTO VRB03KT 10SM CLR 24/07 A3037 RMK AO2,M
WYS,2024-07-19 17:55,78.80,42.80,27.81,200.00,6.00,0.00,30.36,M,10.00,M,CLR,M,M,M,M,M,M,M,M,M,M,M,M,M,M,78.80,KWYS 191755Z AUTO 20006KT 10SM CLR 26/06 A3036 RMK AO2,M
WYS,2024-07-19 18:55,80.60,42.80,26.22,M,6.00,0.00,30.36,M,10.00,M,SCT,M,M,M,8000.00,M,M,M,M,M,M,M,M,M,M,79.30,KWYS 191855Z AUTO VRB06KT 10SM SCT080 27/06 A3036 RMK AO2,M
WYS,2024-07-19 19:55,82.40,39.20,21.51,0.00,0.00,0.00,30.35,M,10.00,13.00,SCT,M,M,M,8500.00,M,M,M,M,M,M,M,M,M,M,80.21,KWYS 191955Z AUTO 00000G13KT 10SM SCT085 28/04 A3035 RMK AO2,M
WYS,2024-07-19 20:55,84.20,33.80,16.39,330.00,9.00,0.00,30.34,M,10.00,15.00,CLR,M,M,M,M,M,M,M,M,M,M,M,M,M,M,81.30,KWYS 192055Z AUTO 33009G15KT 290V040 10SM CLR 29/01 A3034 RMK AO2,M
WYS,2024-07-19 21:55,84.20,33.80,16.39,360.00,8.00,0.00,30.33,M,10.00,16.00,CLR,M,M,M,M,M,M,M,M,M,M,M,M,M,M,81.30,KWYS 192155Z AUTO 36008G16KT 320V020 10SM CLR 29/01 A3033 RMK AO2,M
WYS,2024-07-19 22:55,84.20,33.80,16.39,350.00,10.00,0.00,30.32,M,10.00,17.00,CLR,M,M,M,M,M,M,M,M,M,M,M,M,M,M,81.30,KWYS 192255Z AUTO 35010G17KT 10SM CLR 29/01 A3032 RMK AO2,M
WYS,2024-07-19 23:55,82.40,30.20,15.03,M,4.00,0.00,30.31,M,10.00,14.00,CLR,M,M,M,M,M,M,M,M,M,M,M,M,M,M,79.97,KWYS 192355Z AUTO VRB04G14KT 10SM CLR 28/M01 A3031 RMK AO2,M
WYS,2024-07-20 00:55,82.40,30.20,15.03,350.00,9.00,0.00,30.31,M,10.00,M,CLR,M,M,M,M,M,M,M,M,M,M,M,M,M,M,79.97,KWYS 200055Z AUTO 35009KT 320V040 10SM CLR 28/M01 A3031 RMK AO2,M
WYS,2024-07-20 01:55,80.60,37.40,21.25,20.00,10.00,0.00,30.31,M,10.00,M,CLR,M,M,M,M,M,M,M,M,M,M,M,M,M,M,79.02,KWYS 200155Z AUTO 02010KT 10SM CLR 27/03 A3031 RMK AO2,M
WYS,2024-07-20 02:55,73.40,37.40,26.98,20.00,5.00,0.00,30.34,M,10.00,M,CLR,M,M,M,M,M,M,M,M,M,M,M,M,M,M,73.40,KWYS 200255Z AUTO 02005KT 10SM CLR 23/03 A3034 RMK AO2,M
WYS,2024-07-20 03:55,66.20,37.40,34.51,0.00,0.00,0.00,30.36,M,10.00,M,CLR,M,M,M,M,M,M,M,M,M,M,M,M,M,M,66.20,KWYS 200355Z AUTO 00000KT 10SM CLR 19/03 A3036 RMK AO2,M
WYS,2024-07-20 04:55,59.00,41.00,51.18,0.00,0.00,0.00,30.37,M,10.00,M,CLR,M,M,M,M,M,M,M,M,M,M,M,M,M,M,59.00,KWYS 200455Z AUTO 00000KT 10SM CLR 15/05 A3037 RMK AO2,M
WYS,2024-07-20 05:55,55.40,41.00,58.27,0.00,0.00,0.00,30.38,M,10.00,M,CLR,M,M,M,M,M,M,M,M,M,M,M,M,M,M,55.40,KWYS 200555Z AUTO 00000KT 10SM CLR 13/05 A3038 RMK AO2,M
WYS,2024-07-20 06:55,53.60,41.00,62.23,190.00,4.00,0.00,30.39,M,10.00,M,CLR,M,M,M,M,M,M,M,M,M,M,M,M,M,M,53.60,KWYS 200655Z AUTO 19004KT 10SM CLR 12/05 A3039 RMK AO2,M
WYS,2024-07-20 07:55,51.80,41.00,66.48,0.00,0.00,0.00,30.40,M,10.00,M,CLR,M,M,M,M,M,M,M,M,M,M,M,M,M,M,51.80,KWYS 200755Z AUTO 00000KT 10SM CLR 11/05 A3040 RMK AO2,M
WYS,2024-07-20 08:55,48.20,41.00,76.01,0.00,0.00,0.00,30.40,M,10.00,M,CLR,M,M,M,M,M,M,M,M,M,M,M,M,M,M,48.20,KWYS 200855Z AUTO 00000KT 10SM CLR 09/05 A3040 RMK AO2,M
WYS,2024-07-20 09:55,46.40,42.80,87.19,0.00,0.00,0.00,30.40,M,10.00,M,CLR,M,M,M,M,M,M,M,M,M,M,M,M,M,M,46.40,KWYS 200955Z AUTO 00000KT 10SM CLR 08/06 A3040 RMK AO2,M
WYS,2024-07-20 10:55,46.40,42.80,87.19,0.00,0.00,0.00,30.41,M,10.00,M,OVC,M,M,M,12000.00,M,M,M,M,M,M,M,M,M,M,46.40,KWYS 201055Z AUTO 00000KT 10SM OVC120 08/06 A3041 RMK AO2,M
WYS,2024-07-20 11:55,44.60,42.80,93.35,0.00,0.00,0.00,30.43,M,10.00,M,FEW,M,M,M,12000.00,M,M,M,M,M,M,M,M,M,M,44.60,KWYS 201155Z AUTO 00000KT 10SM FEW120 07/06 A3043 RMK AO2,M
WYS,2024-07-20 12:55,46.40,44.60,93.40,0.00,0.00,0.00,30.43,M,10.00,M,FEW,M,M,M,11000.00,M,M,M,M,M,M,M,M,M,M,46.40,KWYS 201255Z AUTO 00000KT 10SM FEW110 08/07 A3043 RMK AO2,M
WYS,2024-07-20 13:55,50.00,46.40,87.37,0.00,0.00,0.00,30.44,M,10.00,M,FEW,M,M,M,11000.00,M,M,M,M,M,M,M,M,M,M,50.00,KWYS 201355Z AUTO 00000KT 10SM FEW110 10/08 A3044 RMK AO2,M
WYS,2024-07-20 14:55,55.40,42.80,62.46,0.00,0.00,0.00,30.45,M,10.00,M,FEW,M,M,M,11000.00,M,M,M,M,M,M,M,M,M,M,55.40,KWYS 201455Z AUTO 00000KT 10SM FEW110 13/06 A3045 RMK AO2,M
WYS,2024-07-20 15:55,64.40,42.80,45.32,0.00,0.00,0.00,30.45,M,10.00,M,BKN,M,M,M,11000.00,M,M,M,M,M,M,M,M,M,M,64.40,KWYS 201555Z AUTO 00000KT 10SM BKN110 18/06 A3045 RMK AO2,M
WYS,2024-07-20 16:55,71.60,42.80,35.37,0.00,0.00,0.00,30.44,M,10.00,M,CLR,M,M,M,M,M,M,M,M,M,M,M,M,M,M,71.60,KWYS 201655Z AUTO 00000KT 10SM CLR 22/06 A3044 RMK AO2,M
WYS,2024-07-20 17:55,75.20,39.20,27.26,50.00,4.00,0.00,30.43,M,10.00,M,CLR,M,M,M,M,M,M,M,M,M,M,M,M,M,M,75.20,KWYS 201755Z AUTO 05004KT 10SM CLR 24/04 A3043 RMK AO2,M
WYS,2024-07-20 18:55,75.20,37.40,25.40,250.00,6.00,0.00,30.44,M,10.00,M,BKN,M,M,M,10000.00,M,M,M,M,M,M,M,M,M,M,75.20,KWYS 201855Z AUTO 25006KT 10SM BKN100 24/03 A3044 RMK AO2,M
WYS,2024-07-20 19:55,77.00,35.60,22.28,M,4.00,0.00,30.42,M,10.00,M,CLR,M,M,M,M,M,M,M,M,M,M,M,M,M,M,77.00,KWYS 201955Z AUTO VRB04KT 10SM CLR 25/02 A3042 RMK AO2,M
WYS,2024-07-20 20:55,80.60,37.40,21.25,M,4.00,0.00,30.39,M,10.00,M,CLR,M,M,M,M,M,M,M,M,M,M,M,M,M,M,79.02,KWYS 202055Z AUTO VRB04KT 10SM CLR 27/03 A3039 RMK AO2,M
WYS,2024-07-20 21:55,80.60,39.20,22.81,350.00,8.00,0.00,30.38,M,10.00,M,SCT,M,M,M,9500.00,M,M,M,M,M,M,M,M,M,M,79.10,KWYS 202155Z AUTO 35008KT 10SM SCT095 27/04 A3038 RMK AO2,M
WYS,2024-07-20 22:55,78.80,37.40,22.54,M,5.00,0.00,30.39,M,10.00,13.00,CLR,M,M,M,M,M,M,M,M,M,M,M,M,M,M,78.80,KWYS 202255Z AUTO VRB05G13KT 10SM CLR 26/03 A3039 RMK AO2,M
WYS,2024-07-20 23:55,80.60,35.60,19.79,50.00,12.00,0.00,30.36,M,10.00,M,BKN,M,M,M,10000.00,M,M,M,M,M,M,M,M,M,M,78.94,KWYS 202355Z AUTO 05012KT 10SM BKN100 27/02 A3036 RMK AO2,M
WYS,2024-07-21 00:55,80.60,33.80,18.42,20.00,12.00,0.00,30.37,M,10.00,18.00,CLR,M,M,M,M,M,M,M,M,M,M,M,M,M,M,78.88,KWYS 210055Z AUTO 02012G18KT 10SM CLR 27/01 A3037 RMK AO2,M
WYS,2024-07-21 01:55,77.00,32.00,19.30,20.00,11.00,0.00,30.38,M,10.00,19.00,CLR,M,M,M,M,M,M,M,M,M,M,M,M,M,M,77.00,KWYS 210155Z AUTO 02011G19KT 10SM CLR 25/M00 A3038 RMK AO2,M
WYS,2024-07-21 02:55,71.60,35.60,26.71,20.00,11.00,0.00,30.39,M,10.00,17.00,CLR,M,M,M,M,M,M,M,M,M,M,M,M,M,M,71.60,KWYS 210255Z AUTO 02011G17KT 10SM CLR 22/02 A3039 RMK AO2,M
WYS,2024-07-21 03:55,69.80,37.40,30.49,50.00,5.00,0.00,30.42,M,10.00,11.00,CLR,M,M,M,M,M,M,M,M,M,M,M,M,M,M,69.80,KWYS 210355Z AUTO 05005G11KT 10SM CLR 21/03 A3042 RMK AO2,M
WYS,2024-07-21 04:55,66.20,41.00,39.72,50.00,7.00,0.00,30.43,M,10.00,M,CLR,M,M,M,M,M,M,M,M,M,M,M,M,M,M,66.20,KWYS 210455Z AUTO 05007KT 10SM CLR 19/05 A3043 RMK AO2,M
WYS,2024-07-21 05:55,57.20,41.00,54.60,0.00,0.00,0.00,30.44,M,10.00,M,CLR,M,M,M,M,M,M,M,M,M,M,M,M,M,M,57.20,KWYS 210555Z AUTO 00000KT 10SM CLR 14/05 A3044 RMK AO2,M
WYS,2024-07-21 06:55,53.60,41.00,62.23,0.00,0.00,0.00,30.44,M,10.00,M,CLR,M,M,M,M,M,M,M,M,M,M,M,M,M,M,53.60,KWYS 210655Z AUTO 00000KT 10SM CLR 12/05 A3044 RMK AO2,M
WYS,2024-07-21 07:55,48.20,39.20,70.88,0.00,0.00,0.00,30.44,M,10.00,M,CLR,M,M,M,M,M,M,M,M,M,M,M,M,M,M,48.20,KWYS 210755Z AUTO 00000KT 10SM CLR 09/04 A3044 RMK AO2,M
WYS,2024-07-21 08:55,46.40,41.00,81.34,0.00,0.00,0.00,30.44,M,10.00,M,CLR,M,M,M,M,M,M,M,M,M,M,M,M,M,M,46.40,KWYS 210855Z AUTO 00000KT 10SM CLR 08/05 A3044 RMK AO2,M
WYS,2024-07-21 09:55,44.60,44.60,100.00,0.00,0.00,0.00,30.44,M,10.00,M,CLR,M,M,M,M,M,M,M,M,M,M,M,M,M,M,44.60,KWYS 210955Z AUTO 00000KT 10SM CLR 07/07 A3044 RMK AO2,M
WYS,2024-07-21 10:55,41.00,41.00,100.00,0.00,0.00,0.00,30.46,M,10.00,M,CLR,M,M,M,M,M,M,M,M,M,M,M,M,M,M,41.00,KWYS 211055Z AUTO 00000KT 10SM CLR 05/05 A3046 RMK AO2,M
WYS,2024-07-21 11:55,39.20,39.20,100.00,0.00,0.00,0.00,30.46,M,10.00,M,CLR,M,M,M,M,M,M,M,M,M,M,M,M,M,M,39.20,KWYS 211155Z AUTO 00000KT 10SM CLR 04/04 A3046 RMK AO2,M
WYS,2024-07-21 12:55,41.00,41.00,100.00,0.00,0.00,0.00,30.46,M,10.00,M,CLR,M,M,M,M,M,M,M,M,M,M,M,M,M,M,41.00,KWYS 211255Z AUTO 00000KT 10SM CLR 05/05 A3046 RMK AO2,M
WYS,2024-07-21 13:55,50.00,44.60,81.61,0.00,0.00,0.00,30.46,M,10.00,M,CLR,M,M,M,M,M,M,M,M,M,M,M,M,M,M,50.00,KWYS 211355Z AUTO 00000KT 10SM CLR 10/07 A3046 RMK AO2,M
WYS,2024-07-21 14:55,57.20,42.80,58.52,0.00,0.00,0.00,30.46,M,10.00,M,CLR,M,M,M,M,M,M,M,M,M,M,M,M,M,M,57.20,KWYS 211455Z AUTO 00000KT 10SM CLR 14/06 A3046 RMK AO2,M
WYS,2024-07-21 15:55,64.40,42.80,45.32,M,3.00,0.00,30.45,M,10.00,M,CLR,M,M,M,M,M,M,M,M,M,M,M,M,M,M,64.40,KWYS 211555Z AUTO VRB03KT 10SM CLR 18/06 A3045 RMK AO2,M
WYS,2024-07-21 16:55,69.80,41.00,35.09,0.00,0.00,0.00,30.43,M,10.00,M,CLR,M,M,M,M,M,M,M,M,M,M,M,M,M,M,69.80,KWYS 211655Z AUTO 00000KT 10SM CLR 21/05 A3043 RMK AO2,M
WYS,2024-07-21 17:55,73.40,41.00,31.05,M,5.00,0.00,30.42,M,10.00,M,CLR,M,M,M,M,M,M,M,M,M,M,M,M,M,M,73.40,KWYS 211755Z AUTO VRB05KT 10SM CLR 23/05 A3042 RMK AO2,M
WYS,2024-07-21 18:55,77.00,39.20,25.67,0.00,0.00,0.00,30.40,M,10.00,M,FEW,M,M,M,8000.00,M,M,M,M,M,M,M,M,M,M,77.00,KWYS 211855Z AUTO 00000KT 10SM FEW080 25/04 A3040 RMK AO2,M
WYS,2024-07-21 19:55,78.80,33.80,19.55,M,5.00,0.00,30.38,M,10.00,11.00,FEW,M,M,M,9000.00,M,M,M,M,M,M,M,M,M,M,78.80,KWYS 211955Z AUTO VRB05G11KT 10SM FEW090 26/01 A3038 RMK AO2,M
WYS,2024-07-21 20:55,78.80,37.40,22.54,M,6.00,0.00,30.36,M,10.00,17.00,SCT,M,M,M,9000.00,M,M,M,M,M,M,M,M,M,M,78.80,KWYS 212055Z AUTO VRB06G17KT 10SM SCT090 26/03 A3036 RMK AO2,M
WYS,2024-07-21 21:55,80.60,33.80,18.42,30.00,7.00,0.00,30.35,M,10.00,15.00,FEW,M,M,M,9500.00,M,M,M,M,M,M,M,M,M,M,78.88,KWYS 212155Z AUTO 03007G15KT 10SM FEW095 27/01 A3035 RMK AO2,M
WYS,2024-07-21 22:55,82.40,28.40,13.96,30.00,10.00,0.00,30.33,M,10.00,15.00,CLR,M,M,M,M,M,M,M,M,M,M,M,M,M,M,79.94,KWYS 212255Z AUTO 03010G15KT 10SM CLR 28/M02 A3033 RMK AO2,M
WYS,2024-07-21 23:55,82.40,24.80,12.03,50.00,5.00,0.00,30.32,M,10.00,14.00,CLR,M,M,M,M,M,M,M,M,M,M,M,M,M,M,79.79,KWYS 212355Z AUTO 05005G14KT 10SM CLR 28/M04 A3032 RMK AO2,M
WYS,2024-07-22 00:55,80.60,32.00,17.14,360.00,7.00,0.00,30.31,M,10.00,13.00,CLR,M,M,M,M,M,M,M,M,M,M,M,M,M,M,78.82,KWYS 220055Z AUTO 36007G13KT 10SM CLR 27/00 A3031 RMK AO2,M
WYS,2024-07-22 01:55,77.00,32.00,19.30,20.00,10.00,0.00,30.32,M,10.00,M,CLR,M,M,M,M,M,M,M,M,M,M,M,M,M,M,77.00,KWYS 220155Z AUTO 02010KT 10SM CLR 25/M00 A3032 RMK AO2,M
WYS,2024-07-22 02:55,73.40,39.20,28.96,60.00,7.00,0.00,30.33,M,10.00,M,CLR,M,M,M,M,M,M,M,M,M,M,M,M,M,M,73.40,KWYS 220255Z AUTO 06007KT 10SM CLR 23/04 A3033 RMK AO2,M
WYS,2024-07-22 03:55,66.20,41.00,39.72,0.00,0.00,0.00,30.35,M,10.00,M,CLR,M,M,M,M,M,M,M,M,M,M,M,M,M,M,66.20,KWYS 220355Z AUTO 00000KT 10SM CLR 19/05 A3035 RMK AO2,M
WYS,2024-07-22 04:55,62.60,41.00,45.04,10.00,5.00,0.00,30.35,M,10.00,M,CLR,M,M,M,M,M,M,M,M,M,M,M,M,M,M,62.60,KWYS 220455Z AUTO 01005KT 10SM CLR 17/05 A3035 RMK AO2,M
WYS,2024-07-22 05:55,55.40,41.00,58.27,0.00,0.00,0.00,30.36,M,10.00,M,CLR,M,M,M,M,M,M,M,M,M,M,M,M,M,M,55.40,KWYS 220555Z AUTO 00000KT 10SM CLR 13/05 A3036 RMK AO2,M
WYS,2024-07-22 06:55,51.80,41.00,66.48,0.00,0.00,0.00,30.36,M,10.00,M,CLR,M,M,M,M,M,M,M,M,M,M,M,M,M,M,51.80,KWYS 220655Z AUTO 00000KT 10SM CLR 11/05 A3036 RMK AO2,M
WYS,2024-07-22 07:55,48.20,41.00,76.01,0.00,0.00,0.00,30.37,M,10.00,M,CLR,M,M,M,M,M,M,M,M,M,M,M,M,M,M,48.20,KWYS 220755Z AUTO 00000KT 10SM CLR 09/05 A3037 RMK AO2,M
WYS,2024-07-22 08:55,46.40,42.80,87.19,0.00,0.00,0.00,30.36,M,10.00,M,CLR,M,M,M,M,M,M,M,M,M,M,M,M,M,M,46.40,KWYS 220855Z AUTO 00000KT 10SM CLR 08/06 A3036 RMK AO2,M
WYS,2024-07-22 09:55,44.60,42.80,93.35,0.00,0.00,0.00,30.36,M,10.00,M,CLR,M,M,M,M,M,M,M,M,M,M,M,M,M,M,44.60,KWYS 220955Z AUTO 00000KT 10SM CLR 07/06 A3036 RMK AO2,M
WYS,2024-07-22 10:55,42.80,42.80,100.00,0.00,0.00,0.00,30.36,M,10.00,M,CLR,M,M,M,M,M,M,M,M,M,M,M,M,M,M,42.80,KWYS 221055Z AUTO 00000KT 10SM CLR 06/06 A3036 RMK AO2,M
WYS,2024-07-22 11:50,41.00,41.00,100.00,0.00,0.00,0.00,30.36,M,10.00,M,CLR,M,M,M,M,M,M,M,M,M,M,M,M,M,M,41.00,KWYS 221150Z AUTO 00000KT 10SM CLR 05/05 A3036 RMK AO2,M
WYS,2024-07-22 12:55,41.00,41.00,100.00,0.00,0.00,0.00,30.37,M,10.00,M,CLR,M,M,M,M,M,M,M,M,M,M,M,M,M,M,41.00,KWYS 221255Z AUTO 00000KT 10SM CLR 05/05 A3037 RMK AO2,M
WYS,2024-07-22 13:55,50.00,44.60,81.61,0.00,0.00,0.00,30.38,M,10.00,M,CLR,M,M,M,M,M,M,M,M,M,M,M,M,M,M,50.00,KWYS 221355Z AUTO 00000KT 10SM CLR 10/07 A3038 RMK AO2,M
WYS,2024-07-22 14:55,57.20,44.60,62.69,0.00,0.00,0.00,30.38,M,10.00,M,CLR,M,M,M,M,M,M,M,M,M,M,M,M,M,M,57.20,KWYS 221455Z AUTO 00000KT 10SM CLR 14/07 A3038 RMK AO2,M
WYS,2024-07-22 15:55,64.40,42.80,45.32,0.00,0.00,0.00,30.36,M,10.00,M,CLR,M,M,M,M,M,M,M,M,M,M,M,M,M,M,64.40,KWYS 221555Z AUTO 00000KT 10SM CLR 18/06 A3036 RMK AO2,M
WYS,2024-07-22 16:55,69.80,42.80,37.61,0.00,0.00,0.00,30.35,M,10.00,M,CLR,M,M,M,M,M,M,M,M,M,M,M,M,M,M,69.80,KWYS 221655Z AUTO 00000KT 10SM CLR 21/06 A3035 RMK AO2,M
WYS,2024-07-22 17:55,75.20,42.80,31.34,M,4.00,0.00,30.32,M,10.00,M,CLR,M,M,M,M,M,M,M,M,M,M,M,M,M,M,75.20,KWYS 221755Z AUTO VRB04KT 10SM CLR 24/06 A3032 RMK AO2,M
WYS,2024-07-22 18:55,80.60,41.00,24.46,230.00,9.00,0.00,30.30,M,10.00,M,CLR,M,M,M,M,M,M,M,M,M,M,M,M,M,M,79.20,KWYS 221855Z AUTO 23009KT 210V270 10SM CLR 27/05 A3030 RMK AO2,M
WYS,2024-07-22 19:55,82.40,37.40,20.04,M,5.00,0.00,30.28,M,9.00,11.00,FEW,M,M,M,9500.00,M,M,M,M,M,M,M,M,M,M,80.14,KWYS 221955Z AUTO VRB05G11KT 9SM FEW095 28/03 A3028 RMK AO2,M
WYS,2024-07-22 20:50,82.40,35.60,18.67,0.00,0.00,0.00,30.26,M,10.00,M,FEW,M,M,M,10000.00,M,M,M,M,M,M,M,M,M,M,80.08,KWYS 222050Z AUTO 00000KT 10SM FEW100 28/02 A3026 RMK AO2,M
WYS,2024-07-22 21:55,84.20,33.80,16.39,150.00,7.00,0.00,30.24,M,10.00,15.00,SCT,M,M,M,11000.00,M,M,M,M,M,M,M,M,M,M,81.30,KWYS 222155Z AUTO 15007G15KT 10SM SCT110 29/01 A3024 RMK AO2,M
WYS,2024-07-22 22:55,82.40,37.40,20.04,M,6.00,0.00,30.24,M,10.00,M,SCT,M,M,M,11000.00,M,M,M,M,M,M,M,M,M,M,80.14,KWYS 222255Z AUTO VRB06KT 10SM SCT110 28/03 A3024 RMK AO2,M
WYS,2024-07-22 23:55,75.20,41.00,29.23,290.00,9.00,0.00,30.26,M,10.00,15.00,FEW,M,M,M,10000.00,M,M,M,M,M,M,M,M,M,M,75.20,KWYS 222355Z AUTO 29009G15KT 270V330 10SM FEW100 24/05 A3026 RMK AO2,M
WYS,2024-07-23 00:55,75.20,42.80,31.34,M,5.00,0.00,30.28,M,10.00,M,CLR,M,M,M,M,M,M,M,M,M,M,M,M,M,M,75.20,KWYS 230055Z AUTO VRB05KT 10SM CLR 24/06 A3028 RMK AO2,M
WYS,2024-07-23 01:55,71.60,44.60,37.89,350.00,7.00,0.00,30.29,M,10.00,M,CLR,M,M,M,M,M,M,M,M,M,M,M,M,M,M,71.60,KWYS 230155Z AUTO 35007KT 10SM CLR 22/07 A3029 RMK AO2,M
WYS,2024-07-23 02:55,68.00,42.80,40.00,310.00,3.00,0.00,30.27,M,10.00,M,CLR,M,M,M,M,M,M,M,M,M,M,M,M,M,M,68.00,KWYS 230255Z AUTO 31003KT 10SM CLR 20/06 A3027 RMK AO2,M
WYS,2024-07-23 03:55,66.20,42.80,42.57,0.00,0.00,0.00,30.28,M,10.00,M,CLR,M,M,M,M,M,M,M,M,M,M,M,M,M,M,66.20,KWYS 230355Z AUTO 00000KT 10SM CLR 19/06 A3028 RMK AO2,M
WYS,2024-07-23 04:55,60.80,42.80,51.45,0.00,0.00,0.00,30.29,M,10.00,M,CLR,M,M,M,M,M,M,M,M,M,M,M,M,M,M,60.80,KWYS 230455Z AUTO 00000KT 10SM CLR 16/06 A3029 RMK AO2,M
WYS,2024-07-23 05:55,55.40,42.80,62.46,0.00,0.00,0.00,30.29,M,10.00,M,CLR,M,M,M,M,M,M,M,M,M,M,M,M,M,M,55.40,KWYS 230555Z AUTO 00000KT 10SM CLR 13/06 A3029 RMK AO2,M
WYS,2024-07-23 06:55,51.80,42.80,71.26,0.00,0.00,0.00,30.30,M,10.00,M,CLR,M,M,M,M,M,M,M,M,M,M,M,M,M,M,51.80,KWYS 230655Z AUTO 00000KT 10SM CLR 11/06 A3030 RMK AO2,M
WYS,2024-07-23 07:55,48.20,42.80,81.47,0.00,0.00,0.00,30.30,M,10.00,M,CLR,M,M,M,M,M,M,M,M,M,M,M,M,M,M,48.20,KWYS 230755Z AUTO 00000KT 10SM CLR 09/06 A3030 RMK AO2,M
WYS,2024-07-23 08:55,46.40,44.60,93.40,0.00,0.00,0.00,30.30,M,10.00,M,CLR,M,M,M,M,M,M,M,M,M,M,M,M,M,M,46.40,KWYS 230855Z AUTO 00000KT 10SM CLR 08/07 A3030 RMK AO2,M
WYS,2024-07-23 09:55,44.60,44.60,100.00,0.00,0.00,0.00,30.31,M,10.00,M,CLR,M,M,M,M,M,M,M,M,M,M,M,M,M,M,44.60,KWYS 230955Z AUTO 00000KT 10SM CLR 07/07 A3031 RMK AO2,M
WYS,2024-07-23 10:55,42.80,42.80,100.00,0.00,0.00,0.00,30.31,M,10.00,M,CLR,M,M,M,M,M,M,M,M,M,M,M,M,M,M,42.80,KWYS 231055Z AUTO 00000KT 10SM CLR 06/06 A3031 RMK AO2,M
WYS,2024-07-23 11:55,41.00,41.00,100.00,0.00,0.00,0.00,30.32,M,10.00,M,CLR,M,M,M,M,M,M,M,M,M,M,M,M,M,M,41.00,KWYS 231155Z AUTO 00000KT 10SM CLR 05/05 A3032 RMK AO2,M
WYS,2024-07-23 12:55,42.80,42.80,100.00,0.00,0.00,0.00,30.33,M,10.00,M,CLR,M,M,M,M,M,M,M,M,M,M,M,M,M,M,42.80,KWYS 231255Z AUTO 00000KT 10SM CLR 06/06 A3033 RMK AO2,M
WYS,2024-07-23 13:55,50.00,46.40,87.37,0.00,0.00,0.00,30.34,M,10.00,M,CLR,M,M,M,M,M,M,M,M,M,M,M,M,M,M,50.00,KWYS 231355Z AUTO 00000KT 10SM CLR 10/08 A3034 RMK AO2,M
WYS,2024-07-23 14:55,57.20,44.60,62.69,0.00,0.00,0.00,30.34,M,10.00,M,CLR,M,M,M,M,M,M,M,M,M,M,M,M,M,M,57.20,KWYS 231455Z AUTO 00000KT 10SM CLR 14/07 A3034 RMK AO2,M
WYS,2024-07-23 15:55,64.40,44.60,48.55,0.00,0.00,0.00,30.34,M,10.00,M,CLR,M,M,M,M,M,M,M,M,M,M,M,M,M,M,64.40,KWYS 231555Z AUTO 00000KT 10SM CLR 18/07 A3034 RMK AO2,M
WYS,2024-07-23 16:55,69.80,42.80,37.61,0.00,0.00,0.00,30.33,M,10.00,M,CLR,M,M,M,M,M,M,M,M,M,M,M,M,M,M,69.80,KWYS 231655Z AUTO 00000KT 10SM CLR 21/06 A3033 RMK AO2,M
WYS,2024-07-23 17:55,77.00,42.80,29.51,0.00,0.00,0.00,30.32,M,10.00,M,CLR,M,M,M,M,M,M,M,M,M,M,M,M,M,M,77.00,KWYS 231755Z AUTO 00000KT 10SM CLR 25/06 A3032 RMK AO2,M
WYS,2024-07-23 18:55,80.60,39.20,22.81,0.00,0.00,0.00,30.31,M,10.00,M,CLR,M,M,M,M,M,M,M,M,M,M,M,M,M,M,79.10,KWYS 231855Z AUTO 00000KT 10SM CLR 27/04 A3031 RMK AO2,M
WYS,2024-07-23 19:55,84.20,37.40,18.91,M,5.00,0.00,30.30,M,10.00,11.00,CLR,M,M,M,M,M,M,M,M,M,M,M,M,M,M,81.38,KWYS 231955Z AUTO VRB05G11KT 10SM CLR 29/03 A3030 RMK AO2,M
WYS,2024-07-23 20:55,84.20,37.40,18.91,10.00,8.00,0.00,30.29,M,10.00,M,FEW,M,M,M,10000.00,M,M,M,M,M,M,M,M,M,M,81.38,KWYS 232055Z AUTO 01008KT 310V030 10SM FEW100 29/03 A3029 RMK AO2,M
WYS,2024-07-23 21:55,84.20,35.60,17.61,M,6.00,0.00,30.28,M,10.00,M,SCT,M,M,M,11000.00,M,M,M,M,M,M,M,M,M,M,81.34,KWYS 232155Z AUTO VRB06KT 10SM SCT110 29/02 A3028 RMK AO2,M
WYS,2024-07-23 22:55,86.00,33.80,15.48,M,M,0.00,30.28,M,10.00,M,FEW,M,M,M,11000.00,M,M,M,M,M,M,M,M,M,M,82.66,KWYS 232255Z AUTO 6/20000006G12KT 10SM FEW110 30/01 A3028 RMK AO2,M
WYS,2024-07-23 23:55,87.80,28.40,11.74,M,5.00,0.00,30.26,M,10.00,M,CLR,M,M,M,M,M,M,M,M,M,M,M,M,M,M,83.84,KWYS 232355Z AUTO VRB05KT 10SM CLR 31/M02 A3026 RMK AO2,M
WYS,2024-07-24 00:55,86.00,26.60,11.55,M,5.00,0.00,30.26,M,10.00,M,CLR,M,M,M,M,M,M,M,M,M,M,M,M,M,M,82.39,KWYS 240055Z AUTO VRB05KT 10SM CLR 30/M03 A3026 RMK AO2,M
WYS,2024-07-24 01:55,82.40,28.40,13.96,0.00,0.00,0.00,30.28,M,10.00,M,CLR,M,M,M,M,M,M,M,M,M,M,M,M,M,M,79.94,KWYS 240155Z AUTO 00000KT 10SM CLR 28/M02 A3028 RMK AO2,M
WYS,2024-07-24 02:55,69.80,35.60,28.39,M,3.00,0.00,30.29,M,10.00,M,CLR,M,M,M,M,M,M,M,M,M,M,M,M,M,M,69.80,KWYS 240255Z AUTO VRB03KT 10SM CLR 21/02 A3029 RMK AO2,M
WYS,2024-07-24 03:55,66.20,39.20,37.03,210.00,3.00,0.00,30.30,M,10.00,M,CLR,M,M,M,M,M,M,M,M,M,M,M,M,M,M,66.20,KWYS 240355Z AUTO 21003KT 10SM CLR 19/04 A3030 RMK AO2,M
WYS,2024-07-24 04:55,59.00,39.20,47.72,190.00,3.00,0.00,30.33,M,10.00,M,CLR,M,M,M,M,M,M,M,M,M,M,M,M,M,M,59.00,KWYS 240455Z AUTO 19003KT 10SM CLR 15/04 A3033 RMK AO2,M
WYS,2024-07-24 05:55,57.20,39.20,50.91,0.00,0.00,0.00,30.34,M,10.00,M,CLR,M,M,M,M,M,M,M,M,M,M,M,M,M,M,57.20,KWYS 240555Z AUTO 00000KT 10SM CLR 14/04 A3034 RMK AO2,M
WYS,2024-07-24 06:55,53.60,39.20,58.02,0.00,0.00,0.00,30.36,M,10.00,M,CLR,M,M,M,M,M,M,M,M,M,M,M,M,M,M,53.60,KWYS 240655Z AUTO 00000KT 10SM CLR 12/04 A3036 RMK AO2,M
WYS,2024-07-24 07:55,51.80,39.20,61.99,0.00,0.00,0.00,30.36,M,10.00,M,CLR,M,M,M,M,M,M,M,M,M,M,M,M,M,M,51.80,KWYS 240755Z AUTO 00000KT 10SM CLR 11/04 A3036 RMK AO2,M
WYS,2024-07-24 08:55,48.20,41.00,76.01,0.00,0.00,0.00,30.37,M,10.00,M,CLR,M,M,M,M,M,M,M,M,M,M,M,M,M,M,48.20,KWYS 240855Z AUTO 00000KT 10SM CLR 09/05 A3037 RMK AO2,M
WYS,2024-07-24 09:55,46.40,41.00,81.34,0.00,0.00,0.00,30.38,M,10.00,M,CLR,M,M,M,M,M,M,M,M,M,M,M,M,M,M,46.40,KWYS 240955Z AUTO 00000KT 10SM CLR 08/05 A3038 RMK AO2,M
WYS,2024-07-24 10:55,44.60,42.80,93.35,0.00,0.00,0.00,30.38,M,10.00,M,CLR,M,M,M,M,M,M,M,M,M,M,M,M,M,M,44.60,KWYS 241055Z AUTO 00000KT 10SM CLR 07/06 A3038 RMK AO2,M
WYS,2024-07-24 11:55,42.80,42.80,100.00,0.00,0.00,0.00,30.39,M,10.00,M,CLR,M,M,M,M,M,M,M,M,M,M,M,M,M,M,42.80,KWYS 241155Z AUTO 00000KT 10SM CLR 06/06 A3039 RMK AO2,M
WYS,2024-07-24 12:55,44.60,42.80,93.35,0.00,0.00,0.00,30.40,M,10.00,M,CLR,M,M,M,M,M,M,M,M,M,M,M,M,M,M,44.60,KWYS 241255Z AUTO 00000KT 10SM CLR 07/06 A3040 RMK AO2,M
WYS,2024-07-24 13:55,53.60,42.80,66.70,0.00,0.00,0.00,30.41,M,10.00,M,CLR,M,M,M,M,M,M,M,M,M,M,M,M,M,M,53.60,KWYS 241355Z AUTO 00000KT 10SM CLR 12/06 A3041 RMK AO2,M
WYS,2024-07-24 14:55,60.80,42.80,51.45,0.00,0.00,0.00,30.42,M,10.00,M,CLR,M,M,M,M,M,M,M,M,M,M,M,M,M,M,60.80,KWYS 241455Z AUTO 00000KT 10SM CLR 16/06 A3042 RMK AO2,M
WYS,2024-07-24 15:55,68.00,42.80,40.00,0.00,0.00,0.00,30.41,M,10.00,M,CLR,M,M,M,M,M,M,M,M,M,M,M,M,M,M,68.00,KWYS 241555Z AUTO 00000KT 10SM CLR 20/06 A3041 RMK AO2,M
WYS,2024-07-24 16:55,75.20,44.60,33.57,0.00,0.00,0.00,30.40,M,10.00,M,CLR,M,M,M,M,M,M,M,M,M,M,M,M,M,M,75.20,KWYS 241655Z AUTO 00000KT 10SM CLR 24/07 A3040 RMK AO2,M
WYS,2024-07-24 17:55,82.40,44.60,26.49,220.00,7.00,0.00,30.39,M,10.00,M,CLR,M,M,M,M,M,M,M,M,M,M,M,M,M,M,80.50,KWYS 241755Z AUTO 22007KT 10SM CLR 28/07 A3039 RMK AO2,M
WYS,2024-07-24 18:55,84.20,41.00,21.76,220.00,7.00,0.00,30.37,M,10.00,16.00,CLR,M,M,M,M,M,M,M,M,M,M,M,M,M,M,81.52,KWYS 241855Z AUTO 22007G16KT 180V270 10SM CLR 29/05 A3037 RMK AO2,M
WYS,2024-07-24 19:55,87.80,37.40,16.86,210.00,17.00,0.00,30.36,M,10.00,M,CLR,M,M,M,M,M,M,M,M,M,M,M,M,M,M,84.16,KWYS 241955Z AUTO 21017KT 10SM CLR 31/03 A3036 RMK AO2,M
WYS,2024-07-24 20:55,89.60,37.40,15.92,240.00,12.00,0.00,30.36,M,10.00,21.00,CLR,M,M,M,M,M,M,M,M,M,M,M,M,M,M,85.67,KWYS 242055Z AUTO 24012G21KT 10SM CLR 32/03 A3036 RMK AO2,M
WYS,2024-07-24 21:55,86.00,37.40,17.85,220.00,12.00,0.00,30.35,M,10.00,19.00,CLR,M,M,M,M,M,M,M,M,M,M,M,M,M,M,82.73,KWYS 242155Z AUTO 22012G19KT 10SM CLR 30/03 A3035 RMK AO2,M
WYS,2024-07-24 22:55,82.40,41.00,23.07,250.00,10.00,0.00,30.35,M,10.00,18.00,CLR,M,M,M,M,M,M,M,M,M,M,M,M,M,M,80.29,KWYS 242255Z AUTO 25010G18KT 10SM CLR 28/05 A3035 RMK AO2,M
WYS,2024-07-24 23:55,80.60,39.20,22.81,M,4.00,0.00,30.34,M,10.00,M,CLR,M,M,M,M,M,M,M,M,M,M,M,M,M,M,79.10,KWYS 242355Z AUTO VRB04KT 10SM CLR 27/04 A3034 RMK AO2,M
WYS,2024-07-25 00:55,80.60,39.20,22.81,200.00,6.00,0.00,30.33,M,10.00,M,CLR,M,M,M,M,M,M,M,M,M,M,M,M,M,M,79.10,KWYS 250055Z AUTO 20006KT 10SM CLR 27/04 A3033 RMK AO2,M
WYS,2024-07-25 01:55,77.00,42.80,29.51,130.00,3.00,0.00,30.31,M,10.00,M,CLR,M,M,M,M,M,M,M,M,M,M,M,M,M,M,77.00,KWYS 250155Z AUTO 13003KT 10SM CLR 25/06 A3031 RMK AO2,M
WYS,2024-07-25 02:55,73.40,42.80,33.29,200.00,3.00,0.00,30.32,M,10.00,M,CLR,M,M,M,M,M,M,M,M,M,M,M,M,M,M,73.40,KWYS 250255Z AUTO 20003KT 10SM CLR 23/06 A3032 RMK AO2,M
WYS,2024-07-25 03:55,68.00,42.80,40.00,0.00,0.00,0.00,30.31,M,10.00,M,CLR,M,M,M,M,M,M,M,M,M,M,M,M,M,M,68.00,KWYS 250355Z AUTO 00000KT 10SM CLR 20/06 A3031 RMK AO2,M
WYS,2024-07-25 04:55,69.80,42.80,37.61,0.00,0.00,0.00,30.32,M,10.00,M,CLR,M,M,M,M,M,M,M,M,M,M,M,M,M,M,69.80,KWYS 250455Z AUTO 00000KT 10SM CLR 21/06 A3032 RMK AO2,M
WYS,2024-07-25 05:55,68.00,44.60,42.85,230.00,4.00,0.00,30.32,M,10.00,M,CLR,M,M,M,M,M,M,M,M,M,M,M,M,M,M,68.00,KWYS 250555Z AUTO 23004KT 10SM CLR 20/07 A3032 RMK AO2,M
WYS,2024-07-25 06:55,66.20,44.60,45.60,140.00,4.00,0.00,30.33,M,10.00,M,CLR,M,M,M,M,M,M,M,M,M,M,M,M,M,M,66.20,KWYS 250655Z AUTO 14004KT 10SM CLR 19/07 A3033 RMK AO2,M
WYS,2024-07-25 07:55,66.20,44.60,45.60,140.00,3.00,0.00,30.31,M,10.00,M,SCT,M,M,M,12000.00,M,M,M,M,M,M,M,M,M,M,66.20,KWYS 250755Z AUTO 14003KT 10SM SCT120 19/07 A3031 RMK AO2,M
WYS,2024-07-25 08:55,64.40,44.60,48.55,170.00,6.00,0.00,30.30,M,10.00,M,FEW,M,M,M,12000.00,M,M,M,M,M,M,M,M,M,M,64.40,KWYS 250855Z AUTO 17006KT 10SM FEW120 18/07 A3030 RMK AO2,M
WYS,2024-07-25 09:55,64.40,44.60,48.55,M,4.00,0.00,30.30,M,10.00,M,FEW,BKN,OVC,M,5000.00,7000.00,9500.00,M,M,M,M,M,M,M,M,64.40,KWYS 250955Z AUTO VRB04KT 10SM FEW050 BKN070 OVC095 18/07 A3030 RMK AO2,M
WYS,2024-07-25 10:55,66.20,46.40,48.83,210.00,10.00,0.00,30.32,M,10.00,M,FEW,SCT,BKN,M,5000.00,7000.00,9500.00,M,M,M,M,M,M,M,M,66.20,KWYS 251055Z AUTO 21010KT 10SM FEW050 SCT070 BKN095 19/08 A3032 RMK AO2,M
WYS,2024-07-25 11:55,62.60,48.20,59.26,200.00,7.00,0.00,30.31,M,10.00,M,FEW,BKN,M,M,9000.00,12000.00,M,M,M,M,M,M,M,M,M,62.60,KWYS 251155Z AUTO 20007KT 10SM FEW090 BKN120 17/09 A3031 RMK AO2,M
WYS,2024-07-25 12:55,64.40,48.20,55.63,240.00,6.00,0.00,30.32,M,10.00,M,FEW,BKN,BKN,M,5500.00,9000.00,12000.00,M,M,M,M,M,M,M,M,64.40,KWYS 251255Z AUTO 24006KT 10SM FEW055 BKN090 BKN120 18/09 A3032 RMK AO2,M
WYS,2024-07-25 13:55,62.60,51.80,67.75,200.00,10.00,0.00,30.33,M,10.00,M,FEW,OVC,M,M,7000.00,10000.00,M,M,M,M,M,M,M,M,M,62.60,KWYS 251355Z AUTO 20010KT 10SM FEW070 OVC100 17/11 A3033 RMK AO2,M
WYS,2024-07-25 14:55,62.60,55.40,77.29,230.00,8.00,0.00,30.34,M,9.00,15.00,FEW,FEW,SCT,M,2700.00,3800.00,12000.00,M,M,M,M,M,M,M,M,62.60,KWYS 251455Z AUTO 23008G15KT 9SM FEW027 FEW038 SCT120 17/13 A3034 RMK AO2,M
WYS,2024-07-25 15:55,60.80,60.80,100.00,220.00,7.00,0.00,30.35,M,10.00,M,FEW,M,M,M,9000.00,M,M,M,M,M,M,M,M,M,M,60.80,KWYS 251555Z AUTO 22007KT 10SM FEW090 16/16 A3035 RMK AO2,M
WYS,2024-07-25 16:55,66.20,57.20,72.74,220.00,11.00,0.00,30.33,M,10.00,M,FEW,SCT,SCT,M,2600.00,3100.00,11000.00,M,M,M,M,M,M,M,M,66.20,KWYS 251655Z AUTO 22011KT 10SM FEW026 SCT031 SCT110 19/14 A3033 RMK AO2,M
WYS,2024-07-25 17:55,71.60,53.60,53.03,210.00,13.00,0.00,30.32,M,10.00,22.00,FEW,FEW,M,M,3200.00,9000.00,M,M,M,M,M,M,M,M,M,71.60,KWYS 251755Z AUTO 21013G22KT 10SM FEW032 FEW090 22/12 A3032 RMK AO2,M
WYS,2024-07-25 18:55,73.40,51.80,46.71,210.00,18.00,0.00,30.31,M,10.00,27.00,FEW,FEW,M,M,4100.00,4600.00,M,M,M,M,M,M,M,M,M,73.40,KWYS 251855Z AUTO 21018G27KT 10SM FEW041 FEW046 23/11 A3031 RMK AO2,M
WYS,2024-07-25 19:55,77.00,51.80,41.42,220.00,19.00,0.00,30.28,M,10.00,27.00,BKN,M,M,M,4700.00,M,M,M,M,M,M,M,M,M,M,77.00,KWYS 251955Z AUTO 22019G27KT 10SM BKN047 25/11 A3028 RMK AO2,M
WYS,2024-07-25 20:55,78.80,51.80,39.02,210.00,17.00,0.00,30.26,M,10.00,23.00,CLR,M,M,M,M,M,M,M,M,M,M,M,M,M,M,78.80,KWYS 252055Z AUTO 21017G23KT 10SM CLR 26/11 A3026 RMK AO2,M
WYS,2024-07-25 21:55,80.60,50.00,34.41,210.00,22.00,0.00,30.23,M,10.00,28.00,FEW,FEW,M,M,6000.00,7500.00,M,M,M,M,M,M,M,M,M,79.88,KWYS 252155Z AUTO 21022G28KT 10SM FEW060 FEW075 27/10 A3023 RMK AO2,M
WYS,2024-07-25 22:55,80.60,48.20,32.18,230.00,21.00,0.00,30.20,M,10.00,32.00,FEW,SCT,SCT,M,6500.00,7500.00,9500.00,M,M,M,M,M,M,M,M,79.71,KWYS 252255Z AUTO 23021G32KT 10SM FEW065 SCT075 SCT095 27/09 A3020 RMK AO2,M
WYS,2024-07-25 23:55,78.80,50.00,36.51,200.00,22.00,0.00,30.17,M,10.00,29.00,CLR,M,M,M,M,M,M,M,M,M,M,M,M,M,M,78.80,KWYS 252355Z AUTO 20022G29KT 10SM CLR 26/10 A3017 RMK AO2,M
WYS,2024-07-26 00:55,78.80,50.00,36.51,200.00,20.00,0.00,30.16,M,10.00,26.00,CLR,M,M,M,M,M,M,M,M,M,M,M,M,M,M,78.80,KWYS 260055Z AUTO 20020G26KT 10SM CLR 26/10 A3016 RMK AO2,M
WYS,2024-07-26 01:55,75.20,50.00,41.14,200.00,11.00,0.00,30.16,M,10.00,17.00,CLR,M,M,M,M,M,M,M,M,M,M,M,M,M,M,75.20,KWYS 260155Z AUTO 20011G17KT 10SM CLR 24/10 A3016 RMK AO2,M
WYS,2024-07-26 02:55,73.40,48.20,40.85,220.00,15.00,0.00,30.17,M,10.00,M,FEW,M,M,M,11000.00,M,M,M,M,M,M,M,M,M,M,73.40,KWYS 260255Z AUTO 22015KT 10SM FEW110 23/09 A3017 RMK AO2,M
WYS,2024-07-26 03:55,69.80,48.20,46.16,180.00,10.00,0.00,30.17,M,10.00,M,FEW,FEW,BKN,M,3900.00,7000.00,9500.00,M,M,M,M,M,M,M,M,69.80,KWYS 260355Z AUTO 18010KT 10SM FEW039 FEW070 BKN095 21/09 A3017 RMK AO2,M
WYS,2024-07-26 04:55,66.20,42.80,42.57,M,3.00,0.00,30.20,M,10.00,M,CLR,M,M,M,M,M,M,M,M,M,M,M,M,M,M,66.20,KWYS 260455Z AUTO VRB03KT 10SM CLR 19/06 A3020 RMK AO2,M
WYS,2024-07-26 05:55,64.40,42.80,45.32,220.00,13.00,0.00,30.21,M,10.00,19.00,CLR,M,M,M,M,M,M,M,M,M,M,M,M,M,M,64.40,KWYS 260555Z AUTO 22013G19KT 10SM CLR 18/06 A3021 RMK AO2,M
WYS,2024-07-26 06:55,60.80,42.80,51.45,30.00,5.00,0.00,30.22,M,10.00,M,CLR,M,M,M,M,M,M,M,M,M,M,M,M,M,M,60.80,KWYS 260655Z AUTO 03005KT 10SM CLR 16/06 A3022 RMK AO2,M
WYS,2024-07-26 07:55,62.60,42.80,48.28,110.00,6.00,0.00,30.22,M,10.00,M,FEW,M,M,M,12000.00,M,M,M,M,M,M,M,M,M,M,62.60,KWYS 260755Z AUTO 11006KT 10SM FEW120 17/06 A3022 RMK AO2,M
WYS,2024-07-26 08:55,62.60,46.40,55.37,M,6.00,0.00,30.22,M,10.00,12.00,CLR,M,M,M,M,M,M,M,M,M,M,M,M,M,M,62.60,KWYS 260855Z AUTO VRB06G12KT 10SM CLR 17/08 A3022 RMK AO2,M
WYS,2024-07-26 09:55,60.80,48.20,63.15,0.00,0.00,0.00,30.21,M,10.00,M,CLR,M,M,M,M,M,M,M,M,M,M,M,M,M,M,60.80,KWYS 260955Z AUTO 00000KT 10SM CLR 16/09 A3021 RMK AO2,M
WYS,2024-07-26 10:55,57.20,48.20,71.83,170.00,5.00,0.00,30.21,M,10.00,M,CLR,M,M,M,M,M,M,M,M,M,M,M,M,M,M,57.20,KWYS 261055Z AUTO 17005KT 10SM CLR 14/09 A3021 RMK AO2,M
WYS,2024-07-26 11:50,57.20,50.00,76.82,170.00,5.00,0.00,30.21,M,10.00,M,CLR,M,M,M,M,M,M,M,M,M,M,M,M,M,M,57.20,KWYS 261150Z AUTO 17005KT 10SM CLR 14/10 A3021 RMK AO2,M
WYS,2024-07-26 12:55,55.40,50.00,81.99,0.00,0.00,0.00,30.22,M,10.00,M,CLR,M,M,M,M,M,M,M,M,M,M,M,M,M,M,55.40,KWYS 261255Z AUTO 00000KT 10SM CLR 13/10 A3022 RMK AO2,M
WYS,2024-07-26 13:55,59.00,50.00,72.01,0.00,0.00,0.00,30.23,M,10.00,M,CLR,M,M,M,M,M,M,M,M,M,M,M,M,M,M,59.00,KWYS 261355Z AUTO 00000KT 10SM CLR 15/10 A3023 RMK AO2,M
WYS,2024-07-26 14:55,64.40,50.00,59.50,210.00,9.00,0.00,30.23,M,10.00,M,CLR,M,M,M,M,M,M,M,M,M,M,M,M,M,M,64.40,KWYS 261455Z AUTO 21009KT 10SM CLR 18/10 A3023 RMK AO2,M
WYS,2024-07-26 15:55,66.20,48.20,52.25,210.00,14.00,0.00,30.22,M,10.00,22.00,CLR,M,M,M,M,M,M,M,M,M,M,M,M,M,M,66.20,KWYS 261555Z AUTO 21014G22KT 10SM CLR 19/09 A3022 RMK AO2,M
WYS,2024-07-26 16:55,68.00,51.80,56.13,210.00,12.00,0.00,30.20,M,10.00,23.00,FEW,M,M,M,3500.00,M,M,M,M,M,M,M,M,M,M,68.00,KWYS 261655Z AUTO 21012G23KT 10SM FEW035 20/11 A3020 RMK AO2,M
WYS,2024-07-26 17:55,69.80,50.00,49.37,220.00,9.00,0.00,30.19,M,10.00,18.00,FEW,M,M,M,3600.00,M,M,M,M,M,M,M,M,M,M,69.80,KWYS 261755Z AUTO 22009G18KT 190V270 10SM FEW036 21/10 A3019 RMK AO2,M
WYS,2024-07-26 18:55,69.80,50.00,49.37,220.00,11.00,0.00,30.17,M,10.00,23.00,FEW,M,M,M,4100.00,M,M,M,M,M,M,M,M,M,M,69.80,KWYS 261855Z AUTO 22011G23KT 190V250 10SM FEW041 21/10 A3017 RMK AO2,M
WYS,2024-07-26 19:55,71.60,50.00,46.43,230.00,14.00,0.00,30.16,M,10.00,22.00,CLR,M,M,M,M,M,M,M,M,M,M,M,M,M,M,71.60,KWYS 261955Z AUTO 23014G22KT 10SM CLR 22/10 A3016 RMK AO2,M
WYS,2024-07-26 20:55,73.40,50.00,43.69,200.00,20.00,0.00,30.12,M,10.00,25.00,CLR,M,M,M,M,M,M,M,M,M,M,M,M,M,M,73.40,KWYS 262055Z AUTO 20020G25KT 10SM CLR 23/10 A3012 RMK AO2,M
WYS,2024-07-26 21:55,73.40,48.20,40.85,190.00,11.00,0.00,30.10,M,10.00,19.00,FEW,FEW,M,M,6000.00,7000.00,M,M,M,M,M,M,M,M,M,73.40,KWYS 262155Z AUTO 19011G19KT 10SM FEW060 FEW070 23/09 A3010 RMK AO2,M
WYS,2024-07-26 22:55,75.20,48.20,38.46,210.00,15.00,0.00,30.08,M,10.00,M,FEW,FEW,M,M,5500.00,7000.00,M,M,M,M,M,M,M,M,M,75.20,KWYS 262255Z AUTO 21015KT 10SM FEW055 FEW070 24/09 A3008 RMK AO2,M
WYS,2024-07-26 23:55,75.20,48.20,38.46,200.00,14.00,0.00,30.06,M,10.00,20.00,FEW,M,M,M,7000.00,M,M,M,M,M,M,M,M,M,M,75.20,KWYS 262355Z AUTO 20014G20KT 10SM FEW070 24/09 A3006 RMK AO2,M
WYS,2024-07-27 00:55,57.20,55.40,93.69,80.00,6.00,0.04,30.12,M,9.00,M,FEW,OVC,M,M,500.00,7000.00,M,M,M,M,M,M,M,M,M,57.20,KWYS 270055Z AUTO 08006KT 9SM FEW005 OVC070 14/13 A3012 RMK AO2 P0004,M
WYS,2024-07-27 01:55,59.00,48.20,67.33,140.00,5.00,0.00,30.08,M,10.00,M,FEW,M,M,M,11000.00,M,M,M,M,M,M,M,M,M,M,59.00,KWYS 270155Z AUTO 14005KT 10SM FEW110 15/09 A3008 RMK AO2,M
WYS,2024-07-27 02:55,55.40,55.40,100.00,0.00,0.00,0.00,30.08,M,10.00,M,FEW,SCT,M,M,7000.00,10000.00,M,M,M,M,M,M,M,M,M,55.40,KWYS 270255Z AUTO 00000KT 10SM FEW070 SCT100 13/13 A3008 RMK AO2,M
WYS,2024-07-27 03:55,51.80,51.80,100.00,0.00,0.00,0.00,30.09,M,10.00,M,BKN,M,M,M,10000.00,M,M,M,M,M,M,M,M,M,M,51.80,KWYS 270355Z AUTO 00000KT 10SM BKN100 11/11 A3009 RMK AO2,M
WYS,2024-07-27 04:55,50.00,50.00,100.00,0.00,0.00,0.00,30.08,M,10.00,M,FEW,SCT,BKN,M,3700.00,4400.00,10000.00,M,M,M,M,M,M,M,M,50.00,KWYS 270455Z AUTO 00000KT 10SM FEW037 SCT044 BKN100 10/10 A3008 RMK AO2,M
WYS,2024-07-27 05:55,50.00,50.00,100.00,M,5.00,0.00,30.07,M,8.00,M,FEW,SCT,BKN,M,4100.00,7500.00,10000.00,M,M,M,M,M,M,M,M,50.00,KWYS 270555Z AUTO VRB05KT 8SM FEW041 SCT075 BKN100 10/10 A3007 RMK AO2,M
WYS,2024-07-27 06:55,48.20,48.20,100.00,0.00,0.00,0.04,30.07,M,6.00,M,FEW,BKN,BKN,M,3000.00,3500.00,9500.00,M,BR,M,M,M,M,M,M,48.20,KWYS 270655Z AUTO 00000KT 6SM BR FEW030 BKN035 BKN095 09/09 A3007 RMK AO2 P0004,M
WYS,2024-07-27 07:55,46.40,46.40,100.00,0.00,0.00,0.00,30.06,M,4.00,M,FEW,FEW,BKN,M,2700.00,3100.00,11000.00,M,BR,M,M,M,M,M,M,46.40,KWYS 270755Z AUTO 00000KT 4SM BR FEW027 FEW031 BKN110 08/08 A3006 RMK AO2,M
WYS,2024-07-27 08:55,42.80,44.60,M,0.00,0.00,0.00,30.05,M,3.00,M,SCT,BKN,BKN,M,2100.00,2800.00,12000.00,M,BR,M,M,M,M,M,M,M,KWYS 270855Z AUTO 00000KT 3SM BR SCT021 BKN028 BKN120 06/07 A3005 RMK AO2,M
WYS,2024-07-27 09:55,41.00,41.00,100.00,0.00,0.00,0.00,30.05,M,5.00,M,FEW,SCT,BKN,M,2200.00,2800.00,5000.00,M,BR,M,M,M,M,M,M,41.00,KWYS 270955Z AUTO 00000KT 5SM BR FEW022 SCT028 BKN050 05/05 A3005 RMK AO2,M
WYS,2024-07-27 10:55,39.20,39.20,100.00,0.00,0.00,0.00,30.06,M,5.00,M,FEW,FEW,BKN,M,1900.00,3800.00,6000.00,M,BR,M,M,M,M,M,M,39.20,KWYS 271055Z AUTO 00000KT 5SM BR FEW019 FEW038 BKN060 04/04 A3006 RMK AO2,M
WYS,2024-07-27 11:55,37.40,37.40,100.00,0.00,0.00,0.00,30.06,M,4.00,M,FEW,BKN,M,M,500.00,5000.00,M,M,BR,M,M,M,M,M,M,37.40,KWYS 271155Z AUTO 00000KT 4SM BR FEW005 BKN050 03/03 A3006 RMK AO2,M
WYS,2024-07-27 12:55,35.60,35.60,100.00,0.00,0.00,0.00,30.07,M,0.25,M,BKN,M,M,M,200.00,M,M,M,FG,M,M,M,M,M,M,35.60,KWYS 271255Z AUTO 00000KT 1/4SM FG BKN002 02/02 A3007 RMK AO2,M
WYS,2024-07-27 13:55,42.80,42.80,100.00,0.00,0.00,0.00,30.07,M,0.25,M,OVC,M,M,M,200.00,M,M,M,FG,M,M,M,M,M,M,42.80,KWYS 271355Z AUTO 00000KT M1/4SM FG OVC002 06/06 A3007 RMK AO2,M
WYS,2024-07-27 14:55,46.40,46.40,100.00,0.00,0.00,0.00,30.08,M,7.00,M,FEW,M,M,M,300.00,M,M,M,M,M,M,M,M,M,M,46.40,KWYS 271455Z AUTO 00000KT 7SM FEW003 08/08 A3008 RMK AO2,M
WYS,2024-07-27 15:55,51.80,51.80,100.00,0.00,0.00,0.00,30.06,M,8.00,M,CLR,M,M,M,M,M,M,M,M,M,M,M,M,M,M,51.80,KWYS 271555Z AUTO 00000KT 8SM CLR 11/11 A3006 RMK AO2,M
WYS,2024-07-27 16:55,59.00,48.20,67.33,0.00,0.00,0.00,30.05,M,9.00,M,CLR,M,M,M,M,M,M,M,M,M,M,M,M,M,M,59.00,KWYS 271655Z AUTO 00000KT 9SM CLR 15/09 A3005 RMK AO2,M
WYS,2024-07-27 17:55,69.80,39.20,32.72,220.00,12.00,0.00,30.03,M,8.00,M,CLR,M,M,M,M,M,M,M,M,M,M,M,M,M,M,69.80,KWYS 271755Z AUTO 22012KT 8SM CLR 21/04 A3003 RMK AO2,M
WYS,2024-07-27 18:55,71.60,41.00,33.00,200.00,15.00,0.00,30.02,M,9.00,20.00,CLR,M,M,M,M,M,M,M,M,M,M,M,M,M,M,71.60,KWYS 271855Z AUTO 20015G20KT 9SM CLR 22/05 A3002 RMK AO2,M
WYS,2024-07-27 19:55,73.40,42.80,33.29,230.00,14.00,0.00,30.01,M,10.00,24.00,CLR,M,M,M,M,M,M,M,M,M,M,M,M,M,M,73.40,KWYS 271955Z AUTO 23014G24KT 10SM CLR 23/06 A3001 RMK AO2,M
WYS,2024-07-27 20:55,73.40,44.60,35.66,220.00,19.00,0.00,29.99,M,10.00,25.00,CLR,M,M,M,M,M,M,M,M,M,M,M,M,M,M,73.40,KWYS 272055Z AUTO 22019G25KT 10SM CLR 23/07 A2999 RMK AO2,M
WYS,2024-07-27 21:55,71.60,44.60,37.89,210.00,17.00,0.00,29.98,M,10.00,22.00,CLR,M,M,M,M,M,M,M,M,M,M,M,M,M,M,71.60,KWYS 272155Z AUTO 21017G22KT 10SM CLR 22/07 A2998 RMK AO2,M
WYS,2024-07-27 22:55,69.80,41.00,35.09,220.00,11.00,0.00,29.97,M,10.00,18.00,FEW,M,M,M,9500.00,M,M,M,M,M,M,M,M,M,M,69.80,KWYS 272255Z AUTO 22011G18KT 10SM FEW095 21/05 A2997 RMK AO2,M
WYS,2024-07-27 23:55,59.00,46.40,62.92,250.00,7.00,0.00,30.07,M,6.00,21.00,FEW,BKN,OVC,M,4400.00,6000.00,7500.00,M,-RA,M,M,M,M,M,M,59.00,KWYS 272355Z AUTO 25007G21KT 6SM -RA FEW044 BKN060 OVC075 15/08 A3007 RMK AO2,M
WYS,2024-07-28 00:55,55.40,53.60,93.65,50.00,9.00,0.03,30.07,M,10.00,M,FEW,M,M,M,3600.00,M,M,M,M,M,M,M,M,M,M,55.40,KWYS 280055Z AUTO 05009KT 10SM FEW036 13/12 A3007 RMK AO2 P0003,M
WYS,2024-07-28 01:55,53.60,53.60,100.00,270.00,4.00,0.00,30.06,M,10.00,M,CLR,M,M,M,M,M,M,M,M,M,M,M,M,M,M,53.60,KWYS 280155Z AUTO 27004KT 10SM CLR 12/12 A3006 RMK AO2,M
WYS,2024-07-28 02:55,53.60,53.60,100.00,160.00,6.00,0.00,30.09,M,10.00,M,BKN,OVC,M,M,7500.00,10000.00,M,M,M,M,M,M,M,M,M,53.60,KWYS 280255Z AUTO 16006KT 10SM BKN075 OVC100 12/12 A3009 RMK AO2,M
WYS,2024-07-28 03:55,53.60,53.60,100.00,0.00,0.00,0.00,30.09,M,10.00,M,BKN,M,M,M,11000.00,M,M,M,M,M,M,M,M,M,M,53.60,KWYS 280355Z AUTO 00000KT 10SM BKN110 12/12 A3009 RMK AO2,M
WYS,2024-07-28 04:55,51.80,51.80,100.00,330.00,5.00,0.00,30.09,M,10.00,M,BKN,M,M,M,11000.00,M,M,M,M,M,M,M,M,M,M,51.80,KWYS 280455Z AUTO 33005KT 10SM BKN110 11/11 A3009 RMK AO2,M
WYS,2024-07-28 05:55,51.80,51.80,100.00,0.00,0.00,0.00,30.08,M,10.00,M,SCT,BKN,BKN,M,7500.00,9000.00,12000.00,M,M,M,M,M,M,M,M,51.80,KWYS 280555Z AUTO 00000KT 10SM SCT075 BKN090 BKN120 11/11 A3008 RMK AO2,M
WYS,2024-07-28 06:55,50.00,50.00,100.00,0.00,0.00,0.00,30.07,M,10.00,M,CLR,M,M,M,M,M,M,M,M,M,M,M,M,M,M,50.00,KWYS 280655Z AUTO 00000KT 10SM CLR 10/10 A3007 RMK AO2,M
WYS,2024-07-28 07:55,48.20,50.00,M,0.00,0.00,0.00,30.06,M,10.00,M,BKN,OVC,M,M,10000.00,12000.00,M,M,M,M,M,M,M,M,M,M,KWYS 280755Z AUTO 00000KT 10SM BKN100 OVC120 09/10 A3006 RMK AO2,M
WYS,2024-07-28 08:55,48.20,48.20,100.00,0.00,0.00,0.00,30.05,M,10.00,M,FEW,M,M,M,12000.00,M,M,M,M,M,M,M,M,M,M,48.20,KWYS 280855Z AUTO 00000KT 10SM FEW120 09/09 A3005 RMK AO2,M
WYS,2024-07-28 09:55,42.80,42.80,100.00,0.00,0.00,0.00,30.05,M,9.00,M,CLR,M,M,M,M,M,M,M,M,M,M,M,M,M,M,42.80,KWYS 280955Z AUTO 00000KT 9SM CLR 06/06 A3005 RMK AO2,M
WYS,2024-07-28 10:55,41.00,41.00,100.00,0.00,0.00,0.00,30.05,M,6.00,M,CLR,M,M,M,M,M,M,M,BR,M,M,M,M,M,M,41.00,KWYS 281055Z AUTO 00000KT 6SM BR CLR 05/05 A3005 RMK AO2,M
WYS,2024-07-28 11:55,41.00,41.00,100.00,0.00,0.00,0.00,30.06,M,9.00,M,CLR,M,M,M,M,M,M,M,M,M,M,M,M,M,M,41.00,KWYS 281155Z AUTO 00000KT 9SM CLR 05/05 A3006 RMK AO2,M
WYS,2024-07-28 12:55,39.20,39.20,100.00,0.00,0.00,0.00,30.08,M,9.00,M,CLR,M,M,M,M,M,M,M,M,M,M,M,M,M,M,39.20,KWYS 281255Z AUTO 00000KT 9SM CLR 04/04 A3008 RMK AO2,M
WYS,2024-07-28 13:55,44.60,44.60,100.00,0.00,0.00,0.00,30.09,M,10.00,M,FEW,M,M,M,12000.00,M,M,M,M,M,M,M,M,M,M,44.60,KWYS 281355Z AUTO 00000KT 10SM FEW120 07/07 A3009 RMK AO2,M
WYS,2024-07-28 14:55,48.20,48.20,100.00,0.00,0.00,0.00,30.10,M,10.00,M,CLR,M,M,M,M,M,M,M,M,M,M,M,M,M,M,48.20,KWYS 281455Z AUTO 00000KT 10SM CLR 09/09 A3010 RMK AO2,M
WYS,2024-07-28 15:55,53.60,51.80,93.60,0.00,0.00,0.00,30.11,M,10.00,M,CLR,M,M,M,M,M,M,M,M,M,M,M,M,M,M,53.60,KWYS 281555Z AUTO 00000KT 10SM CLR 12/11 A3011 RMK AO2,M
WYS,2024-07-28 16:55,57.20,51.80,82.12,0.00,0.00,0.00,30.10,M,10.00,M,FEW,M,M,M,10000.00,M,M,M,M,M,M,M,M,M,M,57.20,KWYS 281655Z AUTO 00000KT 10SM FEW100 14/11 A3010 RMK AO2,M
WYS,2024-07-28 17:55,64.40,48.20,55.63,M,4.00,0.00,30.09,M,10.00,M,CLR,M,M,M,M,M,M,M,M,M,M,M,M,M,M,64.40,KWYS 281755Z AUTO VRB04KT 10SM CLR 18/09 A3009 RMK AO2,M
WYS,2024-07-28 18:55,68.00,39.20,34.80,M,3.00,0.00,30.07,M,10.00,11.00,CLR,M,M,M,M,M,M,M,M,M,M,M,M,M,M,68.00,KWYS 281855Z AUTO VRB03G11KT 10SM CLR 20/04 A3007 RMK AO2,M
WYS,2024-07-28 19:55,69.80,35.60,28.39,M,6.00,0.00,30.06,M,9.00,20.00,CLR,M,M,M,M,M,M,M,M,M,M,M,M,M,M,69.80,KWYS 281955Z AUTO VRB06G20KT 9SM CLR 21/02 A3006 RMK AO2,M
WYS,2024-07-28 20:55,69.80,42.80,37.61,M,6.00,0.00,30.06,M,10.00,M,FEW,FEW,M,M,6500.00,8000.00,M,M,M,M,M,M,M,M,M,69.80,KWYS 282055Z AUTO VRB06KT 10SM FEW065 FEW080 21/06 A3006 RMK AO2,M
WYS,2024-07-28 21:55,68.00,37.40,32.43,230.00,17.00,0.00,30.07,M,10.00,25.00,FEW,FEW,M,M,5500.00,12000.00,M,M,M,M,M,M,M,M,M,68.00,KWYS 282155Z AUTO 23017G25KT 10SM FEW055 FEW120 20/03 A3007 RMK AO2,M
WYS,2024-07-28 22:55,69.80,46.40,43.13,180.00,8.00,0.03,30.06,M,10.00,M,CLR,M,M,M,M,M,M,M,M,M,M,M,M,M,M,69.80,KWYS 282255Z AUTO 18008KT 10SM CLR 21/08 A3006 RMK AO2 P0003,M
WYS,2024-07-28 23:55,71.60,41.00,33.00,220.00,7.00,0.00,30.05,M,10.00,14.00,SCT,M,M,M,11000.00,M,M,M,M,M,M,M,M,M,M,71.60,KWYS 282355Z AUTO 22007G14KT 10SM SCT110 22/05 A3005 RMK AO2,M
WYS,2024-07-29 00:55,71.60,41.00,33.00,220.00,9.00,0.00,30.05,M,10.00,18.00,SCT,M,M,M,10000.00,M,M,M,M,M,M,M,M,M,M,71.60,KWYS 290055Z AUTO 22009G18KT 10SM SCT100 22/05 A3005 RMK AO2,M
WYS,2024-07-29 01:55,68.00,42.80,40.00,210.00,9.00,0.00,30.06,M,10.00,M,CLR,M,M,M,M,M,M,M,M,M,M,M,M,M,M,68.00,KWYS 290155Z AUTO 21009KT 10SM CLR 20/06 A3006 RMK AO2,M
WYS,2024-07-29 02:55,59.00,42.80,54.86,230.00,9.00,0.00,30.08,M,9.00,21.00,SCT,BKN,M,M,9000.00,11000.00,M,M,M,M,M,M,M,M,M,59.00,KWYS 290255Z AUTO 23009G21KT 9SM SCT090 BKN110 15/06 A3008 RMK AO2,M
WYS,2024-07-29 03:55,57.20,46.40,67.12,190.00,4.00,0.00,30.09,M,10.00,M,BKN,BKN,M,M,9000.00,11000.00,M,M,M,M,M,M,M,M,M,57.20,KWYS 290355Z AUTO 19004KT 10SM BKN090 BKN110 14/08 A3009 RMK AO2,M
WYS,2024-07-29 04:55,53.60,48.20,81.87,0.00,0.00,0.00,30.10,M,10.00,M,FEW,M,M,M,12000.00,M,M,M,M,M,M,M,M,M,M,53.60,KWYS 290455Z AUTO 00000KT 10SM FEW120 12/09 A3010 RMK AO2,M
WYS,2024-07-29 05:55,51.80,50.00,93.55,0.00,0.00,0.00,30.11,M,10.00,M,OVC,M,M,M,11000.00,M,M,M,M,M,M,M,M,M,M,51.80,KWYS 290555Z AUTO 00000KT 10SM OVC110 11/10 A3011 RMK AO2,M
WYS,2024-07-29 06:55,48.20,48.20,100.00,0.00,0.00,0.00,30.12,M,10.00,M,CLR,M,M,M,M,M,M,M,M,M,M,M,M,M,M,48.20,KWYS 290655Z AUTO 00000KT 10SM CLR 09/09 A3012 RMK AO2,M
WYS,2024-07-29 07:55,46.40,46.40,100.00,300.00,5.00,0.00,30.13,M,10.00,M,BKN,M,M,M,8500.00,M,M,M,M,M,M,M,M,M,M,43.50,KWYS 290755Z AUTO 30005KT 10SM BKN085 08/08 A3013 RMK AO2,M
WYS,2024-07-29 08:55,46.40,46.40,100.00,170.00,5.00,0.00,30.11,M,10.00,M,SCT,SCT,M,M,9000.00,12000.00,M,M,M,M,M,M,M,M,M,43.50,KWYS 290855Z AUTO 17005KT 10SM SCT090 SCT120 08/08 A3011 RMK AO2,M
WYS,2024-07-29 09:55,41.00,41.00,100.00,0.00,0.00,0.00,30.11,M,9.00,M,CLR,M,M,M,M,M,M,M,M,M,M,M,M,M,M,41.00,KWYS 290955Z AUTO 00000KT 9SM CLR 05/05 A3011 RMK AO2,M
WYS,2024-07-29 10:55,39.20,39.20,100.00,0.00,0.00,0.00,30.12,M,8.00,M,CLR,M,M,M,M,M,M,M,M,M,M,M,M,M,M,39.20,KWYS 291055Z AUTO 00000KT 8SM CLR 04/04 A3012 RMK AO2,M
WYS,2024-07-29 11:55,37.40,37.40,100.00,0.00,0.00,0.00,30.14,M,8.00,M,CLR,M,M,M,M,M,M,M,M,M,M,M,M,M,M,37.40,KWYS 291155Z AUTO 00000KT 8SM CLR 03/03 A3014 RMK AO2,M
WYS,2024-07-29 12:55,37.40,39.20,M,0.00,0.00,0.00,30.14,M,8.00,M,CLR,M,M,M,M,M,M,M,M,M,M,M,M,M,M,M,KWYS 291255Z AUTO 00000KT 8SM CLR 03/04 A3014 RMK AO2,M
WYS,2024-07-29 13:55,42.80,42.80,100.00,0.00,0.00,0.00,30.16,M,9.00,M,CLR,M,M,M,M,M,M,M,M,M,M,M,M,M,M,42.80,KWYS 291355Z AUTO 00000KT 9SM CLR 06/06 A3016 RMK AO2,M
WYS,2024-07-29 14:55,50.00,48.20,93.50,0.00,0.00,0.00,30.16,M,10.00,M,CLR,M,M,M,M,M,M,M,M,M,M,M,M,M,M,50.00,KWYS 291455Z AUTO 00000KT 10SM CLR 10/09 A3016 RMK AO2,M
WYS,2024-07-29 15:55,55.40,44.60,66.91,0.00,0.00,0.00,30.16,M,10.00,M,CLR,M,M,M,M,M,M,M,M,M,M,M,M,M,M,55.40,KWYS 291555Z AUTO 00000KT 10SM CLR 13/07 A3016 RMK AO2,M
WYS,2024-07-29 16:55,62.60,44.60,51.72,220.00,4.00,0.00,30.15,M,10.00,M,CLR,M,M,M,M,M,M,M,M,M,M,M,M,M,M,62.60,KWYS 291655Z AUTO 22004KT 10SM CLR 17/07 A3015 RMK AO2,M
WYS,2024-07-29 17:55,69.80,41.00,35.09,200.00,8.00,0.00,30.13,M,10.00,14.00,CLR,M,M,M,M,M,M,M,M,M,M,M,M,M,M,69.80,KWYS 291755Z AUTO 20008G14KT 180V250 10SM CLR 21/05 A3013 RMK AO2,M
WYS,2024-07-29 18:55,73.40,39.20,28.96,230.00,16.00,0.00,30.11,M,9.00,M,CLR,M,M,M,M,M,M,M,M,M,M,M,M,M,M,73.40,KWYS 291855Z AUTO 23016KT 190V260 9SM CLR 23/04 A3011 RMK AO2,M
WYS,2024-07-29 19:55,75.20,39.20,27.26,230.00,15.00,0.00,30.10,M,9.00,22.00,CLR,M,M,M,M,M,M,M,M,M,M,M,M,M,M,75.20,KWYS 291955Z AUTO 23015G22KT 9SM CLR 24/04 A3010 RMK AO2,M
WYS,2024-07-29 20:55,77.00,35.60,22.28,210.00,16.00,0.00,30.09,M,9.00,26.00,FEW,M,M,M,8500.00,M,M,M,M,M,M,M,M,M,M,77.00,KWYS 292055Z AUTO 21016G26KT 9SM FEW085 25/02 A3009 RMK AO2,M
WYS,2024-07-29 21:55,77.00,35.60,22.28,210.00,18.00,0.00,30.07,M,9.00,M,CLR,M,M,M,M,M,M,M,M,M,M,M,M,M,M,77.00,KWYS 292155Z AUTO 21018KT 9SM CLR 25/02 A3007 RMK AO2,M
WYS,2024-07-29 22:55,77.00,30.20,17.94,240.00,18.00,0.00,30.05,M,10.00,23.00,CLR,M,M,M,M,M,M,M,M,M,M,M,M,M,M,77.00,KWYS 292255Z AUTO 24018G23KT 10SM CLR 25/M01 A3005 RMK AO2,M
WYS,2024-07-29 23:55,75.20,35.60,23.66,220.00,12.00,0.00,30.06,M,9.00,26.00,CLR,M,M,M,M,M,M,M,M,M,M,M,M,M,M,75.20,KWYS 292355Z AUTO 22012G26KT 9SM CLR 24/02 A3006 RMK AO2,M
WYS,2024-07-30 00:55,75.20,35.60,23.66,210.00,20.00,0.00,30.04,M,10.00,28.00,CLR,M,M,M,M,M,M,M,M,M,M,M,M,M,M,75.20,KWYS 300055Z AUTO 21020G28KT 10SM CLR 24/02 A3004 RMK AO2,M
WYS,2024-07-30 01:55,73.40,33.80,23.39,210.00,16.00,0.00,30.04,M,10.00,M,CLR,M,M,M,M,M,M,M,M,M,M,M,M,M,M,73.40,KWYS 300155Z AUTO 21016KT 10SM CLR 23/01 A3004 RMK AO2,M
WYS,2024-07-30 02:55,68.00,28.40,22.59,200.00,12.00,0.00,30.04,M,10.00,M,CLR,M,M,M,M,M,M,M,M,M,M,M,M,M,M,68.00,KWYS 300255Z AUTO 20012KT 10SM CLR 20/M02 A3004 RMK AO2,M
WYS,2024-07-30 03:55,66.20,32.00,27.83,220.00,11.00,0.00,30.05,M,10.00,M,CLR,M,M,M,M,M,M,M,M,M,M,M,M,M,M,66.20,KWYS 300355Z AUTO 22011KT 10SM CLR 19/M00 A3005 RMK AO2,M
WYS,2024-07-30 04:55,64.40,32.00,29.63,240.00,6.00,0.00,30.06,M,10.00,M,CLR,M,M,M,M,M,M,M,M,M,M,M,M,M,M,64.40,KWYS 300455Z AUTO 24006KT 10SM CLR 18/M00 A3006 RMK AO2,M
WYS,2024-07-30 05:55,60.80,32.00,33.64,M,5.00,0.00,30.07,M,10.00,M,CLR,M,M,M,M,M,M,M,M,M,M,M,M,M,M,60.80,KWYS 300555Z AUTO VRB05KT 10SM CLR 16/M00 A3007 RMK AO2,M
WYS,2024-07-30 06:55,62.60,30.20,29.35,220.00,7.00,0.00,30.08,M,10.00,M,CLR,M,M,M,M,M,M,M,M,M,M,M,M,M,M,62.60,KWYS 300655Z AUTO 22007KT 10SM CLR 17/M01 A3008 RMK AO2,M
WYS,2024-07-30 07:55,55.40,32.00,40.84,210.00,10.00,0.00,30.07,M,10.00,M,CLR,M,M,M,M,M,M,M,M,M,M,M,M,M,M,55.40,KWYS 300755Z AUTO 21010KT 10SM CLR 13/M00 A3007 RMK AO2,M
WYS,2024-07-30 08:55,51.80,32.00,46.59,0.00,0.00,0.00,30.07,M,10.00,M,CLR,M,M,M,M,M,M,M,M,M,M,M,M,M,M,51.80,KWYS 300855Z AUTO 00000KT 10SM CLR 11/00 A3007 RMK AO2,M
WYS,2024-07-30 09:55,46.40,32.00,57.00,0.00,0.00,0.00,30.08,M,10.00,M,CLR,M,M,M,M,M,M,M,M,M,M,M,M,M,M,46.40,KWYS 300955Z AUTO 00000KT 10SM CLR 08/00 A3008 RMK AO2,M
WYS,2024-07-30 10:55,42.80,32.00,65.38,0.00,0.00,0.00,30.08,M,10.00,M,CLR,M,M,M,M,M,M,M,M,M,M,M,M,M,M,42.80,KWYS 301055Z AUTO 00000KT 10SM CLR 06/00 A3008 RMK AO2,M
WYS,2024-07-30 11:55,39.20,33.80,80.79,0.00,0.00,0.00,30.09,M,10.00,M,CLR,M,M,M,M,M,M,M,M,M,M,M,M,M,M,39.20,KWYS 301155Z AUTO 00000KT 10SM CLR 04/01 A3009 RMK AO2,M
WYS,2024-07-30 12:55,39.20,33.80,80.79,0.00,0.00,0.00,30.10,M,10.00,M,CLR,M,M,M,M,M,M,M,M,M,M,M,M,M,M,39.20,KWYS 301255Z AUTO 00000KT 10SM CLR 04/01 A3010 RMK AO2,M
WYS,2024-07-30 13:55,46.40,35.60,65.83,0.00,0.00,0.00,30.11,M,10.00,M,CLR,M,M,M,M,M,M,M,M,M,M,M,M,M,M,46.40,KWYS 301355Z AUTO 00000KT 10SM CLR 08/02 A3011 RMK AO2,M
WYS,2024-07-30 14:55,51.80,35.60,53.81,0.00,0.00,0.00,30.11,M,10.00,M,CLR,M,M,M,M,M,M,M,M,M,M,M,M,M,M,51.80,KWYS 301455Z AUTO 00000KT 10SM CLR 11/02 A3011 RMK AO2,M
WYS,2024-07-30 15:55,62.60,37.40,39.14,M,6.00,0.00,30.10,M,10.00,M,CLR,M,M,M,M,M,M,M,M,M,M,M,M,M,M,62.60,KWYS 301555Z AUTO VRB06KT 10SM CLR 17/03 A3010 RMK AO2,M
WYS,2024-07-30 16:55,68.00,37.40,32.43,200.00,13.00,0.00,30.10,M,10.00,19.00,CLR,M,M,M,M,M,M,M,M,M,M,M,M,M,M,68.00,KWYS 301655Z AUTO 20013G19KT 10SM CLR 20/03 A3010 RMK AO2,M
WYS,2024-07-30 17:55,69.80,37.40,30.49,200.00,12.00,0.00,30.11,M,10.00,17.00,SCT,M,M,M,12000.00,M,M,M,M,M,M,M,M,M,M,69.80,KWYS 301755Z AUTO 20012G17KT 10SM SCT120 21/03 A3011 RMK AO2,M
WYS,2024-07-30 18:55,66.20,37.40,34.51,280.00,9.00,0.00,30.12,M,9.00,16.00,CLR,M,M,M,M,M,M,M,M,M,M,M,M,M,M,66.20,KWYS 301855Z AUTO 28009G16KT 9SM CLR 19/03 A3012 RMK AO2,M
WYS,2024-07-30 19:50,66.20,35.60,32.14,230.00,16.00,0.00,30.14,M,9.00,M,FEW,M,M,M,5000.00,M,M,M,M,M,M,M,M,M,M,66.20,KWYS 301950Z AUTO 23016KT 9SM FEW050 19/02 A3014 RMK AO2,M
WYS,2024-07-30 20:50,64.40,37.40,36.74,220.00,21.00,0.00,30.14,M,10.00,28.00,BKN,OVC,M,M,8000.00,8500.00,M,M,M,M,M,M,M,M,M,64.40,KWYS 302050Z AUTO 22021G28KT 10SM BKN080 OVC085 18/03 A3014 RMK AO2,M
WYS,2024-07-30 21:55,66.20,41.00,39.72,220.00,20.00,0.00,30.12,M,7.00,28.00,CLR,M,M,M,M,M,M,M,M,M,M,M,M,M,M,66.20,KWYS 302155Z AUTO 22020G28KT 7SM CLR 19/05 A3012 RMK AO2,M
WYS,2024-07-30 22:55,64.40,44.60,48.55,210.00,19.00,0.00,30.13,M,9.00,24.00,SCT,M,M,M,8000.00,M,M,M,M,M,M,M,M,M,M,64.40,KWYS 302255Z AUTO 21019G24KT 9SM SCT080 18/07 A3013 RMK AO2,M
WYS,2024-07-30 23:55,66.20,42.80,42.57,220.00,16.00,0.00,30.13,M,10.00,22.00,OVC,M,M,M,10000.00,M,M,M,M,M,M,M,M,M,M,66.20,KWYS 302355Z AUTO 22016G22KT 10SM OVC100 19/06 A3013 RMK AO2,M
WYS,2024-07-31 00:55,60.80,46.40,59.01,210.00,13.00,0.00,30.14,M,10.00,M,BKN,BKN,M,M,7500.00,8500.00,M,M,M,M,M,M,M,M,M,60.80,KWYS 310055Z AUTO 21013KT 10SM BKN075 BKN085 16/08 A3014 RMK AO2,M
WYS,2024-07-31 01:55,51.80,51.80,100.00,0.00,0.00,0.12,30.19,M,7.00,M,SCT,BKN,OVC,M,3200.00,3900.00,6000.00,M,M,M,M,M,M,M,M,51.80,KWYS 310155Z AUTO 00000KT 7SM SCT032 BKN039 OVC060 11/11 A3019 RMK AO2 P0012,M
WYS,2024-07-31 02:55,51.80,51.80,100.00,0.00,0.00,0.01,30.20,M,10.00,M,FEW,FEW,M,M,5500.00,10000.00,M,M,M,M,M,M,M,M,M,51.80,KWYS 310255Z AUTO 00000KT 10SM FEW055 FEW100 11/11 A3020 RMK AO2 P0001,M
WYS,2024-07-31 03:55,50.00,50.00,100.00,0.00,0.00,0.00,30.22,M,10.00,M,OVC,M,M,M,9000.00,M,M,M,M,M,M,M,M,M,M,50.00,KWYS 310355Z AUTO 00000KT 10SM OVC090 10/10 A3022 RMK AO2,M
WYS,2024-07-31 04:55,48.20,48.20,100.00,0.00,0.00,0.00,30.23,M,10.00,M,SCT,M,M,M,9500.00,M,M,M,M,M,M,M,M,M,M,48.20,KWYS 310455Z AUTO 00000KT 10SM SCT095 09/09 A3023 RMK AO2,M
WYS,2024-07-31 05:55,46.40,46.40,100.00,0.00,0.00,0.00,30.24,M,5.00,M,CLR,M,M,M,M,M,M,M,BR,M,M,M,M,M,M,46.40,KWYS 310555Z AUTO 00000KT 5SM BR CLR 08/08 A3024 RMK AO2,M
WYS,2024-07-31 06:55,42.80,42.80,100.00,220.00,3.00,0.00,30.24,M,0.50,M,OVC,M,M,M,100.00,M,M,M,FG,M,M,M,M,M,M,41.03,KWYS 310655Z AUTO 22003KT 1/2SM FG OVC001 06/06 A3024 RMK AO2,M
WYS,2024-07-31 07:55,44.60,44.60,100.00,0.00,0.00,0.00,30.24,M,0.25,M,OVC,M,M,M,300.00,M,M,M,FG,M,M,M,M,M,M,44.60,KWYS 310755Z AUTO 00000KT 1/4SM FG OVC003 07/07 A3024 RMK AO2,M
WYS,2024-07-31 08:55,44.60,44.60,100.00,0.00,0.00,0.00,30.24,M,0.25,M,OVC,M,M,M,200.00,M,M,M,FG,M,M,M,M,M,M,44.60,KWYS 310855Z AUTO 00000KT M1/4SM FG OVC002 07/07 A3024 RMK AO2,M
WYS,2024-07-31 09:55,44.60,44.60,100.00,40.00,3.00,0.00,30.24,M,0.25,M,OVC,M,M,M,200.00,M,M,M,FG,M,M,M,M,M,M,43.09,KWYS 310955Z AUTO 04003KT M1/4SM FG OVC002 07/07 A3024 RMK AO2,M
WYS,2024-07-31 10:55,44.60,46.40,M,70.00,4.00,0.00,30.25,M,0.25,M,OVC,M,M,M,300.00,M,M,M,FG,M,M,M,M,M,M,M,KWYS 311055Z AUTO 07004KT 1/4SM FG OVC003 07/08 A3025 RMK AO2,M
WYS,2024-07-31 11:55,46.40,46.40,100.00,0.00,0.00,0.00,30.27,M,0.75,M,OVC,M,M,M,300.00,M,M,M,BR,M,M,M,M,M,M,46.40,KWYS 311155Z AUTO 00000KT 3/4SM BR OVC003 08/08 A3027 RMK AO2,M
WYS,2024-07-31 12:55,46.40,46.40,100.00,0.00,0.00,0.00,30.29,M,1.00,M,OVC,M,M,M,400.00,M,M,M,BR,M,M,M,M,M,M,46.40,KWYS 311255Z AUTO 00000KT 1SM BR OVC004 08/08 A3029 RMK AO2,M
WYS,2024-07-31 13:55,44.60,44.60,100.00,M,3.00,0.00,30.30,M,2.50,M,OVC,M,M,M,400.00,M,M,M,BR,M,M,M,M,M,M,43.09,KWYS 311355Z AUTO VRB03KT 2 1/2SM BR OVC004 07/07 A3030 RMK AO2,M
WYS,2024-07-31 14:55,44.60,44.60,100.00,0.00,0.00,0.00,30.31,M,9.00,M,OVC,M,M,M,400.00,M,M,M,M,M,M,M,M,M,M,44.60,KWYS 311455Z AUTO 00000KT 9SM OVC004 07/07 A3031 RMK AO2,M
WYS,2024-07-31 15:55,46.40,46.40,100.00,M,3.00,0.00,30.32,M,10.00,M,OVC,M,M,M,400.00,M,M,M,M,M,M,M,M,M,M,45.15,KWYS 311555Z AUTO VRB03KT 10SM OVC004 08/08 A3032 RMK AO2,M
WYS,2024-07-31 16:55,50.00,50.00,100.00,0.00,0.00,0.00,30.32,M,10.00,M,OVC,M,M,M,500.00,M,M,M,M,M,M,M,M,M,M,50.00,KWYS 311655Z AUTO 00000KT 10SM OVC005 10/10 A3032 RMK AO2,M
WYS,2024-07-31 17:55,55.40,51.80,87.65,0.00,0.00,0.00,30.32,M,10.00,M,CLR,M,M,M,M,M,M,M,M,M,M,M,M,M,M,55.40,KWYS 311755Z AUTO 00000KT 10SM CLR 13/11 A3032 RMK AO2,M
WYS,2024-07-31 18:55,64.40,48.20,55.63,0.00,0.00,0.00,30.30,M,10.00,M,CLR,M,M,M,M,M,M,M,M,M,M,M,M,M,M,64.40,KWYS 311855Z AUTO 00000KT 10SM CLR 18/09 A3030 RMK AO2,M
WYS,2024-07-31 19:50,68.00,46.40,45.88,M,5.00,0.00,30.29,M,10.00,11.00,FEW,M,M,M,5000.00,M,M,M,M,M,M,M,M,M,M,68.00,KWYS 311950Z AUTO VRB05G11KT 10SM FEW050 20/08 A3029 RMK AO2,M
WYS,2024-07-31 20:55,71.60,42.80,35.37,210.00,11.00,0.00,30.28,M,10.00,M,BKN,M,M,M,6000.00,M,M,M,M,M,M,M,M,M,M,71.60,KWYS 312055Z AUTO 21011KT 160V230 10SM BKN060 22/06 A3028 RMK AO2,M
WYS,2024-07-31 21:55,73.40,41.00,31.05,250.00,10.00,0.00,30.27,M,10.00,M,BKN,M,M,M,6500.00,M,M,M,M,M,M,M,M,M,M,73.40,KWYS 312155Z AUTO 25010KT 10SM BKN065 23/05 A3027 RMK AO2,M
WYS,2024-07-31 22:55,75.20,41.00,29.23,220.00,9.00,0.00,30.27,M,10.00,16.00,SCT,M,M,M,7000.00,M,M,M,M,M,M,M,M,M,M,75.20,KWYS 312255Z AUTO 22009G16KT 10SM SCT070 24/05 A3027 RMK AO2,M
WYS,2024-07-31 23:55,73.40,39.20,28.96,220.00,8.00,0.00,30.26,M,10.00,17.00,CLR,M,M,M,M,M,M,M,M,M,M,M,M,M,M,73.40,KWYS 312355Z AUTO 22008G17KT 190V250 10SM CLR 23/04 A3026 RMK AO2,M
WYS,2024-08-01 00:55,75.20,37.40,25.40,200.00,13.00,0.00,30.27,M,10.00,18.00,CLR,M,M,M,M,M,M,M,M,M,M,M,M,M,M,75.20,KWYS 010055Z AUTO 20013G18KT 10SM CLR 24/03 A3027 RMK AO2,M
WYS,2024-08-01 01:55,71.60,37.40,28.68,210.00,9.00,0.00,30.28,M,10.00,M,CLR,M,M,M,M,M,M,M,M,M,M,M,M,M,M,71.60,KWYS 010155Z AUTO 21009KT 10SM CLR 22/03 A3028 RMK AO2,M
WYS,2024-08-01 02:55,64.40,42.80,45.32,220.00,5.00,0.00,30.29,M,10.00,M,CLR,M,M,M,M,M,M,M,M,M,M,M,M,M,M,64.40,KWYS 010255Z AUTO 22005KT 10SM CLR 18/06 A3029 RMK AO2,M
WYS,2024-08-01 03:55,59.00,44.60,58.77,0.00,0.00,0.00,30.31,M,10.00,M,CLR,M,M,M,M,M,M,M,M,M,M,M,M,M,M,59.00,KWYS 010355Z AUTO 00000KT 10SM CLR 15/07 A3031 RMK AO2,M
WYS,2024-08-01 04:55,55.40,44.60,66.91,0.00,0.00,0.00,30.33,M,10.00,M,CLR,M,M,M,M,M,M,M,M,M,M,M,M,M,M,55.40,KWYS 010455Z AUTO 00000KT 10SM CLR 13/07 A3033 RMK AO2,M
WYS,2024-08-01 05:55,51.80,44.60,76.34,0.00,0.00,0.00,30.34,M,10.00,M,CLR,M,M,M,M,M,M,M,M,M,M,M,M,M,M,51.80,KWYS 010555Z AUTO 00000KT 10SM CLR 11/07 A3034 RMK AO2,M
WYS,2024-08-01 06:55,46.40,44.60,93.40,0.00,0.00,0.00,30.35,M,10.00,M,CLR,M,M,M,M,M,M,M,M,M,M,M,M,M,M,46.40,KWYS 010655Z AUTO 00000KT 10SM CLR 08/07 A3035 RMK AO2,M
WYS,2024-08-01 07:55,42.80,42.80,100.00,0.00,0.00,0.00,30.36,M,10.00,M,CLR,M,M,M,M,M,M,M,M,M,M,M,M,M,M,42.80,KWYS 010755Z AUTO 00000KT 10SM CLR 06/06 A3036 RMK AO2,M
WYS,2024-08-01 08:55,41.00,41.00,100.00,0.00,0.00,0.00,30.37,M,10.00,M,CLR,M,M,M,M,M,M,M,M,M,M,M,M,M,M,41.00,KWYS 010855Z AUTO 00000KT 10SM CLR 05/05 A3037 RMK AO2,M
WYS,2024-08-01 09:55,39.20,39.20,100.00,0.00,0.00,0.00,30.38,M,10.00,M,CLR,M,M,M,M,M,M,M,M,M,M,M,M,M,M,39.20,KWYS 010955Z AUTO 00000KT 10SM CLR 04/04 A3038 RMK AO2,M
WYS,2024-08-01 10:55,37.40,37.40,100.00,0.00,0.00,0.00,30.39,M,10.00,M,CLR,M,M,M,M,M,M,M,M,M,M,M,M,M,M,37.40,KWYS 011055Z AUTO 00000KT 10SM CLR 03/03 A3039 RMK AO2,M
WYS,2024-08-01 11:55,35.60,35.60,100.00,0.00,0.00,0.00,30.41,M,10.00,M,CLR,M,M,M,M,M,M,M,M,M,M,M,M,M,M,35.60,KWYS 011155Z AUTO 00000KT 10SM CLR 02/02 A3041 RMK AO2,M
WYS,2024-08-01 12:55,37.40,37.40,100.00,0.00,0.00,0.00,30.43,M,10.00,M,CLR,M,M,M,M,M,M,M,M,M,M,M,M,M,M,37.40,KWYS 011255Z AUTO 00000KT 10SM CLR 03/03 A3043 RMK AO2,M
WYS,2024-08-01 13:55,46.40,44.60,93.40,0.00,0.00,0.00,30.44,M,10.00,M,CLR,M,M,M,M,M,M,M,M,M,M,M,M,M,M,46.40,KWYS 011355Z AUTO 00000KT 10SM CLR 08/07 A3044 RMK AO2,M
WYS,2024-08-01 14:55,51.80,44.60,76.34,0.00,0.00,0.00,30.44,M,10.00,M,CLR,M,M,M,M,M,M,M,M,M,M,M,M,M,M,51.80,KWYS 011455Z AUTO 00000KT 10SM CLR 11/07 A3044 RMK AO2,M
WYS,2024-08-01 15:55,60.80,42.80,51.45,0.00,0.00,0.00,30.44,M,10.00,M,CLR,M,M,M,M,M,M,M,M,M,M,M,M,M,M,60.80,KWYS 011555Z AUTO 00000KT 10SM CLR 16/06 A3044 RMK AO2,M
WYS,2024-08-01 16:55,66.20,42.80,42.57,0.00,0.00,0.00,30.44,M,10.00,M,CLR,M,M,M,M,M,M,M,M,M,M,M,M,M,M,66.20,KWYS 011655Z AUTO 00000KT 10SM CLR 19/06 A3044 RMK AO2,M
WYS,2024-08-01 17:55,75.20,41.00,29.23,M,5.00,0.00,30.43,M,10.00,M,CLR,M,M,M,M,M,M,M,M,M,M,M,M,M,M,75.20,KWYS 011755Z AUTO VRB05KT 10SM CLR 24/05 A3043 RMK AO2,M
WYS,2024-08-01 18:55,78.80,37.40,22.54,110.00,6.00,0.00,30.42,M,10.00,M,CLR,M,M,M,M,M,M,M,M,M,M,M,M,M,M,78.80,KWYS 011855Z AUTO 11006KT 10SM CLR 26/03 A3042 RMK AO2,M
WYS,2024-08-01 19:55,80.60,35.60,19.79,230.00,10.00,0.00,30.41,M,10.00,M,CLR,M,M,M,M,M,M,M,M,M,M,M,M,M,M,78.94,KWYS 011955Z AUTO 23010KT 210V270 10SM CLR 27/02 A3041 RMK AO2,M
WYS,2024-08-01 20:55,80.60,35.60,19.79,M,4.00,0.00,30.41,M,10.00,10.00,CLR,M,M,M,M,M,M,M,M,M,M,M,M,M,M,78.94,KWYS 012055Z AUTO VRB04G10KT 10SM CLR 27/02 A3041 RMK AO2,M
WYS,2024-08-01 21:55,82.40,37.40,20.04,210.00,8.00,0.00,30.40,M,10.00,M,CLR,M,M,M,M,M,M,M,M,M,M,M,M,M,M,80.14,KWYS 012155Z AUTO 21008KT 180V250 10SM CLR 28/03 A3040 RMK AO2,M
WYS,2024-08-01 22:55,84.20,37.40,18.91,M,4.00,0.00,30.40,M,10.00,13.00,CLR,M,M,M,M,M,M,M,M,M,M,M,M,M,M,81.38,KWYS 012255Z AUTO VRB04G13KT 10SM CLR 29/03 A3040 RMK AO2,M
WYS,2024-08-01 23:55,84.20,37.40,18.91,220.00,8.00,0.00,30.39,M,10.00,15.00,CLR,M,M,M,M,M,M,M,M,M,M,M,M,M,M,81.38,KWYS 012355Z AUTO 22008G15KT 10SM CLR 29/03 A3039 RMK AO2,M
WYS,2024-08-02 00:55,82.40,35.60,18.67,230.00,9.00,0.00,30.40,M,10.00,M,CLR,M,M,M,M,M,M,M,M,M,M,M,M,M,M,80.08,KWYS 020055Z AUTO 23009KT 10SM CLR 28/02 A3040 RMK AO2,M
WYS,2024-08-02 01:55,80.60,37.40,21.25,220.00,8.00,0.00,30.41,M,10.00,M,CLR,M,M,M,M,M,M,M,M,M,M,M,M,M,M,79.02,KWYS 020155Z AUTO 22008KT 10SM CLR 27/03 A3041 RMK AO2,M
WYS,2024-08-02 02:55,71.60,41.00,33.00,220.00,4.00,0.00,30.42,M,10.00,M,CLR,M,M,M,M,M,M,M,M,M,M,M,M,M,M,71.60,KWYS 020255Z AUTO 22004KT 10SM CLR 22/05 A3042 RMK AO2,M
WYS,2024-08-02 03:55,64.40,39.20,39.43,0.00,0.00,0.00,30.42,M,10.00,M,CLR,M,M,M,M,M,M,M,M,M,M,M,M,M,M,64.40,KWYS 020355Z AUTO 00000KT 10SM CLR 18/04 A3042 RMK AO2,M
WYS,2024-08-02 04:55,57.20,39.20,50.91,0.00,0.00,0.00,30.43,M,10.00,M,CLR,M,M,M,M,M,M,M,M,M,M,M,M,M,M,57.20,KWYS 020455Z AUTO 00000KT 10SM CLR 14/04 A3043 RMK AO2,M
WYS,2024-08-02 05:55,53.60,39.20,58.02,0.00,0.00,0.00,30.44,M,10.00,M,CLR,M,M,M,M,M,M,M,M,M,M,M,M,M,M,53.60,KWYS 020555Z AUTO 00000KT 10SM CLR 12/04 A3044 RMK AO2,M
WYS,2024-08-02 06:55,48.20,39.20,70.88,0.00,0.00,0.00,30.45,M,10.00,M,CLR,M,M,M,M,M,M,M,M,M,M,M,M,M,M,48.20,KWYS 020655Z AUTO 00000KT 10SM CLR 09/04 A3045 RMK AO2,M
WYS,2024-08-02 07:55,46.40,39.20,75.84,0.00,0.00,0.00,30.46,M,10.00,M,CLR,M,M,M,M,M,M,M,M,M,M,M,M,M,M,46.40,KWYS 020755Z AUTO 00000KT 10SM CLR 08/04 A3046 RMK AO2,M
WYS,2024-08-02 08:55,44.60,39.20,81.20,0.00,0.00,0.00,30.46,M,10.00,M,CLR,M,M,M,M,M,M,M,M,M,M,M,M,M,M,44.60,KWYS 020855Z AUTO 00000KT 10SM CLR 07/04 A3046 RMK AO2,M
WYS,2024-08-02 09:55,41.00,39.20,93.24,0.00,0.00,0.00,30.46,M,10.00,M,CLR,M,M,M,M,M,M,M,M,M,M,M,M,M,M,41.00,KWYS 020955Z AUTO 00000KT 10SM CLR 05/04 A3046 RMK AO2,M
WYS,2024-08-02 10:55,39.20,41.00,M,0.00,0.00,0.00,30.47,M,10.00,M,CLR,M,M,M,M,M,M,M,M,M,M,M,M,M,M,M,KWYS 021055Z AUTO 00000KT 10SM CLR 04/05 A3047 RMK AO2,M
WYS,2024-08-02 11:55,39.20,39.20,100.00,0.00,0.00,0.00,30.47,M,10.00,M,CLR,M,M,M,M,M,M,M,M,M,M,M,M,M,M,39.20,KWYS 021155Z AUTO 00000KT 10SM CLR 04/04 A3047 RMK AO2,M
WYS,2024-08-02 12:55,37.40,37.40,100.00,0.00,0.00,0.00,30.49,M,10.00,M,CLR,M,M,M,M,M,M,M,M,M,M,M,M,M,M,37.40,KWYS 021255Z AUTO 00000KT 10SM CLR 03/03 A3049 RMK AO2,M
WYS,2024-08-02 13:55,48.20,41.00,76.01,0.00,0.00,0.00,30.50,M,10.00,M,CLR,M,M,M,M,M,M,M,M,M,M,M,M,M,M,48.20,KWYS 021355Z AUTO 00000KT 10SM CLR 09/05 A3050 RMK AO2,M
WYS,2024-08-02 14:55,57.20,41.00,54.60,0.00,0.00,0.00,30.50,M,9.00,M,CLR,M,M,M,M,M,M,M,M,M,M,M,M,M,M,57.20,KWYS 021455Z AUTO 00000KT 9SM CLR 14/05 A3050 RMK AO2,M
WYS,2024-08-02 15:55,64.40,39.20,39.43,70.00,3.00,0.00,30.50,M,10.00,M,CLR,M,M,M,M,M,M,M,M,M,M,M,M,M,M,64.40,KWYS 021555Z AUTO 07003KT 10SM CLR 18/04 A3050 RMK AO2,M
WYS,2024-08-02 16:55,71.60,39.20,30.77,0.00,0.00,0.00,30.49,M,10.00,M,CLR,M,M,M,M,M,M,M,M,M,M,M,M,M,M,71.60,KWYS 021655Z AUTO 00000KT 10SM CLR 22/04 A3049 RMK AO2,M
WYS,2024-08-02 17:55,78.80,35.60,21.00,0.00,0.00,0.00,30.47,M,10.00,M,CLR,M,M,M,M,M,M,M,M,M,M,M,M,M,M,78.80,KWYS 021755Z AUTO 00000KT 10SM CLR 26/02 A3047 RMK AO2,M
WYS,2024-08-02 18:55,84.20,39.20,20.29,M,5.00,0.00,30.45,M,10.00,M,CLR,M,M,M,M,M,M,M,M,M,M,M,M,M,M,81.44,KWYS 021855Z AUTO VRB05KT 10SM CLR 29/04 A3045 RMK AO2,M
WYS,2024-08-02 19:55,87.80,35.60,15.70,190.00,8.00,0.00,30.44,M,10.00,15.00,SCT,M,M,M,10000.00,M,M,M,M,M,M,M,M,M,M,84.12,KWYS 021955Z AUTO 19008G15KT 10SM SCT100 31/02 A3044 RMK AO2,M
WYS,2024-08-02 20:55,84.20,35.60,17.61,320.00,5.00,0.00,30.42,M,10.00,M,FEW,M,M,M,11000.00,M,M,M,M,M,M,M,M,M,M,81.34,KWYS 022055Z AUTO 32005KT 10SM FEW110 29/02 A3042 RMK AO2,M
WYS,2024-08-02 21:55,89.60,33.80,13.80,M,6.00,0.00,30.40,M,10.00,13.00,CLR,M,M,M,M,M,M,M,M,M,M,M,M,M,M,85.59,KWYS 022155Z AUTO VRB06G13KT 10SM CLR 32/01 A3040 RMK AO2,M
WYS,2024-08-02 22:55,89.60,32.00,12.84,210.00,8.00,0.00,30.39,M,10.00,14.00,CLR,M,M,M,M,M,M,M,M,M,M,M,M,M,M,85.54,KWYS 022255Z AUTO 21008G14KT 10SM CLR 32/00 A3039 RMK AO2,M
WYS,2024-08-02 23:55,87.80,32.00,13.59,M,3.00,0.00,30.37,M,10.00,11.00,FEW,M,M,M,12000.00,M,M,M,M,M,M,M,M,M,M,84.08,KWYS 022355Z AUTO VRB03G11KT 10SM FEW120 31/00 A3037 RMK AO2,M
WYS,2024-08-03 00:55,86.00,33.80,15.48,0.00,0.00,0.00,30.37,M,10.00,M,CLR,M,M,M,M,M,M,M,M,M,M,M,M,M,M,82.66,KWYS 030055Z AUTO 00000KT 10SM CLR 30/01 A3037 RMK AO2,M
WYS,2024-08-03 01:55,80.60,39.20,22.81,0.00,0.00,0.00,30.37,M,10.00,M,CLR,M,M,M,M,M,M,M,M,M,M,M,M,M,M,79.10,KWYS 030155Z AUTO 00000KT 10SM CLR 27/04 A3037 RMK AO2,M
WYS,2024-08-03 02:55,71.60,41.00,33.00,40.00,3.00,0.00,30.38,M,10.00,M,CLR,M,M,M,M,M,M,M,M,M,M,M,M,M,M,71.60,KWYS 030255Z AUTO 04003KT 10SM CLR 22/05 A3038 RMK AO2,M
WYS,2024-08-03 03:55,68.00,41.00,37.32,330.00,3.00,0.00,30.40,M,10.00,M,CLR,M,M,M,M,M,M,M,M,M,M,M,M,M,M,68.00,KWYS 030355Z AUTO 33003KT 10SM CLR 20/05 A3040 RMK AO2,M
WYS,2024-08-03 04:55,64.40,41.00,42.28,330.00,5.00,0.00,30.40,M,10.00,M,CLR,M,M,M,M,M,M,M,M,M,M,M,M,M,M,64.40,KWYS 030455Z AUTO 33005KT 10SM CLR 18/05 A3040 RMK AO2,M
WYS,2024-08-03 05:55,59.00,42.80,54.86,220.00,4.00,0.00,30.40,M,10.00,M,CLR,M,M,M,M,M,M,M,M,M,M,M,M,M,M,59.00,KWYS 030555Z AUTO 22004KT 10SM CLR 15/06 A3040 RMK AO2,M
WYS,2024-08-03 06:55,55.40,42.80,62.46,290.00,3.00,0.00,30.40,M,10.00,M,CLR,M,M,M,M,M,M,M,M,M,M,M,M,M,M,55.40,KWYS 030655Z AUTO 29003KT 10SM CLR 13/06 A3040 RMK AO2,M
WYS,2024-08-03 07:55,51.80,42.80,71.26,0.00,0.00,0.00,30.41,M,10.00,M,CLR,M,M,M,M,M,M,M,M,M,M,M,M,M,M,51.80,KWYS 030755Z AUTO 00000KT 10SM CLR 11/06 A3041 RMK AO2,M
WYS,2024-08-03 08:55,50.00,42.80,76.18,220.00,4.00,0.00,30.40,M,10.00,M,CLR,M,M,M,M,M,M,M,M,M,M,M,M,M,M,50.00,KWYS 030855Z AUTO 22004KT 10SM CLR 10/06 A3040 RMK AO2,M
WYS,2024-08-03 09:55,46.40,42.80,87.19,0.00,0.00,0.00,30.41,M,10.00,M,CLR,M,M,M,M,M,M,M,M,M,M,M,M,M,M,46.40,KWYS 030955Z AUTO 00000KT 10SM CLR 08/06 A3041 RMK AO2,M
WYS,2024-08-03 10:55,44.60,42.80,93.35,0.00,0.00,0.00,30.40,M,10.00,M,CLR,M,M,M,M,M,M,M,M,M,M,M,M,M,M,44.60,KWYS 031055Z AUTO 00000KT 10SM CLR 07/06 A3040 RMK AO2,M
WYS,2024-08-03 11:55,42.80,42.80,100.00,0.00,0.00,0.00,30.40,M,10.00,M,CLR,M,M,M,M,M,M,M,M,M,M,M,M,M,M,42.80,KWYS 031155Z AUTO 00000KT 10SM CLR 06/06 A3040 RMK AO2,M
WYS,2024-08-03 12:55,42.80,42.80,100.00,0.00,0.00,0.00,30.40,M,10.00,M,CLR,M,M,M,M,M,M,M,M,M,M,M,M,M,M,42.80,KWYS 031255Z AUTO 00000KT 10SM CLR 06/06 A3040 RMK AO2,M
WYS,2024-08-03 13:55,53.60,42.80,66.70,0.00,0.00,0.00,30.40,M,10.00,M,CLR,M,M,M,M,M,M,M,M,M,M,M,M,M,M,53.60,KWYS 031355Z AUTO 00000KT 10SM CLR 12/06 A3040 RMK AO2,M
WYS,2024-08-03 14:55,60.80,42.80,51.45,0.00,0.00,0.00,30.39,M,10.00,M,CLR,M,M,M,M,M,M,M,M,M,M,M,M,M,M,60.80,KWYS 031455Z AUTO 00000KT 10SM CLR 16/06 A3039 RMK AO2,M
WYS,2024-08-03 15:55,68.00,42.80,40.00,0.00,0.00,0.00,30.38,M,10.00,M,CLR,M,M,M,M,M,M,M,M,M,M,M,M,M,M,68.00,KWYS 031555Z AUTO 00000KT 10SM CLR 20/06 A3038 RMK AO2,M
WYS,2024-08-03 16:55,75.20,41.00,29.23,0.00,0.00,0.00,30.35,M,10.00,M,CLR,M,M,M,M,M,M,M,M,M,M,M,M,M,M,75.20,KWYS 031655Z AUTO 00000KT 10SM CLR 24/05 A3035 RMK AO2,M
WYS,2024-08-03 17:55,80.60,39.20,22.81,0.00,0.00,0.00,30.32,M,10.00,M,CLR,M,M,M,M,M,M,M,M,M,M,M,M,M,M,79.10,KWYS 031755Z AUTO 00000KT 10SM CLR 27/04 A3032 RMK AO2,M
WYS,2024-08-03 18:55,84.20,35.60,17.61,M,4.00,0.00,30.29,M,10.00,M,CLR,M,M,M,M,M,M,M,M,M,M,M,M,M,M,81.34,KWYS 031855Z AUTO VRB04KT 10SM CLR 29/02 A3029 RMK AO2,M
WYS,2024-08-03 19:55,87.80,33.80,14.61,M,6.00,0.00,30.28,M,10.00,15.00,CLR,M,M,M,M,M,M,M,M,M,M,M,M,M,M,84.10,KWYS 031955Z AUTO VRB06G15KT 10SM CLR 31/01 A3028 RMK AO2,M
WYS,2024-08-03 20:55,87.80,30.20,12.64,M,6.00,0.00,30.26,M,10.00,12.00,CLR,M,M,M,M,M,M,M,M,M,M,M,M,M,M,84.01,KWYS 032055Z AUTO VRB06G12KT 10SM CLR 31/M01 A3026 RMK AO2,M
WYS,2024-08-03 21:55,87.80,30.20,12.64,240.00,8.00,0.00,30.24,M,10.00,15.00,CLR,M,M,M,M,M,M,M,M,M,M,M,M,M,M,84.01,KWYS 032155Z AUTO 24008G15KT 210V280 10SM CLR 31/M01 A3024 RMK AO2,M
WYS,2024-08-03 22:55,87.80,30.20,12.64,220.00,12.00,0.00,30.23,M,10.00,M,CLR,M,M,M,M,M,M,M,M,M,M,M,M,M,M,84.01,KWYS 032255Z AUTO 22012KT 10SM CLR 31/M01 A3023 RMK AO2,M
WYS,2024-08-03 23:55,86.00,30.20,13.38,210.00,11.00,0.00,30.22,M,10.00,M,CLR,M,M,M,M,M,M,M,M,M,M,M,M,M,M,82.64,KWYS 032355Z AUTO 21011KT 10SM CLR 30/M01 A3022 RMK AO2,M
WYS,2024-08-04 00:55,86.00,33.80,15.48,200.00,9.00,0.00,30.20,M,10.00,M,CLR,M,M,M,M,M,M,M,M,M,M,M,M,M,M,82.66,KWYS 040055Z AUTO 20009KT 10SM CLR 30/01 A3020 RMK AO2,M
WYS,2024-08-04 01:55,84.20,35.60,17.61,210.00,10.00,0.00,30.19,M,10.00,16.00,CLR,M,M,M,M,M,M,M,M,M,M,M,M,M,M,81.34,KWYS 040155Z AUTO 21010G16KT 10SM CLR 29/02 A3019 RMK AO2,M
WYS,2024-08-04 02:55,78.80,35.60,21.00,210.00,7.00,0.00,30.20,M,10.00,M,CLR,M,M,M,M,M,M,M,M,M,M,M,M,M,M,78.80,KWYS 040255Z AUTO 21007KT 10SM CLR 26/02 A3020 RMK AO2,M
WYS,2024-08-04 03:55,69.80,35.60,28.39,0.00,0.00,0.00,30.21,M,10.00,M,CLR,M,M,M,M,M,M,M,M,M,M,M,M,M,M,69.80,KWYS 040355Z AUTO 00000KT 10SM CLR 21/02 A3021 RMK AO2,M
WYS,2024-08-04 04:55,62.60,37.40,39.14,210.00,4.00,0.00,30.21,M,10.00,M,CLR,M,M,M,M,M,M,M,M,M,M,M,M,M,M,62.60,KWYS 040455Z AUTO 21004KT 10SM CLR 17/03 A3021 RMK AO2,M
WYS,2024-08-04 05:55,57.20,37.40,47.44,200.00,4.00,0.00,30.21,M,10.00,M,CLR,M,M,M,M,M,M,M,M,M,M,M,M,M,M,57.20,KWYS 040555Z AUTO 20004KT 10SM CLR 14/03 A3021 RMK AO2,M
WYS,2024-08-04 06:55,59.00,37.40,44.47,0.00,0.00,0.00,30.20,M,10.00,M,CLR,M,M,M,M,M,M,M,M,M,M,M,M,M,M,59.00,KWYS 040655Z AUTO 00000KT 10SM CLR 15/03 A3020 RMK AO2,M
WYS,2024-08-04 07:55,53.60,37.40,54.07,0.00,0.00,0.00,30.21,M,10.00,M,CLR,M,M,M,M,M,M,M,M,M,M,M,M,M,M,53.60,KWYS 040755Z AUTO 00000KT 10SM CLR 12/03 A3021 RMK AO2,M
WYS,2024-08-04 08:55,50.00,37.40,61.76,0.00,0.00,0.00,30.21,M,10.00,M,CLR,M,M,M,M,M,M,M,M,M,M,M,M,M,M,50.00,KWYS 040855Z AUTO 00000KT 10SM CLR 10/03 A3021 RMK AO2,M
WYS,2024-08-04 09:55,50.00,39.20,66.27,40.00,4.00,0.00,30.21,M,10.00,M,CLR,M,M,M,M,M,M,M,M,M,M,M,M,M,M,50.00,KWYS 040955Z AUTO 04004KT 10SM CLR 10/04 A3021 RMK AO2,M
WYS,2024-08-04 10:55,48.20,37.40,66.05,0.00,0.00,0.00,30.20,M,10.00,M,CLR,M,M,M,M,M,M,M,M,M,M,M,M,M,M,48.20,KWYS 041055Z AUTO 00000KT 10SM CLR 09/03 A3020 RMK AO2,M
WYS,2024-08-04 11:55,46.40,39.20,75.84,0.00,0.00,0.00,30.20,M,10.00,M,CLR,M,M,M,M,M,M,M,M,M,M,M,M,M,M,46.40,KWYS 041155Z AUTO 00000KT 10SM CLR 08/04 A3020 RMK AO2,M
WYS,2024-08-04 12:55,48.20,39.20,70.88,0.00,0.00,0.00,30.21,M,10.00,M,CLR,M,M,M,M,M,M,M,M,M,M,M,M,M,M,48.20,KWYS 041255Z AUTO 00000KT 10SM CLR 09/04 A3021 RMK AO2,M
WYS,2024-08-04 13:55,55.40,41.00,58.27,0.00,0.00,0.00,30.22,M,10.00,M,CLR,M,M,M,M,M,M,M,M,M,M,M,M,M,M,55.40,KWYS 041355Z AUTO 00000KT 10SM CLR 13/05 A3022 RMK AO2,M
WYS,2024-08-04 14:55,64.40,42.80,45.32,0.00,0.00,0.00,30.22,M,10.00,M,CLR,M,M,M,M,M,M,M,M,M,M,M,M,M,M,64.40,KWYS 041455Z AUTO 00000KT 10SM CLR 18/06 A3022 RMK AO2,M
WYS,2024-08-04 15:55,71.60,48.20,43.42,220.00,11.00,0.00,30.22,M,10.00,18.00,CLR,M,M,M,M,M,M,M,M,M,M,M,M,M,M,71.60,KWYS 041555Z AUTO 22011G18KT 10SM CLR 22/09 A3022 RMK AO2,M
WYS,2024-08-04 16:55,69.80,48.20,46.16,M,5.00,0.00,30.23,M,10.00,13.00,BKN,M,M,M,11000.00,M,M,M,M,M,M,M,M,M,M,69.80,KWYS 041655Z AUTO VRB05G13KT 10SM BKN110 21/09 A3023 RMK AO2,M
WYS,2024-08-04 17:55,69.80,48.20,46.16,220.00,12.00,0.00,30.25,M,10.00,20.00,BKN,M,M,M,11000.00,M,M,M,M,M,M,M,M,M,M,69.80,KWYS 041755Z AUTO 22012G20KT 10SM BKN110 21/09 A3025 RMK AO2,M
WYS,2024-08-04 18:55,71.60,50.00,46.43,140.00,10.00,0.00,30.23,M,10.00,M,SCT,M,M,M,11000.00,M,M,M,M,M,M,M,M,M,M,71.60,KWYS 041855Z AUTO 14010KT 10SM SCT110 22/10 A3023 RMK AO2,M
WYS,2024-08-04 19:55,75.20,48.20,38.46,220.00,19.00,0.00,30.22,M,10.00,25.00,BKN,M,M,M,11000.00,M,M,M,M,M,M,M,M,M,M,75.20,KWYS 041955Z AUTO 22019G25KT 10SM BKN110 24/09 A3022 RMK AO2,M
WYS,2024-08-04 20:55,77.00,48.20,36.22,220.00,15.00,0.00,30.20,M,10.00,20.00,BKN,BKN,M,M,6000.00,7000.00,M,M,M,M,M,M,M,M,M,77.00,KWYS 042055Z AUTO 22015G20KT 10SM BKN060 BKN070 25/09 A3020 RMK AO2,M
WYS,2024-08-04 21:55,75.20,48.20,38.46,230.00,12.00,0.00,30.18,M,10.00,18.00,SCT,SCT,BKN,M,6500.00,8000.00,11000.00,M,M,M,M,M,M,M,M,75.20,KWYS 042155Z AUTO 23012G18KT 10SM SCT065 SCT080 BKN110 24/09 A3018 RMK AO2,M
WYS,2024-08-04 22:55,57.20,57.20,100.00,320.00,8.00,0.09,30.25,M,2.50,17.00,FEW,SCT,OVC,M,600.00,3400.00,6500.00,M,RA,M,M,M,M,M,M,57.20,KWYS 042255Z AUTO 32008G17KT 280V360 2 1/2SM RA FEW006 SCT034 OVC065 14/14 A3025 RMK AO2 P0009 VIS 2V4,M
WYS,2024-08-04 23:55,62.60,62.60,100.00,120.00,6.00,0.03,30.25,M,10.00,M,FEW,BKN,M,M,7000.00,8500.00,M,M,M,M,M,M,M,M,M,62.60,KWYS 042355Z AUTO 12006KT 10SM FEW070 BKN085 17/17 A3025 RMK AO2 P0003,M
WYS,2024-08-05 00:55,64.40,59.00,82.62,110.00,4.00,0.00,30.25,M,10.00,M,BKN,OVC,M,M,7500.00,8500.00,M,M,M,M,M,M,M,M,M,64.40,KWYS 050055Z AUTO 11004KT 10SM BKN075 OVC085 18/15 A3025 RMK AO2,M
WYS,2024-08-05 01:55,62.60,62.60,100.00,0.00,0.00,0.00,30.24,M,10.00,M,CLR,M,M,M,M,M,M,M,M,M,M,M,M,M,M,62.60,KWYS 050155Z AUTO 00000KT 10SM CLR 17/17 A3024 RMK AO2,M
WYS,2024-08-05 02:55,57.20,57.20,100.00,0.00,0.00,0.00,30.24,M,10.00,M,CLR,M,M,M,M,M,M,M,M,M,M,M,M,M,M,57.20,KWYS 050255Z AUTO 00000KT 10SM CLR 14/14 A3024 RMK AO2,M
WYS,2024-08-05 03:55,55.40,55.40,100.00,0.00,0.00,0.00,30.26,M,10.00,M,CLR,M,M,M,M,M,M,M,M,M,M,M,M,M,M,55.40,KWYS 050355Z AUTO 00000KT 10SM CLR 13/13 A3026 RMK AO2,M
WYS,2024-08-05 04:55,51.80,51.80,100.00,0.00,0.00,0.00,30.27,M,9.00,M,CLR,M,M,M,M,M,M,M,M,M,M,M,M,M,M,51.80,KWYS 050455Z AUTO 00000KT 9SM CLR 11/11 A3027 RMK AO2,M
WYS,2024-08-05 05:55,50.00,50.00,100.00,0.00,0.00,0.00,30.27,M,0.50,M,VV ,M,M,M,500.00,M,M,M,BR,M,M,M,M,M,M,50.00,KWYS 050555Z AUTO 00000KT 1/2SM BR VV005 10/10 A3027 RMK AO2,M
WYS,2024-08-05 06:55,46.40,46.40,100.00,0.00,0.00,0.00,30.29,M,2.50,M,SCT,M,M,M,100.00,M,M,M,BR,M,M,M,M,M,M,46.40,KWYS 050655Z AUTO 00000KT 2 1/2SM BR SCT001 08/08 A3029 RMK AO2,M
WYS,2024-08-05 07:55,46.40,46.40,100.00,0.00,0.00,0.00,30.30,M,7.00,M,FEW,SCT,M,M,100.00,7500.00,M,M,M,M,M,M,M,M,M,46.40,KWYS 050755Z AUTO 00000KT 7SM FEW001 SCT075 08/08 A3030 RMK AO2,M
WYS,2024-08-05 08:55,44.60,46.40,M,0.00,0.00,0.00,30.31,M,10.00,M,CLR,M,M,M,M,M,M,M,M,M,M,M,M,M,M,M,KWYS 050855Z AUTO 00000KT 10SM CLR 07/08 A3031 RMK AO2,M
WYS,2024-08-05 09:55,46.40,46.40,100.00,0.00,0.00,0.00,30.31,M,0.75,M,OVC,M,M,M,300.00,M,M,M,BR,M,M,M,M,M,M,46.40,KWYS 050955Z AUTO 00000KT 3/4SM BR OVC003 08/08 A3031 RMK AO2,M
WYS,2024-08-05 10:55,48.20,48.20,100.00,0.00,0.00,0.00,30.32,M,0.25,M,OVC,M,M,M,300.00,M,M,M,FG,M,M,M,M,M,M,48.20,KWYS 051055Z AUTO 00000KT M1/4SM FG OVC003 09/09 A3032 RMK AO2,M
WYS,2024-08-05 11:55,48.20,48.20,100.00,0.00,0.00,0.00,30.33,M,0.25,M,OVC,M,M,M,200.00,M,M,M,FG,M,M,M,M,M,M,48.20,KWYS 051155Z AUTO 00000KT M1/4SM FG OVC002 09/09 A3033 RMK AO2,M
WYS,2024-08-05 12:55,48.20,48.20,100.00,0.00,0.00,0.00,30.35,M,0.25,M,OVC,M,M,M,200.00,M,M,M,FG,M,M,M,M,M,M,48.20,KWYS 051255Z AUTO 00000KT M1/4SM FG OVC002 09/09 A3035 RMK AO2,M
WYS,2024-08-05 13:35,50.00,50.00,100.00,0.00,0.00,0.00,30.36,M,0.25,M,OVC,M,M,M,300.00,M,M,M,FG,M,M,M,M,M,M,50.00,KWYS 051335Z AUTO 00000KT M1/4SM FG OVC003 10/10 A3036 RMK AO2,M
WYS,2024-08-05 14:55,51.80,51.80,100.00,M,3.00,0.00,30.36,M,8.00,M,OVC,M,M,M,400.00,M,M,M,M,M,M,M,M,M,M,51.80,KWYS 051455Z AUTO VRB03KT 8SM OVC004 11/11 A3036 RMK AO2,M
WYS,2024-08-05 15:55,51.80,51.80,100.00,0.00,0.00,0.00,30.36,M,1.00,M,OVC,M,M,M,300.00,M,M,M,BR,M,M,M,M,M,M,51.80,KWYS 051555Z AUTO 00000KT 1SM BR OVC003 11/11 A3036 RMK AO2,M
WYS,2024-08-05 16:55,53.60,55.40,M,0.00,0.00,0.00,30.36,M,10.00,M,OVC,M,M,M,500.00,M,M,M,M,M,M,M,M,M,M,M,KWYS 051655Z AUTO 00000KT 10SM OVC005 12/13 A3036 RMK AO2,M
WYS,2024-08-05 17:55,62.60,59.00,88.00,0.00,0.00,0.00,30.35,M,10.00,M,CLR,M,M,M,M,M,M,M,M,M,M,M,M,M,M,62.60,KWYS 051755Z AUTO 00000KT 10SM CLR 17/15 A3035 RMK AO2,M
WYS,2024-08-05 18:55,73.40,51.80,46.71,0.00,0.00,0.00,30.34,M,10.00,M,CLR,M,M,M,M,M,M,M,M,M,M,M,M,M,M,73.40,KWYS 051855Z AUTO 00000KT 10SM CLR 23/11 A3034 RMK AO2,M
WYS,2024-08-05 19:55,78.80,46.40,31.90,170.00,6.00,0.00,30.33,M,10.00,M,CLR,M,M,M,M,M,M,M,M,M,M,M,M,M,M,78.80,KWYS 051955Z AUTO 17006KT 150V210 10SM CLR 26/08 A3033 RMK AO2,M
WYS,2024-08-05 20:55,80.60,39.20,22.81,130.00,6.00,0.00,30.31,M,10.00,11.00,CLR,M,M,M,M,M,M,M,M,M,M,M,M,M,M,79.10,KWYS 052055Z AUTO 13006G11KT 10SM CLR 27/04 A3031 RMK AO2,M
WYS,2024-08-05 21:55,82.40,39.20,21.51,190.00,8.00,0.00,30.28,M,10.00,17.00,CLR,M,M,M,M,M,M,M,M,M,M,M,M,M,M,80.21,KWYS 052155Z AUTO 19008G17KT 10SM CLR 28/04 A3028 RMK AO2,M
WYS,2024-08-05 22:55,82.40,39.20,21.51,M,5.00,0.00,30.26,M,10.00,M,FEW,M,M,M,9500.00,M,M,M,M,M,M,M,M,M,M,80.21,KWYS 052255Z AUTO VRB05KT 10SM FEW095 28/04 A3026 RMK AO2,M
WYS,2024-08-05 23:55,82.40,37.40,20.04,0.00,0.00,0.00,30.25,M,10.00,M,CLR,M,M,M,M,M,M,M,M,M,M,M,M,M,M,80.14,KWYS 052355Z AUTO 00000KT 10SM CLR 28/03 A3025 RMK AO2,M
WYS,2024-08-06 00:55,77.00,42.80,29.51,0.00,0.00,0.00,30.23,M,10.00,M,SCT,M,M,M,11000.00,M,M,M,M,M,M,M,M,M,M,77.00,KWYS 060055Z AUTO 00000KT 10SM SCT110 25/06 A3023 RMK AO2,M
WYS,2024-08-06 01:55,60.80,59.00,93.79,340.00,7.00,0.08,30.30,M,9.00,13.00,FEW,SCT,BKN,M,800.00,3800.00,6000.00,M,M,M,M,M,M,M,M,60.80,KWYS 060155Z AUTO 34007G13KT 9SM FEW008 SCT038 BKN060 16/15 A3030 RMK AO2 P0008,M
WYS,2024-08-06 02:55,60.80,60.80,100.00,140.00,7.00,0.00,30.31,M,8.00,M,SCT,BKN,OVC,M,3800.00,5000.00,8000.00,M,M,M,M,M,M,M,M,60.80,KWYS 060255Z AUTO 14007KT 8SM SCT038 BKN050 OVC080 16/16 A3031 RMK AO2,M
WYS,2024-08-06 03:55,59.00,59.00,100.00,320.00,5.00,0.01,30.36,M,8.00,M,FEW,SCT,BKN,M,400.00,5000.00,7000.00,M,-RA,M,M,M,M,M,M,59.00,KWYS 060355Z AUTO 32005KT 8SM -RA FEW004 SCT050 BKN070 15/15 A3036 RMK AO2 P0001,M
WYS,2024-08-06 04:55,57.20,57.20,100.00,80.00,7.00,0.02,30.34,M,8.00,15.00,FEW,BKN,OVC,M,2300.00,4400.00,8500.00,M,M,M,M,M,M,M,M,57.20,KWYS 060455Z AUTO 08007G15KT 8SM FEW023 BKN044 OVC085 14/14 A3034 RMK AO2 P0002,M
WYS,2024-08-06 05:55,55.40,55.40,100.00,280.00,4.00,0.00,30.33,M,10.00,M,CLR,M,M,M,M,M,M,M,M,M,M,M,M,M,M,55.40,KWYS 060555Z AUTO 28004KT 10SM CLR 13/13 A3033 RMK AO2,M
WYS,2024-08-06 06:55,53.60,53.60,100.00,0.00,0.00,0.00,30.33,M,10.00,M,CLR,M,M,M,M,M,M,M,M,M,M,M,M,M,M,53.60,KWYS 060655Z AUTO 00000KT 10SM CLR 12/12 A3033 RMK AO2,M
WYS,2024-08-06 07:55,51.80,51.80,100.00,0.00,0.00,0.00,30.34,M,10.00,M,CLR,M,M,M,M,M,M,M,M,M,M,M,M,M,M,51.80,KWYS 060755Z AUTO 00000KT 10SM CLR 11/11 A3034 RMK AO2,M
WYS,2024-08-06 08:55,48.20,48.20,100.00,0.00,0.00,0.00,30.33,M,5.00,M,CLR,M,M,M,M,M,M,M,BR,M,M,M,M,M,M,48.20,KWYS 060855Z AUTO 00000KT 5SM BR CLR 09/09 A3033 RMK AO2,M
WYS,2024-08-06 09:55,46.40,48.20,M,0.00,0.00,0.00,30.33,M,10.00,M,CLR,M,M,M,M,M,M,M,M,M,M,M,M,M,M,M,KWYS 060955Z AUTO 00000KT 10SM CLR 08/09 A3033 RMK AO2,M
WYS,2024-08-06 10:55,44.60,44.60,100.00,0.00,0.00,0.00,30.34,M,10.00,M,CLR,M,M,M,M,M,M,M,M,M,M,M,M,M,M,44.60,KWYS 061055Z AUTO 00000KT 10SM CLR 07/07 A3034 RMK AO2,M
WYS,2024-08-06 11:55,44.60,44.60,100.00,0.00,0.00,0.00,30.35,M,10.00,M,BKN,M,M,M,300.00,M,M,M,M,M,M,M,M,M,M,44.60,KWYS 061155Z AUTO 00000KT 10SM BKN003 07/07 A3035 RMK AO2,M
WYS,2024-08-06 12:55,44.60,44.60,100.00,0.00,0.00,0.00,30.35,M,0.25,M,OVC,M,M,M,200.00,M,M,M,FG,M,M,M,M,M,M,44.60,KWYS 061255Z AUTO 00000KT M1/4SM FG OVC002 07/07 A3035 RMK AO2,M
WYS,2024-08-06 13:55,48.20,48.20,100.00,0.00,0.00,0.00,30.36,M,0.25,M,OVC,M,M,M,200.00,M,M,M,FG,M,M,M,M,M,M,48.20,KWYS 061355Z AUTO 00000KT M1/4SM FG OVC002 09/09 A3036 RMK AO2,M
WYS,2024-08-06 14:55,53.60,53.60,100.00,0.00,0.00,0.00,30.37,M,8.00,M,OVC,M,M,M,300.00,M,M,M,M,M,M,M,M,M,M,53.60,KWYS 061455Z AUTO 00000KT 8SM OVC003 12/12 A3037 RMK AO2,M
WYS,2024-08-06 15:55,59.00,59.00,100.00,0.00,0.00,0.00,30.35,M,10.00,M,FEW,M,M,M,600.00,M,M,M,M,M,M,M,M,M,M,59.00,KWYS 061555Z AUTO 00000KT 10SM FEW006 15/15 A3035 RMK AO2,M
WYS,2024-08-06 16:55,64.40,59.00,82.62,0.00,0.00,0.00,30.33,M,10.00,M,CLR,M,M,M,M,M,M,M,M,M,M,M,M,M,M,64.40,KWYS 061655Z AUTO 00000KT 10SM CLR 18/15 A3033 RMK AO2,M
WYS,2024-08-06 17:55,69.80,55.40,60.21,0.00,0.00,0.00,30.31,M,10.00,M,FEW,M,M,M,11000.00,M,M,M,M,M,M,M,M,M,M,69.80,KWYS 061755Z AUTO 00000KT 10SM FEW110 21/13 A3031 RMK AO2,M
WYS,2024-08-06 18:55,73.40,55.40,53.29,350.00,7.00,0.00,30.30,M,10.00,M,CLR,M,M,M,M,M,M,M,M,M,M,M,M,M,M,73.40,KWYS 061855Z AUTO 35007KT 10SM CLR 23/13 A3030 RMK AO2,M
WYS,2024-08-06 19:55,77.00,46.40,33.85,220.00,13.00,0.00,30.29,M,10.00,19.00,CLR,M,M,M,M,M,M,M,M,M,M,M,M,M,M,77.00,KWYS 061955Z AUTO 22013G19KT 10SM CLR 25/08 A3029 RMK AO2,M
WYS,2024-08-06 20:55,78.80,46.40,31.90,200.00,16.00,0.00,30.27,M,10.00,M,CLR,M,M,M,M,M,M,M,M,M,M,M,M,M,M,78.80,KWYS 062055Z AUTO 20016KT 10SM CLR 26/08 A3027 RMK AO2,M
WYS,2024-08-06 21:55,75.20,44.60,33.57,190.00,12.00,0.00,30.27,M,10.00,M,CLR,M,M,M,M,M,M,M,M,M,M,M,M,M,M,75.20,KWYS 062155Z AUTO 19012KT 10SM CLR 24/07 A3027 RMK AO2,M
WYS,2024-08-06 22:55,75.20,46.40,35.94,M,4.00,0.00,30.24,M,10.00,12.00,FEW,M,M,M,11000.00,M,M,M,M,M,M,M,M,M,M,75.20,KWYS 062255Z AUTO VRB04G12KT 10SM FEW110 24/08 A3024 RMK AO2,M
WYS,2024-08-06 23:55,80.60,42.80,26.22,200.00,12.00,0.00,30.20,M,10.00,20.00,CLR,M,M,M,M,M,M,M,M,M,M,M,M,M,M,79.30,KWYS 062355Z AUTO 20012G20KT 10SM CLR 27/06 A3020 RMK AO2,M
WYS,2024-08-07 00:55,80.60,42.80,26.22,210.00,14.00,0.00,30.18,M,10.00,M,CLR,M,M,M,M,M,M,M,M,M,M,M,M,M,M,79.30,KWYS 070055Z AUTO 21014KT 10SM CLR 27/06 A3018 RMK AO2,M
WYS,2024-08-07 01:55,78.80,42.80,27.81,190.00,6.00,0.00,30.17,M,10.00,M,CLR,M,M,M,M,M,M,M,M,M,M,M,M,M,M,78.80,KWYS 070155Z AUTO 19006KT 10SM CLR 26/06 A3017 RMK AO2,M
WYS,2024-08-07 02:55,68.00,46.40,45.88,190.00,4.00,0.00,30.17,M,10.00,M,CLR,M,M,M,M,M,M,M,M,M,M,M,M,M,M,68.00,KWYS 070255Z AUTO 19004KT 10SM CLR 20/08 A3017 RMK AO2,M
WYS,2024-08-07 03:55,69.80,44.60,40.29,0.00,0.00,0.00,30.17,M,10.00,M,CLR,M,M,M,M,M,M,M,M,M,M,M,M,M,M,69.80,KWYS 070355Z AUTO 00000KT 10SM CLR 21/07 A3017 RMK AO2,M
WYS,2024-08-07 04:55,66.20,46.40,48.83,M,4.00,0.00,30.19,M,10.00,M,OVC,M,M,M,11000.00,M,M,M,M,M,M,M,M,M,M,66.20,KWYS 070455Z AUTO VRB04KT 10SM OVC110 19/08 A3019 RMK AO2,M
WYS,2024-08-07 05:35,60.80,48.20,63.15,0.00,0.00,0.00,30.19,M,10.00,M,BKN,M,M,M,11000.00,M,M,M,M,M,M,M,M,M,M,60.80,KWYS 070535Z AUTO 00000KT 10SM BKN110 16/09 A3019 RMK AO2,M
WYS,2024-08-07 06:55,55.40,50.00,81.99,0.00,0.00,0.00,30.20,M,10.00,M,FEW,M,M,M,12000.00,M,M,M,M,M,M,M,M,M,M,55.40,KWYS 070655Z AUTO 00000KT 10SM FEW120 13/10 A3020 RMK AO2,M
WYS,2024-08-07 07:55,55.40,48.20,76.66,0.00,0.00,0.00,30.22,M,10.00,M,CLR,M,M,M,M,M,M,M,M,M,M,M,M,M,M,55.40,KWYS 070755Z AUTO 00000KT 10SM CLR 13/09 A3022 RMK AO2,M
WYS,2024-08-07 08:55,51.80,51.80,100.00,0.00,0.00,0.00,30.25,M,10.00,M,CLR,M,M,M,M,M,M,M,M,M,M,M,M,M,M,51.80,KWYS 070855Z AUTO 00000KT 10SM CLR 11/11 A3025 RMK AO2,M
WYS,2024-08-07 09:35,51.80,51.80,100.00,0.00,0.00,0.00,30.25,M,10.00,M,CLR,M,M,M,M,M,M,M,M,M,M,M,M,M,M,51.80,KWYS 070935Z AUTO 00000KT 10SM CLR 11/11 A3025 RMK AO2,M
WYS,2024-08-07 10:55,48.20,48.20,100.00,0.00,0.00,0.00,30.26,M,10.00,M,OVC,M,M,M,6000.00,M,M,M,M,M,M,M,M,M,M,48.20,KWYS 071055Z AUTO 00000KT 10SM OVC060 09/09 A3026 RMK AO2,M
WYS,2024-08-07 11:55,46.40,46.40,100.00,200.00,3.00,0.00,30.27,M,10.00,M,OVC,M,M,M,5000.00,M,M,M,M,M,M,M,M,M,M,45.15,KWYS 071155Z AUTO 20003KT 10SM OVC050 08/08 A3027 RMK AO2,M
WYS,2024-08-07 12:55,44.60,44.60,100.00,0.00,0.00,0.00,30.28,M,10.00,M,CLR,M,M,M,M,M,M,M,M,M,M,M,M,M,M,44.60,KWYS 071255Z AUTO 00000KT 10SM CLR 07/07 A3028 RMK AO2,M
WYS,2024-08-07 13:55,50.00,50.00,100.00,0.00,0.00,0.00,30.28,M,10.00,M,CLR,M,M,M,M,M,M,M,M,M,M,M,M,M,M,50.00,KWYS 071355Z AUTO 00000KT 10SM CLR 10/10 A3028 RMK AO2,M
WYS,2024-08-07 14:55,55.40,51.80,87.65,0.00,0.00,0.00,30.28,M,10.00,M,CLR,M,M,M,M,M,M,M,M,M,M,M,M,M,M,55.40,KWYS 071455Z AUTO 00000KT 10SM CLR 13/11 A3028 RMK AO2,M
WYS,2024-08-07 15:55,60.80,50.00,67.54,0.00,0.00,0.00,30.27,M,10.00,M,CLR,M,M,M,M,M,M,M,M,M,M,M,M,M,M,60.80,KWYS 071555Z AUTO 00000KT 10SM CLR 16/10 A3027 RMK AO2,M
WYS,2024-08-07 16:55,68.00,50.00,52.51,0.00,0.00,0.00,30.25,M,10.00,M,CLR,M,M,M,M,M,M,M,M,M,M,M,M,M,M,68.00,KWYS 071655Z AUTO 00000KT 10SM CLR 20/10 A3025 RMK AO2,M
WYS,2024-08-07 17:55,75.20,41.00,29.23,240.00,11.00,0.00,30.24,M,10.00,M,CLR,M,M,M,M,M,M,M,M,M,M,M,M,M,M,75.20,KWYS 071755Z AUTO 24011KT 10SM CLR 24/05 A3024 RMK AO2,M
WYS,2024-08-07 18:55,75.20,39.20,27.26,230.00,13.00,0.00,30.24,M,10.00,19.00,CLR,M,M,M,M,M,M,M,M,M,M,M,M,M,M,75.20,KWYS 071855Z AUTO 23013G19KT 10SM CLR 24/04 A3024 RMK AO2,M
WYS,2024-08-07 19:55,77.00,41.00,27.53,240.00,11.00,0.00,30.23,M,10.00,16.00,FEW,FEW,M,M,8000.00,10000.00,M,M,M,M,M,M,M,M,M,77.00,KWYS 071955Z AUTO 24011G16KT 10SM FEW080 FEW100 25/05 A3023 RMK AO2,M
WYS,2024-08-07 20:55,77.00,39.20,25.67,320.00,9.00,0.00,30.22,M,10.00,18.00,FEW,M,M,M,8000.00,M,M,M,M,M,M,M,M,M,M,77.00,KWYS 072055Z AUTO 32009G18KT 270V350 10SM FEW080 25/04 A3022 RMK AO2,M
WYS,2024-08-07 21:55,77.00,37.40,23.93,M,5.00,0.00,30.21,M,10.00,15.00,CLR,M,M,M,M,M,M,M,M,M,M,M,M,M,M,77.00,KWYS 072155Z AUTO VRB05G15KT 10SM CLR 25/03 A3021 RMK AO2,M
WYS,2024-08-07 22:55,77.00,39.20,25.67,10.00,7.00,0.00,30.20,M,10.00,14.00,SCT,SCT,M,M,8500.00,12000.00,M,M,M,M,M,M,M,M,M,77.00,KWYS 072255Z AUTO 01007G14KT 340V050 10SM SCT085 SCT120 25/04 A3020 RMK AO2,M
WYS,2024-08-07 23:55,77.00,39.20,25.67,M,4.00,0.00,30.20,M,10.00,15.00,FEW,M,M,M,8000.00,M,M,M,M,M,M,M,M,M,M,77.00,KWYS 072355Z AUTO VRB04G15KT 10SM FEW080 25/04 A3020 RMK AO2,M
WYS,2024-08-08 00:55,75.20,39.20,27.26,M,6.00,0.00,30.20,M,10.00,M,SCT,M,M,M,9500.00,M,M,M,M,M,M,M,M,M,M,75.20,KWYS 080055Z AUTO VRB06KT 10SM SCT095 24/04 A3020 RMK AO2,M
WYS,2024-08-08 01:55,68.00,46.40,45.88,40.00,14.00,0.00,30.22,M,10.00,M,BKN,BKN,M,M,9000.00,11000.00,M,M,M,M,M,M,M,M,M,68.00,KWYS 080155Z AUTO 04014KT 10SM BKN090 BKN110 20/08 A3022 RMK AO2,M
WYS,2024-08-08 02:55,64.40,44.60,48.55,40.00,13.00,0.00,30.25,M,10.00,M,FEW,BKN,BKN,M,7000.00,9000.00,11000.00,M,M,M,M,M,M,M,M,64.40,KWYS 080255Z AUTO 04013KT 10SM FEW070 BKN090 BKN110 18/07 A3025 RMK AO2,M
WYS,2024-08-08 03:55,60.80,44.60,55.12,10.00,11.00,0.00,30.27,M,10.00,16.00,FEW,M,M,M,9000.00,M,M,M,M,M,M,M,M,M,M,60.80,KWYS 080355Z AUTO 01011G16KT 10SM FEW090 16/07 A3027 RMK AO2,M
WYS,2024-08-08 04:55,59.00,46.40,62.92,10.00,9.00,0.00,30.28,M,10.00,15.00,CLR,M,M,M,M,M,M,M,M,M,M,M,M,M,M,59.00,KWYS 080455Z AUTO 01009G15KT 10SM CLR 15/08 A3028 RMK AO2,M
WYS,2024-08-08 05:55,57.20,46.40,67.12,60.00,5.00,0.00,30.30,M,10.00,M,CLR,M,M,M,M,M,M,M,M,M,M,M,M,M,M,57.20,KWYS 080555Z AUTO 06005KT 10SM CLR 14/08 A3030 RMK AO2,M
WYS,2024-08-08 06:55,53.60,48.20,81.87,20.00,7.00,0.00,30.30,M,10.00,M,CLR,M,M,M,M,M,M,M,M,M,M,M,M,M,M,53.60,KWYS 080655Z AUTO 02007KT 10SM CLR 12/09 A3030 RMK AO2,M
WYS,2024-08-08 07:55,51.80,46.40,81.74,40.00,4.00,0.00,30.30,M,10.00,M,CLR,M,M,M,M,M,M,M,M,M,M,M,M,M,M,51.80,KWYS 080755Z AUTO 04004KT 10SM CLR 11/08 A3030 RMK AO2,M
WYS,2024-08-08 08:55,51.80,48.20,87.47,70.00,4.00,0.00,30.30,M,10.00,M,CLR,M,M,M,M,M,M,M,M,M,M,M,M,M,M,51.80,KWYS 080855Z AUTO 07004KT 10SM CLR 11/09 A3030 RMK AO2,M
WYS,2024-08-08 09:55,50.00,48.20,93.50,30.00,6.00,0.00,30.29,M,10.00,M,CLR,M,M,M,M,M,M,M,M,M,M,M,M,M,M,50.00,KWYS 080955Z AUTO 03006KT 10SM CLR 10/09 A3029 RMK AO2,M
WYS,2024-08-08 10:55,44.60,44.60,100.00,0.00,0.00,0.00,30.29,M,10.00,M,CLR,M,M,M,M,M,M,M,M,M,M,M,M,M,M,44.60,KWYS 081055Z AUTO 00000KT 10SM CLR 07/07 A3029 RMK AO2,M
WYS,2024-08-08 11:55,42.80,42.80,100.00,0.00,0.00,0.00,30.29,M,10.00,M,CLR,M,M,M,M,M,M,M,M,M,M,M,M,M,M,42.80,KWYS 081155Z AUTO 00000KT 10SM CLR 06/06 A3029 RMK AO2,M
WYS,2024-08-08 12:55,50.00,50.00,100.00,70.00,6.00,0.00,30.30,M,10.00,M,CLR,M,M,M,M,M,M,M,M,M,M,M,M,M,M,50.00,KWYS 081255Z AUTO 07006KT 10SM CLR 10/10 A3030 RMK AO2,M
WYS,2024-08-08 13:55,51.80,50.00,93.55,60.00,3.00,0.00,30.30,M,10.00,M,CLR,M,M,M,M,M,M,M,M,M,M,M,M,M,M,51.80,KWYS 081355Z AUTO 06003KT 10SM CLR 11/10 A3030 RMK AO2,M
WYS,2024-08-08 14:55,53.60,50.00,87.56,110.00,3.00,0.00,30.30,M,10.00,M,CLR,M,M,M,M,M,M,M,M,M,M,M,M,M,M,53.60,KWYS 081455Z AUTO 11003KT 10SM CLR 12/10 A3030 RMK AO2,M
WYS,2024-08-08 15:55,55.40,48.20,76.66,0.00,0.00,0.00,30.30,M,10.00,M,CLR,M,M,M,M,M,M,M,M,M,M,M,M,M,M,55.40,KWYS 081555Z AUTO 00000KT 10SM CLR 13/09 A3030 RMK AO2,M
WYS,2024-08-08 16:55,59.00,46.40,62.92,0.00,0.00,0.00,30.29,M,10.00,M,SCT,M,M,M,3000.00,M,M,M,M,M,M,M,M,M,M,59.00,KWYS 081655Z AUTO 00000KT 10SM SCT030 15/08 A3029 RMK AO2,M
WYS,2024-08-08 17:55,62.60,46.40,55.37,320.00,5.00,0.00,30.27,M,10.00,M,CLR,M,M,M,M,M,M,M,M,M,M,M,M,M,M,62.60,KWYS 081755Z AUTO 32005KT 10SM CLR 17/08 A3027 RMK AO2,M
WYS,2024-08-08 18:55,66.20,44.60,45.60,60.00,6.00,0.00,30.26,M,10.00,M,CLR,M,M,M,M,M,M,M,M,M,M,M,M,M,M,66.20,KWYS 081855Z AUTO 06006KT 10SM CLR 19/07 A3026 RMK AO2,M
WYS,2024-08-08 19:55,69.80,44.60,40.29,M,5.00,0.00,30.25,M,10.00,M,CLR,M,M,M,M,M,M,M,M,M,M,M,M,M,M,69.80,KWYS 081955Z AUTO VRB05KT 10SM CLR 21/07 A3025 RMK AO2,M
WYS,2024-08-08 20:55,71.60,41.00,33.00,0.00,0.00,0.00,30.24,M,10.00,10.00,CLR,M,M,M,M,M,M,M,M,M,M,M,M,M,M,71.60,KWYS 082055Z AUTO 00000G10KT 10SM CLR 22/05 A3024 RMK AO2,M
WYS,2024-08-08 21:55,71.60,41.00,33.00,M,6.00,0.00,30.24,M,10.00,11.00,CLR,M,M,M,M,M,M,M,M,M,M,M,M,M,M,71.60,KWYS 082155Z AUTO VRB06G11KT 10SM CLR 22/05 A3024 RMK AO2,M
WYS,2024-08-08 22:55,71.60,44.60,37.89,M,4.00,0.00,30.23,M,10.00,14.00,BKN,M,M,M,6500.00,M,M,M,M,M,M,M,M,M,M,71.60,KWYS 082255Z AUTO VRB04G14KT 10SM BKN065 22/07 A3023 RMK AO2,M
WYS,2024-08-08 23:55,69.80,44.60,40.29,50.00,12.00,0.00,30.23,M,10.00,M,FEW,SCT,M,M,6500.00,7500.00,M,M,M,M,M,M,M,M,M,69.80,KWYS 082355Z AUTO 05012KT 10SM FEW065 SCT075 21/07 A3023 RMK AO2,M
WYS,2024-08-09 00:55,66.20,46.40,48.83,30.00,16.00,0.00,30.24,M,10.00,M,CLR,M,M,M,M,M,M,M,M,M,M,M,M,M,M,66.20,KWYS 090055Z AUTO 03016KT 10SM CLR 19/08 A3024 RMK AO2,M
WYS,2024-08-09 01:55,62.60,46.40,55.37,40.00,14.00,0.00,30.25,M,10.00,M,CLR,M,M,M,M,M,M,M,M,M,M,M,M,M,M,62.60,KWYS 090155Z AUTO 04014KT 10SM CLR 17/08 A3025 RMK AO2,M
WYS,2024-08-09 02:55,59.00,44.60,58.77,60.00,10.00,0.00,30.28,M,10.00,M,CLR,M,M,M,M,M,M,M,M,M,M,M,M,M,M,59.00,KWYS 090255Z AUTO 06010KT 10SM CLR 15/07 A3028 RMK AO2,M
WYS,2024-08-09 03:55,55.40,44.60,66.91,50.00,7.00,0.00,30.30,M,10.00,M,CLR,M,M,M,M,M,M,M,M,M,M,M,M,M,M,55.40,KWYS 090355Z AUTO 05007KT 10SM CLR 13/07 A3030 RMK AO2,M
WYS,2024-08-09 04:55,51.80,44.60,76.34,20.00,7.00,0.00,30.31,M,10.00,M,CLR,M,M,M,M,M,M,M,M,M,M,M,M,M,M,51.80,KWYS 090455Z AUTO 02007KT 10SM CLR 11/07 A3031 RMK AO2,M
WYS,2024-08-09 05:55,51.80,44.60,76.34,40.00,5.00,0.00,30.31,M,10.00,M,SCT,M,M,M,12000.00,M,M,M,M,M,M,M,M,M,M,51.80,KWYS 090555Z AUTO 04005KT 10SM SCT120 11/07 A3031 RMK AO2,M
WYS,2024-08-09 06:55,50.00,44.60,81.61,50.00,4.00,0.00,30.32,M,10.00,M,BKN,M,M,M,12000.00,M,M,M,M,M,M,M,M,M,M,50.00,KWYS 090655Z AUTO 05004KT 10SM BKN120 10/07 A3032 RMK AO2,M
WYS,2024-08-09 07:55,50.00,46.40,87.37,0.00,0.00,0.00,30.31,M,10.00,M,FEW,M,M,M,12000.00,M,M,M,M,M,M,M,M,M,M,50.00,KWYS 090755Z AUTO 00000KT 10SM FEW120 10/08 A3031 RMK AO2,M
WYS,2024-08-09 08:55,48.20,46.40,93.45,0.00,0.00,0.00,30.31,M,10.00,M,CLR,M,M,M,M,M,M,M,M,M,M,M,M,M,M,48.20,KWYS 090855Z AUTO 00000KT 10SM CLR 09/08 A3031 RMK AO2,M
WYS,2024-08-09 09:55,42.80,42.80,100.00,0.00,0.00,0.00,30.30,M,10.00,M,CLR,M,M,M,M,M,M,M,M,M,M,M,M,M,M,42.80,KWYS 090955Z AUTO 00000KT 10SM CLR 06/06 A3030 RMK AO2,M
WYS,2024-08-09 10:55,41.00,41.00,100.00,0.00,0.00,0.00,30.30,M,10.00,M,CLR,M,M,M,M,M,M,M,M,M,M,M,M,M,M,41.00,KWYS 091055Z AUTO 00000KT 10SM CLR 05/05 A3030 RMK AO2,M
WYS,2024-08-09 11:55,39.20,39.20,100.00,0.00,0.00,0.00,30.29,M,10.00,M,CLR,M,M,M,M,M,M,M,M,M,M,M,M,M,M,39.20,KWYS 091155Z AUTO 00000KT 10SM CLR 04/04 A3029 RMK AO2,M
WYS,2024-08-09 12:55,39.20,39.20,100.00,0.00,0.00,0.00,30.30,M,10.00,M,CLR,M,M,M,M,M,M,M,M,M,M,M,M,M,M,39.20,KWYS 091255Z AUTO 00000KT 10SM CLR 04/04 A3030 RMK AO2,M
WYS,2024-08-09 13:55,44.60,44.60,100.00,0.00,0.00,0.00,30.29,M,10.00,M,CLR,M,M,M,M,M,M,M,M,M,M,M,M,M,M,44.60,KWYS 091355Z AUTO 00000KT 10SM CLR 07/07 A3029 RMK AO2,M
WYS,2024-08-09 14:55,50.00,46.40,87.37,0.00,0.00,0.00,30.30,M,10.00,M,CLR,M,M,M,M,M,M,M,M,M,M,M,M,M,M,50.00,KWYS 091455Z AUTO 00000KT 10SM CLR 10/08 A3030 RMK AO2,M
WYS,2024-08-09 15:55,55.40,44.60,66.91,0.00,0.00,0.00,30.28,M,10.00,M,CLR,M,M,M,M,M,M,M,M,M,M,M,M,M,M,55.40,KWYS 091555Z AUTO 00000KT 10SM CLR 13/07 A3028 RMK AO2,M
WYS,2024-08-09 16:55,60.80,44.60,55.12,M,4.00,0.00,30.26,M,10.00,M,CLR,M,M,M,M,M,M,M,M,M,M,M,M,M,M,60.80,KWYS 091655Z AUTO VRB04KT 10SM CLR 16/07 A3026 RMK AO2,M
WYS,2024-08-09 17:55,62.60,44.60,51.72,300.00,4.00,0.00,30.26,M,10.00,M,CLR,M,M,M,M,M,M,M,M,M,M,M,M,M,M,62.60,KWYS 091755Z AUTO 30004KT 10SM CLR 17/07 A3026 RMK AO2,M
WYS,2024-08-09 18:55,68.00,42.80,40.00,M,5.00,0.00,30.24,M,10.00,M,CLR,M,M,M,M,M,M,M,M,M,M,M,M,M,M,68.00,KWYS 091855Z AUTO VRB05KT 10SM CLR 20/06 A3024 RMK AO2,M
WYS,2024-08-09 19:55,75.20,35.60,23.66,240.00,9.00,0.00,30.22,M,10.00,M,CLR,M,M,M,M,M,M,M,M,M,M,M,M,M,M,75.20,KWYS 091955Z AUTO 24009KT 10SM CLR 24/02 A3022 RMK AO2,M
WYS,2024-08-09 20:55,75.20,35.60,23.66,240.00,8.00,0.00,30.21,M,10.00,19.00,CLR,M,M,M,M,M,M,M,M,M,M,M,M,M,M,75.20,KWYS 092055Z AUTO 24008G19KT 10SM CLR 24/02 A3021 RMK AO2,M
WYS,2024-08-09 21:55,75.20,32.00,20.49,240.00,12.00,0.00,30.21,M,10.00,18.00,BKN,M,M,M,11000.00,M,M,M,M,M,M,M,M,M,M,75.20,KWYS 092155Z AUTO 24012G18KT 10SM BKN110 24/00 A3021 RMK AO2,M
WYS,2024-08-09 22:55,62.60,42.80,48.28,330.00,7.00,0.00,30.25,M,7.00,14.00,FEW,SCT,BKN,M,4600.00,6500.00,7000.00,M,M,M,M,M,M,M,M,62.60,KWYS 092255Z AUTO 33007G14KT 300V360 7SM FEW046 SCT065 BKN070 17/06 A3025 RMK AO2,M
WYS,2024-08-09 23:55,68.00,42.80,40.00,230.00,4.00,0.01,30.21,M,10.00,M,CLR,M,M,M,M,M,M,M,M,M,M,M,M,M,M,68.00,KWYS 092355Z AUTO 23004KT 10SM CLR 20/06 A3021 RMK AO2 P0001,M
WYS,2024-08-10 00:55,66.20,42.80,42.57,210.00,6.00,0.00,30.22,M,10.00,M,OVC,M,M,M,12000.00,M,M,M,M,M,M,M,M,M,M,66.20,KWYS 100055Z AUTO 21006KT 10SM OVC120 19/06 A3022 RMK AO2,M
WYS,2024-08-10 01:55,64.40,42.80,45.32,240.00,5.00,0.00,30.23,M,10.00,M,FEW,M,M,M,12000.00,M,M,M,M,M,M,M,M,M,M,64.40,KWYS 100155Z AUTO 24005KT 10SM FEW120 18/06 A3023 RMK AO2,M
WYS,2024-08-10 02:55,62.60,41.00,45.04,290.00,3.00,0.00,30.22,M,10.00,M,BKN,M,M,M,11000.00,M,M,M,M,M,M,M,M,M,M,62.60,KWYS 100255Z AUTO 29003KT 10SM BKN110 17/05 A3022 RMK AO2,M
WYS,2024-08-10 03:55,59.00,44.60,58.77,0.00,0.00,0.00,30.23,M,10.00,M,OVC,M,M,M,11000.00,M,M,M,M,M,M,M,M,M,M,59.00,KWYS 100355Z AUTO 00000KT 10SM OVC110 15/07 A3023 RMK AO2,M
WYS,2024-08-10 04:55,55.40,44.60,66.91,200.00,4.00,0.00,30.24,M,10.00,M,BKN,M,M,M,11000.00,M,M,M,M,M,M,M,M,M,M,55.40,KWYS 100455Z AUTO 20004KT 10SM BKN110 13/07 A3024 RMK AO2,M
WYS,2024-08-10 05:55,50.00,44.60,81.61,0.00,0.00,0.00,30.22,M,10.00,M,CLR,M,M,M,M,M,M,M,M,M,M,M,M,M,M,50.00,KWYS 100555Z AUTO 00000KT 10SM CLR 10/07 A3022 RMK AO2,M
WYS,2024-08-10 06:55,50.00,46.40,87.37,230.00,4.00,0.00,30.23,M,10.00,M,BKN,M,M,M,11000.00,M,M,M,M,M,M,M,M,M,M,50.00,KWYS 100655Z AUTO 23004KT 10SM BKN110 10/08 A3023 RMK AO2,M
WYS,2024-08-10 07:55,48.20,46.40,93.45,220.00,3.00,0.00,30.23,M,10.00,M,BKN,BKN,M,M,10000.00,12000.00,M,M,M,M,M,M,M,M,M,47.21,KWYS 100755Z AUTO 22003KT 10SM BKN100 BKN120 09/08 A3023 RMK AO2,M
WYS,2024-08-10 08:55,48.20,48.20,100.00,0.00,0.00,0.00,30.25,M,10.00,M,SCT,BKN,M,M,9000.00,11000.00,M,M,M,M,M,M,M,M,M,48.20,KWYS 100855Z AUTO 00000KT 10SM SCT090 BKN110 09/09 A3025 RMK AO2,M
WYS,2024-08-10 09:55,46.40,46.40,100.00,0.00,0.00,0.00,30.25,M,10.00,M,FEW,FEW,M,M,6000.00,9500.00,M,M,M,M,M,M,M,M,M,46.40,KWYS 100955Z AUTO 00000KT 10SM FEW060 FEW095 08/08 A3025 RMK AO2,M
WYS,2024-08-10 10:55,44.60,44.60,100.00,0.00,0.00,0.00,30.24,M,10.00,M,FEW,SCT,M,M,10000.00,12000.00,M,M,M,M,M,M,M,M,M,44.60,KWYS 101055Z AUTO 00000KT 10SM FEW100 SCT120 07/07 A3024 RMK AO2,M
WYS,2024-08-10 11:55,41.00,41.00,100.00,0.00,0.00,0.00,30.23,M,10.00,M,CLR,M,M,M,M,M,M,M,M,M,M,M,M,M,M,41.00,KWYS 101155Z AUTO 00000KT 10SM CLR 05/05 A3023 RMK AO2,M
WYS,2024-08-10 12:55,39.20,39.20,100.00,0.00,0.00,0.00,30.25,M,10.00,M,CLR,M,M,M,M,M,M,M,M,M,M,M,M,M,M,39.20,KWYS 101255Z AUTO 00000KT 10SM CLR 04/04 A3025 RMK AO2,M
WYS,2024-08-10 13:55,46.40,46.40,100.00,190.00,4.00,0.00,30.28,M,10.00,M,CLR,M,M,M,M,M,M,M,M,M,M,M,M,M,M,44.24,KWYS 101355Z AUTO 19004KT 10SM CLR 08/08 A3028 RMK AO2,M
WYS,2024-08-10 14:55,55.40,46.40,71.64,0.00,0.00,0.00,30.27,M,10.00,M,CLR,M,M,M,M,M,M,M,M,M,M,M,M,M,M,55.40,KWYS 101455Z AUTO 00000KT 10SM CLR 13/08 A3027 RMK AO2,M
WYS,2024-08-10 15:55,62.60,44.60,51.72,190.00,6.00,0.00,30.24,M,10.00,M,CLR,M,M,M,M,M,M,M,M,M,M,M,M,M,M,62.60,KWYS 101555Z AUTO 19006KT 10SM CLR 17/07 A3024 RMK AO2,M
WYS,2024-08-10 16:55,64.40,42.80,45.32,150.00,5.00,0.00,30.25,M,10.00,M,CLR,M,M,M,M,M,M,M,M,M,M,M,M,M,M,64.40,KWYS 101655Z AUTO 15005KT 10SM CLR 18/06 A3025 RMK AO2,M
WYS,2024-08-10 17:55,64.40,44.60,48.55,260.00,4.00,0.00,30.25,M,10.00,M,BKN,M,M,M,9500.00,M,M,M,M,M,M,M,M,M,M,64.40,KWYS 101755Z AUTO 26004KT 10SM BKN095 18/07 A3025 RMK AO2,M
WYS,2024-08-10 18:55,57.20,55.40,93.69,210.00,7.00,0.01,30.27,M,10.00,M,FEW,FEW,SCT,M,4100.00,4800.00,6000.00,M,M,M,M,M,M,M,M,57.20,KWYS 101855Z AUTO 21007KT 10SM FEW041 FEW048 SCT060 14/13 A3027 RMK AO2 P0001,M
WYS,2024-08-10 19:55,57.20,55.40,93.69,190.00,13.00,0.01,30.26,M,10.00,M,CLR,M,M,M,M,M,M,M,M,M,M,M,M,M,M,57.20,KWYS 101955Z AUTO 19013KT 10SM CLR 14/13 A3026 RMK AO2 P0001,M
WYS,2024-08-10 20:55,62.60,48.20,59.26,70.00,7.00,0.00,30.24,M,10.00,M,SCT,M,M,M,11000.00,M,M,M,M,M,M,M,M,M,M,62.60,KWYS 102055Z AUTO 07007KT 10SM SCT110 17/09 A3024 RMK AO2,M
WYS,2024-08-10 21:55,68.00,42.80,40.00,M,5.00,0.00,30.21,M,10.00,M,BKN,M,M,M,9500.00,M,M,M,M,M,M,M,M,M,M,68.00,KWYS 102155Z AUTO VRB05KT 10SM BKN095 20/06 A3021 RMK AO2,M
WYS,2024-08-10 22:55,69.80,39.20,32.72,340.00,6.00,0.00,30.20,M,10.00,12.00,FEW,SCT,SCT,M,8000.00,10000.00,12000.00,M,M,M,M,M,M,M,M,69.80,KWYS 102255Z AUTO 34006G12KT 10SM FEW080 SCT100 SCT120 21/04 A3020 RMK AO2,M
WYS,2024-08-10 23:55,68.00,35.60,30.20,300.00,7.00,0.00,30.18,M,10.00,14.00,CLR,M,M,M,M,M,M,M,M,M,M,M,M,M,M,68.00,KWYS 102355Z AUTO 30007G14KT 270V030 10SM CLR 20/02 A3018 RMK AO2,M
WYS,2024-08-11 00:55,66.20,37.40,34.51,0.00,0.00,0.00,30.17,M,10.00,M,BKN,BKN,M,M,8500.00,10000.00,M,M,M,M,M,M,M,M,M,66.20,KWYS 110055Z AUTO 00000KT 10SM BKN085 BKN100 19/03 A3017 RMK AO2,M
WYS,2024-08-11 01:55,55.40,50.00,81.99,350.00,9.00,0.00,30.22,M,8.00,16.00,FEW,SCT,BKN,M,3000.00,3800.00,4500.00,M,M,M,M,M,M,M,M,55.40,KWYS 110155Z AUTO 35009G16KT 320V020 8SM FEW030 SCT038 BKN045 13/10 A3022 RMK AO2,M
WYS,2024-08-11 02:55,51.80,51.80,100.00,110.00,5.00,0.03,30.22,M,10.00,M,FEW,SCT,OVC,M,4800.00,6000.00,7000.00,M,M,M,M,M,M,M,M,51.80,KWYS 110255Z AUTO 11005KT 10SM FEW048 SCT060 OVC070 11/11 A3022 RMK AO2 P0003,M
WYS,2024-08-11 03:55,51.80,51.80,100.00,0.00,0.00,0.00,30.22,M,10.00,M,SCT,BKN,OVC,M,4600.00,6500.00,8000.00,M,M,M,M,M,M,M,M,51.80,KWYS 110355Z AUTO 00000KT 10SM SCT046 BKN065 OVC080 11/11 A3022 RMK AO2,M
WYS,2024-08-11 04:55,51.80,51.80,100.00,0.00,0.00,0.02,30.23,M,10.00,M,FEW,SCT,BKN,M,3800.00,4700.00,6000.00,M,M,M,M,M,M,M,M,51.80,KWYS 110455Z AUTO 00000KT 10SM FEW038 SCT047 BKN060 11/11 A3023 RMK AO2 P0002,M
WYS,2024-08-11 05:55,51.80,51.80,100.00,350.00,4.00,0.00,30.22,M,10.00,M,FEW,BKN,OVC,M,3700.00,7000.00,10000.00,M,M,M,M,M,M,M,M,51.80,KWYS 110555Z AUTO 35004KT 10SM FEW037 BKN070 OVC100 11/11 A3022 RMK AO2,M
WYS,2024-08-11 06:55,51.80,51.80,100.00,230.00,4.00,0.02,30.26,M,10.00,M,FEW,FEW,OVC,M,3400.00,4300.00,6000.00,M,M,M,M,M,M,M,M,51.80,KWYS 110655Z AUTO 23004KT 10SM FEW034 FEW043 OVC060 11/11 A3026 RMK AO2 P0002,M
WYS,2024-08-11 07:55,51.80,51.80,100.00,130.00,6.00,0.00,30.25,M,10.00,M,FEW,BKN,OVC,M,5000.00,6000.00,7500.00,M,M,M,M,M,M,M,M,51.80,KWYS 110755Z AUTO 13006KT 10SM FEW050 BKN060 OVC075 11/11 A3025 RMK AO2,M
WYS,2024-08-11 08:55,50.00,50.00,100.00,330.00,3.00,0.00,30.21,M,10.00,M,FEW,SCT,SCT,M,5500.00,7500.00,9000.00,M,M,M,M,M,M,M,M,50.00,KWYS 110855Z AUTO 33003KT 10SM FEW055 SCT075 SCT090 10/10 A3021 RMK AO2,M
WYS,2024-08-11 09:55,44.60,44.60,100.00,0.00,0.00,0.00,30.21,M,2.00,M,BKN,M,M,M,200.00,M,M,M,BR,M,M,M,M,M,M,44.60,KWYS 110955Z AUTO 00000KT 2SM BR BKN002 07/07 A3021 RMK AO2 VIS 3/4V5,M
WYS,2024-08-11 10:55,46.40,46.40,100.00,0.00,0.00,0.00,30.22,M,0.25,M,OVC,M,M,M,200.00,M,M,M,FG,M,M,M,M,M,M,46.40,KWYS 111055Z AUTO 00000KT M1/4SM FG OVC002 08/08 A3022 RMK AO2,M
WYS,2024-08-11 11:55,44.60,44.60,100.00,220.00,6.00,0.00,30.23,M,0.25,M,OVC,M,M,M,200.00,M,M,M,FG,M,M,M,M,M,M,40.71,KWYS 111155Z AUTO 22006KT 1/4SM FG OVC002 07/07 A3023 RMK AO2,M
WYS,2024-08-11 12:55,44.60,44.60,100.00,0.00,0.00,0.00,30.25,M,0.25,M,OVC,M,M,M,200.00,M,M,M,FG,M,M,M,M,M,M,44.60,KWYS 111255Z AUTO 00000KT M1/4SM FG OVC002 07/07 A3025 RMK AO2,M
WYS,2024-08-11 13:55,46.40,46.40,100.00,0.00,0.00,0.00,30.27,M,0.25,M,OVC,M,M,M,300.00,M,M,M,FG,M,M,M,M,M,M,46.40,KWYS 111355Z AUTO 00000KT M1/4SM FG OVC003 08/08 A3027 RMK AO2,M
WYS,2024-08-11 14:55,46.40,46.40,100.00,0.00,0.00,0.00,30.28,M,4.00,M,OVC,M,M,M,300.00,M,M,M,BR,M,M,M,M,M,M,46.40,KWYS 111455Z AUTO 00000KT 4SM BR OVC003 08/08 A3028 RMK AO2,M
WYS,2024-08-11 15:55,48.20,48.20,100.00,0.00,0.00,0.00,30.28,M,10.00,M,OVC,M,M,M,500.00,M,M,M,M,M,M,M,M,M,M,48.20,KWYS 111555Z AUTO 00000KT 10SM OVC005 09/09 A3028 RMK AO2,M
WYS,2024-08-11 16:55,51.80,51.80,100.00,0.00,0.00,0.00,30.29,M,10.00,M,OVC,M,M,M,700.00,M,M,M,M,M,M,M,M,M,M,51.80,KWYS 111655Z AUTO 00000KT 10SM OVC007 11/11 A3029 RMK AO2,M
WYS,2024-08-11 17:55,59.00,53.60,82.25,0.00,0.00,0.00,30.28,M,10.00,M,CLR,M,M,M,M,M,M,M,M,M,M,M,M,M,M,59.00,KWYS 111755Z AUTO 00000KT 10SM CLR 15/12 A3028 RMK AO2,M
WYS,2024-08-11 18:55,66.20,39.20,37.03,30.00,6.00,0.00,30.26,M,10.00,M,CLR,M,M,M,M,M,M,M,M,M,M,M,M,M,M,66.20,KWYS 111855Z AUTO 03006KT 10SM CLR 19/04 A3026 RMK AO2,M
WYS,2024-08-11 19:55,69.80,35.60,28.39,M,5.00,0.00,30.25,M,10.00,13.00,SCT,M,M,M,6000.00,M,M,M,M,M,M,M,M,M,M,69.80,KWYS 111955Z AUTO VRB05G13KT 10SM SCT060 21/02 A3025 RMK AO2,M
WYS,2024-08-11 20:55,71.60,26.60,18.55,220.00,14.00,0.00,30.23,M,10.00,20.00,FEW,M,M,M,8000.00,M,M,M,M,M,M,M,M,M,M,71.60,KWYS 112055Z AUTO 22014G20KT 200V270 10SM FEW080 22/M03 A3023 RMK AO2,M
WYS,2024-08-11 21:55,71.60,32.00,23.13,230.00,9.00,0.00,30.22,M,10.00,16.00,CLR,M,M,M,M,M,M,M,M,M,M,M,M,M,M,71.60,KWYS 112155Z AUTO 23009G16KT 10SM CLR 22/00 A3022 RMK AO2,M
WYS,2024-08-11 22:55,73.40,32.00,21.76,220.00,10.00,0.00,30.20,M,10.00,M,CLR,M,M,M,M,M,M,M,M,M,M,M,M,M,M,73.40,KWYS 112255Z AUTO 22010KT 10SM CLR 23/00 A3020 RMK AO2,M
WYS,2024-08-11 23:55,73.40,33.80,23.39,210.00,8.00,0.00,30.19,M,10.00,16.00,SCT,M,M,M,9500.00,M,M,M,M,M,M,M,M,M,M,73.40,KWYS 112355Z AUTO 21008G16KT 10SM SCT095 23/01 A3019 RMK AO2,M
WYS,2024-08-12 00:55,71.60,35.60,26.71,200.00,8.00,0.00,30.18,M,10.00,19.00,SCT,M,M,M,10000.00,M,M,M,M,M,M,M,M,M,M,71.60,KWYS 120055Z AUTO 20008G19KT 10SM SCT100 22/02 A3018 RMK AO2,M
WYS,2024-08-12 01:55,69.80,35.60,28.39,210.00,6.00,0.00,30.18,M,10.00,M,FEW,M,M,M,9500.00,M,M,M,M,M,M,M,M,M,M,69.80,KWYS 120155Z AUTO 21006KT 10SM FEW095 21/02 A3018 RMK AO2,M
WYS,2024-08-12 02:55,60.80,37.40,41.71,0.00,0.00,0.00,30.18,M,10.00,M,CLR,M,M,M,M,M,M,M,M,M,M,M,M,M,M,60.80,KWYS 120255Z AUTO 00000KT 10SM CLR 16/03 A3018 RMK AO2,M
WYS,2024-08-12 03:55,55.40,39.20,54.34,0.00,0.00,0.00,30.19,M,10.00,M,CLR,M,M,M,M,M,M,M,M,M,M,M,M,M,M,55.40,KWYS 120355Z AUTO 00000KT 10SM CLR 13/04 A3019 RMK AO2,M
WYS,2024-08-12 04:55,51.80,39.20,61.99,40.00,3.00,0.00,30.19,M,10.00,M,FEW,M,M,M,9000.00,M,M,M,M,M,M,M,M,M,M,51.80,KWYS 120455Z AUTO 04003KT 10SM FEW090 11/04 A3019 RMK AO2,M
WYS,2024-08-12 05:55,48.20,41.00,76.01,0.00,0.00,0.00,30.19,M,10.00,M,CLR,M,M,M,M,M,M,M,M,M,M,M,M,M,M,48.20,KWYS 120555Z AUTO 00000KT 10SM CLR 09/05 A3019 RMK AO2,M
WYS,2024-08-12 06:55,44.60,41.00,87.09,0.00,0.00,0.00,30.20,M,10.00,M,CLR,M,M,M,M,M,M,M,M,M,M,M,M,M,M,44.60,KWYS 120655Z AUTO 00000KT 10SM CLR 07/05 A3020 RMK AO2,M
WYS,2024-08-12 07:55,41.00,41.00,100.00,0.00,0.00,0.00,30.19,M,10.00,M,CLR,M,M,M,M,M,M,M,M,M,M,M,M,M,M,41.00,KWYS 120755Z AUTO 00000KT 10SM CLR 05/05 A3019 RMK AO2,M
WYS,2024-08-12 08:55,39.20,39.20,100.00,0.00,0.00,0.00,30.19,M,10.00,M,CLR,M,M,M,M,M,M,M,M,M,M,M,M,M,M,39.20,KWYS 120855Z AUTO 00000KT 10SM CLR 04/04 A3019 RMK AO2,M
WYS,2024-08-12 09:55,37.40,37.40,100.00,0.00,0.00,0.00,30.19,M,10.00,M,CLR,M,M,M,M,M,M,M,M,M,M,M,M,M,M,37.40,KWYS 120955Z AUTO 00000KT 10SM CLR 03/03 A3019 RMK AO2,M
WYS,2024-08-12 10:55,37.40,37.40,100.00,0.00,0.00,0.00,30.18,M,10.00,M,SCT,M,M,M,11000.00,M,M,M,M,M,M,M,M,M,M,37.40,KWYS 121055Z AUTO 00000KT 10SM SCT110 03/03 A3018 RMK AO2,M
WYS,2024-08-12 11:55,37.40,37.40,100.00,0.00,0.00,0.00,30.19,M,10.00,M,FEW,M,M,M,11000.00,M,M,M,M,M,M,M,M,M,M,37.40,KWYS 121155Z AUTO 00000KT 10SM FEW110 03/03 A3019 RMK AO2,M
WYS,2024-08-12 12:55,35.60,35.60,100.00,0.00,0.00,0.00,30.19,M,10.00,M,CLR,M,M,M,M,M,M,M,M,M,M,M,M,M,M,35.60,KWYS 121255Z AUTO 00000KT 10SM CLR 02/02 A3019 RMK AO2,M
WYS,2024-08-12 13:55,42.80,42.80,100.00,0.00,0.00,0.00,30.20,M,10.00,M,BKN,M,M,M,11000.00,M,M,M,M,M,M,M,M,M,M,42.80,KWYS 121355Z AUTO 00000KT 10SM BKN110 06/06 A3020 RMK AO2,M
WYS,2024-08-12 14:55,51.80,42.80,71.26,50.00,4.00,0.00,30.21,M,10.00,M,FEW,M,M,M,10000.00,M,M,M,M,M,M,M,M,M,M,51.80,KWYS 121455Z AUTO 05004KT 10SM FEW100 11/06 A3021 RMK AO2,M
WYS,2024-08-12 15:55,59.00,41.00,51.18,40.00,5.00,0.00,30.21,M,10.00,M,CLR,M,M,M,M,M,M,M,M,M,M,M,M,M,M,59.00,KWYS 121555Z AUTO 04005KT 10SM CLR 15/05 A3021 RMK AO2,M
WYS,2024-08-12 16:55,64.40,42.80,45.32,M,3.00,0.00,30.20,M,10.00,M,CLR,M,M,M,M,M,M,M,M,M,M,M,M,M,M,64.40,KWYS 121655Z AUTO VRB03KT 10SM CLR 18/06 A3020 RMK AO2,M
WYS,2024-08-12 17:55,68.00,44.60,42.85,0.00,0.00,0.00,30.18,M,10.00,M,SCT,M,M,M,10000.00,M,M,M,M,M,M,M,M,M,M,68.00,KWYS 121755Z AUTO 00000KT 10SM SCT100 20/07 A3018 RMK AO2,M
WYS,2024-08-12 18:55,75.20,41.00,29.23,210.00,15.00,0.00,30.15,M,10.00,21.00,FEW,M,M,M,11000.00,M,M,M,M,M,M,M,M,M,M,75.20,KWYS 121855Z AUTO 21015G21KT 10SM FEW110 24/05 A3015 RMK AO2,M
WYS,2024-08-12 19:55,75.20,41.00,29.23,170.00,12.00,0.00,30.13,M,10.00,19.00,FEW,SCT,SCT,M,7000.00,8000.00,12000.00,M,M,M,M,M,M,M,M,75.20,KWYS 121955Z AUTO 17012G19KT 10SM FEW070 SCT080 SCT120 24/05 A3013 RMK AO2,M
WYS,2024-08-12 20:55,71.60,46.40,40.57,210.00,15.00,0.00,30.11,M,9.00,21.00,FEW,M,M,M,7000.00,M,M,M,M,M,M,M,M,M,M,71.60,KWYS 122055Z AUTO 21015G21KT 9SM FEW070 22/08 A3011 RMK AO2,M
WYS,2024-08-12 21:55,71.60,39.20,30.77,210.00,21.00,0.00,30.12,M,10.00,39.00,SCT,M,M,M,12000.00,M,M,M,M,M,M,M,M,M,M,71.60,KWYS 122155Z AUTO 21021G39KT 10SM SCT120 22/04 A3012 RMK AO2,M
WYS,2024-08-12 22:55,71.60,41.00,33.00,170.00,7.00,0.00,30.10,M,10.00,13.00,FEW,FEW,SCT,M,6500.00,8000.00,9500.00,M,M,M,M,M,M,M,M,71.60,KWYS 122255Z AUTO 17007G13KT 140V220 10SM FEW065 FEW080 SCT095 22/05 A3010 RMK AO2,M
WYS,2024-08-12 23:55,71.60,44.60,37.89,140.00,5.00,0.00,30.09,M,10.00,14.00,FEW,BKN,M,M,7000.00,12000.00,M,M,M,M,M,M,M,M,M,71.60,KWYS 122355Z AUTO 14005G14KT 10SM FEW070 BKN120 22/07 A3009 RMK AO2,M
WYS,2024-08-13 00:55,55.40,48.20,76.66,60.00,12.00,0.00,30.14,M,10.00,21.00,FEW,FEW,SCT,M,6000.00,7500.00,8500.00,M,M,M,M,M,M,M,M,55.40,KWYS 130055Z AUTO 06012G21KT 10SM FEW060 FEW075 SCT085 13/09 A3014 RMK AO2,M
WYS,2024-08-13 01:55,57.20,48.20,71.83,0.00,0.00,0.00,30.14,M,10.00,M,CLR,M,M,M,M,M,M,M,M,M,M,M,M,M,M,57.20,KWYS 130155Z AUTO 00000KT 10SM CLR 14/09 A3014 RMK AO2,M
WYS,2024-08-13 02:50,55.40,48.20,76.66,M,3.00,0.00,30.13,M,10.00,M,CLR,M,M,M,M,M,M,M,M,M,M,M,M,M,M,55.40,KWYS 130250Z AUTO VRB03KT 10SM CLR 13/09 A3013 RMK AO2,M
WYS,2024-08-13 03:55,53.60,48.20,81.87,90.00,5.00,0.00,30.15,M,10.00,M,CLR,M,M,M,M,M,M,M,M,M,M,M,M,M,M,53.60,KWYS 130355Z AUTO 09005KT 10SM CLR 12/09 A3015 RMK AO2,M
WYS,2024-08-13 04:55,48.20,48.20,100.00,0.00,0.00,0.00,30.15,M,10.00,M,CLR,M,M,M,M,M,M,M,M,M,M,M,M,M,M,48.20,KWYS 130455Z AUTO 00000KT 10SM CLR 09/09 A3015 RMK AO2,M
WYS,2024-08-13 05:55,46.40,46.40,100.00,0.00,0.00,0.00,30.16,M,10.00,M,FEW,M,M,M,5000.00,M,M,M,M,M,M,M,M,M,M,46.40,KWYS 130555Z AUTO 00000KT 10SM FEW050 08/08 A3016 RMK AO2,M
WYS,2024-08-13 06:55,46.40,46.40,100.00,0.00,0.00,0.00,30.16,M,10.00,M,OVC,M,M,M,5000.00,M,M,M,M,M,M,M,M,M,M,46.40,KWYS 130655Z AUTO 00000KT 10SM OVC050 08/08 A3016 RMK AO2,M
WYS,2024-08-13 07:55,44.60,44.60,100.00,0.00,0.00,0.00,30.15,M,10.00,M,CLR,M,M,M,M,M,M,M,M,M,M,M,M,M,M,44.60,KWYS 130755Z AUTO 00000KT 10SM CLR 07/07 A3015 RMK AO2,M
WYS,2024-08-13 08:55,41.00,41.00,100.00,0.00,0.00,0.00,30.15,M,10.00,M,CLR,M,M,M,M,M,M,M,M,M,M,M,M,M,M,41.00,KWYS 130855Z AUTO 00000KT 10SM CLR 05/05 A3015 RMK AO2,M
WYS,2024-08-13 09:55,39.20,39.20,100.00,0.00,0.00,0.00,30.15,M,10.00,M,CLR,M,M,M,M,M,M,M,M,M,M,M,M,M,M,39.20,KWYS 130955Z AUTO 00000KT 10SM CLR 04/04 A3015 RMK AO2,M
WYS,2024-08-13 10:55,37.40,37.40,100.00,0.00,0.00,0.00,30.15,M,10.00,M,SCT,M,M,M,300.00,M,M,M,M,M,M,M,M,M,M,37.40,KWYS 131055Z AUTO 00000KT 10SM SCT003 03/03 A3015 RMK AO2,M
WYS,2024-08-13 11:55,39.20,39.20,100.00,0.00,0.00,0.00,30.15,M,10.00,M,OVC,M,M,M,200.00,M,M,M,M,M,M,M,M,M,M,39.20,KWYS 131155Z AUTO 00000KT 10SM OVC002 04/04 A3015 RMK AO2,M
WYS,2024-08-13 12:55,39.20,39.20,100.00,0.00,0.00,0.00,30.15,M,10.00,M,OVC,M,M,M,200.00,M,M,M,M,M,M,M,M,M,M,39.20,KWYS 131255Z AUTO 00000KT 10SM OVC002 04/04 A3015 RMK AO2,M
WYS,2024-08-13 13:55,44.60,44.60,100.00,0.00,0.00,0.00,30.17,M,10.00,M,FEW,M,M,M,200.00,M,M,M,M,M,M,M,M,M,M,44.60,KWYS 131355Z AUTO 00000KT 10SM FEW002 07/07 A3017 RMK AO2,M
WYS,2024-08-13 14:55,46.40,46.40,100.00,0.00,0.00,0.00,30.19,M,10.00,M,FEW,M,M,M,9000.00,M,M,M,M,M,M,M,M,M,M,46.40,KWYS 131455Z AUTO 00000KT 10SM FEW090 08/08 A3019 RMK AO2,M
WYS,2024-08-13 15:55,51.80,51.80,100.00,230.00,11.00,0.00,30.19,M,6.00,16.00,BKN,OVC,M,M,6000.00,7000.00,M,M,-RA,M,M,M,M,M,M,51.80,KWYS 131555Z AUTO 23011G16KT 6SM -RA BKN060 OVC070 11/11 A3019 RMK AO2,M
WYS,2024-08-13 16:55,51.80,51.80,100.00,130.00,8.00,0.13,30.22,M,2.00,M,OVC,M,M,M,3700.00,M,M,M,-RA,M,M,M,M,M,M,51.80,KWYS 131655Z AUTO 13008KT 2SM -RA OVC037 11/11 A3022 RMK AO2 P0013,M
WYS,2024-08-13 17:55,50.00,50.00,100.00,350.00,5.00,0.03,30.20,M,5.00,M,SCT,SCT,BKN,M,300.00,2800.00,5000.00,M,-RA,M,M,M,M,M,M,50.00,KWYS 131755Z AUTO 35005KT 5SM -RA SCT003 SCT028 BKN050 10/10 A3020 RMK AO2 P0003,M
WYS,2024-08-13 18:55,51.80,51.80,100.00,210.00,7.00,0.02,30.20,M,9.00,M,BKN,OVC,M,M,400.00,5500.00,M,M,-RA,M,M,M,M,M,M,51.80,KWYS 131855Z AUTO 21007KT 9SM -RA BKN004 OVC055 11/11 A3020 RMK AO2 P0002,M
WYS,2024-08-13 19:55,55.40,55.40,100.00,40.00,5.00,0.00,30.18,M,10.00,M,FEW,SCT,M,M,800.00,5500.00,M,M,M,M,M,M,M,M,M,55.40,KWYS 131955Z AUTO 04005KT 10SM FEW008 SCT055 13/13 A3018 RMK AO2,M
WYS,2024-08-13 20:55,59.00,53.60,82.25,0.00,0.00,0.00,30.16,M,10.00,M,FEW,M,M,M,1700.00,M,M,M,M,M,M,M,M,M,M,59.00,KWYS 132055Z AUTO 00000KT 10SM FEW017 15/12 A3016 RMK AO2,M
WYS,2024-08-13 21:55,60.80,53.60,77.14,0.00,0.00,0.00,30.14,M,10.00,M,FEW,FEW,SCT,M,2400.00,7500.00,12000.00,M,M,M,M,M,M,M,M,60.80,KWYS 132155Z AUTO 00000KT 10SM FEW024 FEW075 SCT120 16/12 A3014 RMK AO2,M
WYS,2024-08-13 22:55,51.80,51.80,100.00,250.00,12.00,0.02,30.17,M,4.00,30.00,FEW,BKN,OVC,M,3300.00,4700.00,11000.00,M,-RA,M,M,M,M,M,M,51.80,KWYS 132255Z AUTO 25012G30KT 4SM -RA FEW033 BKN047 OVC110 11/11 A3017 RMK AO2 P0002,M
WYS,2024-08-13 23:55,51.80,51.80,100.00,120.00,4.00,0.09,30.17,M,10.00,M,FEW,FEW,SCT,M,5500.00,6500.00,8000.00,M,M,M,M,M,M,M,M,51.80,KWYS 132355Z AUTO 12004KT 10SM FEW055 FEW065 SCT080 11/11 A3017 RMK AO2 P0009,M
WYS,2024-08-14 00:55,53.60,53.60,100.00,150.00,4.00,0.00,30.14,M,10.00,M,CLR,M,M,M,M,M,M,M,M,M,M,M,M,M,M,53.60,KWYS 140055Z AUTO 15004KT 10SM CLR 12/12 A3014 RMK AO2,M
WYS,2024-08-14 01:55,53.60,53.60,100.00,0.00,0.00,0.00,30.15,M,10.00,M,CLR,M,M,M,M,M,M,M,M,M,M,M,M,M,M,53.60,KWYS 140155Z AUTO 00000KT 10SM CLR 12/12 A3015 RMK AO2,M
WYS,2024-08-14 02:55,50.00,50.00,100.00,0.00,0.00,0.00,30.17,M,10.00,M,CLR,M,M,M,M,M,M,M,M,M,M,M,M,M,M,50.00,KWYS 140255Z AUTO 00000KT 10SM CLR 10/10 A3017 RMK AO2,M
WYS,2024-08-14 03:55,46.40,46.40,100.00,0.00,0.00,0.00,30.17,M,10.00,M,SCT,M,M,M,12000.00,M,M,M,M,M,M,M,M,M,M,46.40,KWYS 140355Z AUTO 00000KT 10SM SCT120 08/08 A3017 RMK AO2,M
WYS,2024-08-14 04:55,44.60,44.60,100.00,0.00,0.00,0.00,30.18,M,1.75,M,SCT,BKN,M,M,200.00,11000.00,M,M,BR,M,M,M,M,M,M,44.60,KWYS 140455Z AUTO 00000KT 1 3/4SM BR SCT002 BKN110 07/07 A3018 RMK AO2,M
WYS,2024-08-14 05:55,44.60,44.60,100.00,0.00,0.00,0.00,30.20,M,10.00,M,OVC,M,M,M,11000.00,M,M,M,M,M,M,M,M,M,M,44.60,KWYS 140555Z AUTO 00000KT 10SM OVC110 07/07 A3020 RMK AO2,M
WYS,2024-08-14 06:55,44.60,44.60,100.00,0.00,0.00,0.00,30.20,M,10.00,M,OVC,M,M,M,11000.00,M,M,M,M,M,M,M,M,M,M,44.60,KWYS 140655Z AUTO 00000KT 10SM OVC110 07/07 A3020 RMK AO2,M
WYS,2024-08-14 07:55,46.40,46.40,100.00,0.00,0.00,0.00,30.20,M,10.00,M,SCT,BKN,OVC,M,3900.00,5500.00,7500.00,M,M,M,M,M,M,M,M,46.40,KWYS 140755Z AUTO 00000KT 10SM SCT039 BKN055 OVC075 08/08 A3020 RMK AO2,M
WYS,2024-08-14 08:55,44.60,44.60,100.00,0.00,0.00,0.00,30.18,M,10.00,M,FEW,FEW,OVC,M,4400.00,7500.00,11000.00,M,M,M,M,M,M,M,M,44.60,KWYS 140855Z AUTO 00000KT 10SM FEW044 FEW075 OVC110 07/07 A3018 RMK AO2,M
WYS,2024-08-14 09:55,44.60,44.60,100.00,210.00,4.00,0.00,30.19,M,10.00,M,BKN,BKN,M,M,1000.00,12000.00,M,M,M,M,M,M,M,M,M,42.13,KWYS 140955Z AUTO 21004KT 10SM BKN010 BKN120 07/07 A3019 RMK AO2,M
WYS,2024-08-14 10:55,44.60,44.60,100.00,0.00,0.00,0.00,30.20,M,10.00,M,BKN,OVC,M,M,800.00,11000.00,M,M,M,M,M,M,M,M,M,44.60,KWYS 141055Z AUTO 00000KT 10SM BKN008 OVC110 07/07 A3020 RMK AO2,M
WYS,2024-08-14 11:55,44.60,44.60,100.00,M,3.00,0.00,30.19,M,10.00,M,SCT,SCT,OVC,M,200.00,7000.00,9500.00,M,M,M,M,M,M,M,M,43.09,KWYS 141155Z AUTO VRB03KT 10SM SCT002 SCT070 OVC095 07/07 A3019 RMK AO2,M
WYS,2024-08-14 12:55,44.60,44.60,100.00,270.00,4.00,0.00,30.21,M,10.00,M,OVC,M,M,M,600.00,M,M,M,M,M,M,M,M,M,M,42.13,KWYS 141255Z AUTO 27004KT 10SM OVC006 07/07 A3021 RMK AO2,M
WYS,2024-08-14 13:55,46.40,46.40,100.00,240.00,4.00,0.00,30.23,M,10.00,M,SCT,BKN,M,M,300.00,1500.00,M,M,M,M,M,M,M,M,M,44.24,KWYS 141355Z AUTO 24004KT 10SM SCT003 BKN015 08/08 A3023 RMK AO2,M
WYS,2024-08-14 14:55,48.20,48.20,100.00,0.00,0.00,0.00,30.24,M,10.00,M,FEW,M,M,M,400.00,M,M,M,M,M,M,M,M,M,M,48.20,KWYS 141455Z AUTO 00000KT 10SM FEW004 09/09 A3024 RMK AO2,M
WYS,2024-08-14 15:55,53.60,53.60,100.00,0.00,0.00,0.00,30.24,M,9.00,M,BKN,M,M,M,900.00,M,M,M,M,M,M,M,M,M,M,53.60,KWYS 141555Z AUTO 00000KT 9SM BKN009 12/12 A3024 RMK AO2,M
WYS,2024-08-14 16:55,59.00,51.80,76.98,0.00,0.00,0.00,30.24,M,10.00,M,FEW,M,M,M,10000.00,M,M,M,M,M,M,M,M,M,M,59.00,KWYS 141655Z AUTO 00000KT 10SM FEW100 15/11 A3024 RMK AO2,M
WYS,2024-08-14 17:55,64.40,48.20,55.63,200.00,8.00,0.00,30.22,M,10.00,M,FEW,FEW,M,M,4300.00,5500.00,M,M,M,M,M,M,M,M,M,64.40,KWYS 141755Z AUTO 20008KT 150V230 10SM FEW043 FEW055 18/09 A3022 RMK AO2,M
WYS,2024-08-14 18:55,68.00,44.60,42.85,210.00,12.00,0.00,30.19,M,10.00,M,SCT,SCT,M,M,5000.00,5500.00,M,M,M,M,M,M,M,M,M,68.00,KWYS 141855Z AUTO 21012KT 10SM SCT050 SCT055 20/07 A3019 RMK AO2,M
WYS,2024-08-14 19:55,66.20,42.80,42.57,220.00,10.00,0.00,30.19,M,10.00,17.00,FEW,FEW,FEW,M,6000.00,6500.00,7500.00,M,M,M,M,M,M,M,M,66.20,KWYS 141955Z AUTO 22010G17KT 10SM FEW060 FEW065 FEW075 19/06 A3019 RMK AO2,M
WYS,2024-08-14 20:55,41.00,42.80,M,0.00,0.00,0.36,30.24,M,2.00,10.00,FEW,FEW,BKN,M,200.00,3500.00,7000.00,M,+RA,M,M,M,M,M,M,M,KWYS 142055Z AUTO 00000G10KT 2SM +RA FEW002 FEW035 BKN070 05/06 A3024 RMK AO2 P0036 VIS 1 1/2V2 1/2,M
WYS,2024-08-14 21:55,46.40,46.40,100.00,170.00,7.00,0.14,30.25,M,10.00,M,BKN,OVC,M,M,9000.00,11000.00,M,M,M,M,M,M,M,M,M,42.33,KWYS 142155Z AUTO 17007KT 10SM BKN090 OVC110 08/08 A3025 RMK AO2 P0014,M
WYS,2024-08-14 22:55,48.20,48.20,100.00,260.00,7.00,0.09,30.30,M,6.00,13.00,FEW,FEW,BKN,M,3000.00,3800.00,4800.00,M,-RA,M,M,M,M,M,M,44.53,KWYS 142255Z AUTO 26007G13KT 230V290 6SM -RA FEW030 FEW038 BKN048 09/09 A3030 RMK AO2 P0009,M
WYS,2024-08-14 23:55,50.00,50.00,100.00,160.00,5.00,0.07,30.30,M,10.00,M,CLR,M,M,M,M,M,M,M,M,M,M,M,M,M,M,50.00,KWYS 142355Z AUTO 16005KT 10SM CLR 10/10 A3030 RMK AO2 P0007,M
WYS,2024-08-15 00:55,51.80,51.80,100.00,140.00,4.00,0.00,30.29,M,10.00,M,BKN,M,M,M,11000.00,M,M,M,M,M,M,M,M,M,M,51.80,KWYS 150055Z AUTO 14004KT 10SM BKN110 11/11 A3029 RMK AO2,M
WYS,2024-08-15 01:55,50.00,50.00,100.00,340.00,3.00,0.00,30.29,M,10.00,M,FEW,M,M,M,11000.00,M,M,M,M,M,M,M,M,M,M,50.00,KWYS 150155Z AUTO 34003KT 10SM FEW110 10/10 A3029 RMK AO2,M
WYS,2024-08-15 02:55,46.40,46.40,100.00,0.00,0.00,0.00,30.29,M,6.00,M,CLR,M,M,M,M,M,M,M,BR,M,M,M,M,M,M,46.40,KWYS 150255Z AUTO 00000KT 6SM BR CLR 08/08 A3029 RMK AO2,M
WYS,2024-08-15 03:55,42.80,42.80,100.00,0.00,0.00,0.00,30.32,M,0.25,M,VV ,M,M,M,200.00,M,M,M,FG,M,M,M,M,M,M,42.80,KWYS 150355Z AUTO 00000KT 1/4SM FG VV002 06/06 A3032 RMK AO2,M
WYS,2024-08-15 04:55,39.20,39.20,100.00,0.00,0.00,0.00,30.31,M,0.25,M,OVC,M,M,M,200.00,M,M,M,FG,M,M,M,M,M,M,39.20,KWYS 150455Z AUTO 00000KT 1/4SM FG OVC002 04/04 A3031 RMK AO2,M
WYS,2024-08-15 05:55,41.00,41.00,100.00,0.00,0.00,0.00,30.31,M,0.25,M,OVC,M,M,M,200.00,M,M,M,FG,M,M,M,M,M,M,41.00,KWYS 150555Z AUTO 00000KT M1/4SM FG OVC002 05/05 A3031 RMK AO2,M
WYS,2024-08-15 06:55,39.20,39.20,100.00,0.00,0.00,0.00,30.31,M,0.25,M,OVC,M,M,M,200.00,M,M,M,FG,M,M,M,M,M,M,39.20,KWYS 150655Z AUTO 00000KT 1/4SM FG OVC002 04/04 A3031 RMK AO2,M
WYS,2024-08-15 07:55,39.20,39.20,100.00,0.00,0.00,0.00,30.30,M,0.25,M,OVC,M,M,M,200.00,M,M,M,FG,M,M,M,M,M,M,39.20,KWYS 150755Z AUTO 00000KT 1/4SM FG OVC002 04/04 A3030 RMK AO2,M
WYS,2024-08-15 08:55,39.20,39.20,100.00,0.00,0.00,0.00,30.30,M,0.25,M,OVC,M,M,M,200.00,M,M,M,FG,M,M,M,M,M,M,39.20,KWYS 150855Z AUTO 00000KT M1/4SM FG OVC002 04/04 A3030 RMK AO2,M
WYS,2024-08-15 09:55,39.20,39.20,100.00,60.00,4.00,0.00,30.30,M,0.50,M,OVC,M,M,M,300.00,M,M,M,FG,M,M,M,M,M,M,35.83,KWYS 150955Z AUTO 06004KT 1/2SM FG OVC003 04/04 A3030 RMK AO2,M
WYS,2024-08-15 10:55,39.20,39.20,100.00,30.00,3.00,0.00,30.30,M,0.25,M,OVC,M,M,M,300.00,M,M,M,FG,M,M,M,M,M,M,36.92,KWYS 151055Z AUTO 03003KT 1/4SM FG OVC003 04/04 A3030 RMK AO2,M
WYS,2024-08-15 11:55,39.20,41.00,M,0.00,0.00,0.00,30.31,M,0.25,M,OVC,M,M,M,200.00,M,M,M,FG,M,M,M,M,M,M,M,KWYS 151155Z AUTO 00000KT M1/4SM FG OVC002 04/05 A3031 RMK AO2,M
WYS,2024-08-15 12:55,39.20,39.20,100.00,60.00,4.00,0.00,30.32,M,0.25,M,OVC,M,M,M,200.00,M,M,M,FG,M,M,M,M,M,M,35.83,KWYS 151255Z AUTO 06004KT M1/4SM FG OVC002 04/04 A3032 RMK AO2,M
WYS,2024-08-15 13:55,41.00,41.00,100.00,0.00,0.00,0.00,30.32,M,0.50,M,OVC,M,M,M,300.00,M,M,M,FG,M,M,M,M,M,M,41.00,KWYS 151355Z AUTO 00000KT 1/2SM FG OVC003 05/05 A3032 RMK AO2,M
WYS,2024-08-15 14:55,41.00,41.00,100.00,0.00,0.00,0.00,30.32,M,0.50,M,OVC,M,M,M,300.00,M,M,M,FG,M,M,M,M,M,M,41.00,KWYS 151455Z AUTO 00000KT 1/2SM FG OVC003 05/05 A3032 RMK AO2,M
WYS,2024-08-15 15:55,42.80,42.80,100.00,0.00,0.00,0.00,30.31,M,3.00,M,OVC,M,M,M,300.00,M,M,M,BR,M,M,M,M,M,M,42.80,KWYS 151555Z AUTO 00000KT 3SM BR OVC003 06/06 A3031 RMK AO2,M
WYS,2024-08-15 16:55,46.40,46.40,100.00,0.00,0.00,0.00,30.30,M,10.00,M,BKN,M,M,M,600.00,M,M,M,M,M,M,M,M,M,M,46.40,KWYS 151655Z AUTO 00000KT 10SM BKN006 08/08 A3030 RMK AO2,M
WYS,2024-08-15 17:55,53.60,53.60,100.00,0.00,0.00,0.00,30.29,M,10.00,M,SCT,M,M,M,900.00,M,M,M,M,M,M,M,M,M,M,53.60,KWYS 151755Z AUTO 00000KT 10SM SCT009 12/12 A3029 RMK AO2,M
WYS,2024-08-15 18:55,60.80,51.80,72.20,M,4.00,0.00,30.26,M,10.00,M,CLR,M,M,M,M,M,M,M,M,M,M,M,M,M,M,60.80,KWYS 151855Z AUTO VRB04KT 10SM CLR 16/11 A3026 RMK AO2,M
WYS,2024-08-15 19:55,66.20,42.80,42.57,0.00,0.00,0.00,30.24,M,10.00,M,CLR,M,M,M,M,M,M,M,M,M,M,M,M,M,M,66.20,KWYS 151955Z AUTO 00000KT 10SM CLR 19/06 A3024 RMK AO2,M
WYS,2024-08-15 20:55,66.20,44.60,45.60,0.00,0.00,0.00,30.23,M,10.00,M,CLR,M,M,M,M,M,M,M,M,M,M,M,M,M,M,66.20,KWYS 152055Z AUTO 00000KT 10SM CLR 19/07 A3023 RMK AO2,M
WYS,2024-08-15 21:55,71.60,39.20,30.77,M,4.00,0.00,30.19,M,10.00,M,CLR,M,M,M,M,M,M,M,M,M,M,M,M,M,M,71.60,KWYS 152155Z AUTO VRB04KT 10SM CLR 22/04 A3019 RMK AO2,M
WYS,2024-08-15 22:55,71.60,35.60,26.71,110.00,6.00,0.00,30.18,M,10.00,M,CLR,M,M,M,M,M,M,M,M,M,M,M,M,M,M,71.60,KWYS 152255Z AUTO 11006KT 10SM CLR 22/02 A3018 RMK AO2,M
WYS,2024-08-15 23:55,73.40,33.80,23.39,40.00,5.00,0.00,30.14,M,10.00,M,CLR,M,M,M,M,M,M,M,M,M,M,M,M,M,M,73.40,KWYS 152355Z AUTO 04005KT 10SM CLR 23/01 A3014 RMK AO2,M
WYS,2024-08-16 00:55,68.00,39.20,34.80,180.00,9.00,0.00,30.15,M,10.00,18.00,FEW,M,M,M,8000.00,M,M,M,M,M,M,M,M,M,M,68.00,KWYS 160055Z AUTO 18009G18KT 10SM FEW080 20/04 A3015 RMK AO2,M
WYS,2024-08-16 01:55,62.60,39.20,42.00,230.00,9.00,0.00,30.24,M,10.00,M,SCT,OVC,M,M,8000.00,9000.00,M,M,M,M,M,M,M,M,M,62.60,KWYS 160155Z AUTO 23009KT 10SM SCT080 OVC090 17/04 A3024 RMK AO2,M
WYS,2024-08-16 02:55,55.40,46.40,71.64,M,4.00,0.00,30.26,M,10.00,M,FEW,SCT,BKN,M,4900.00,6000.00,7500.00,M,M,M,M,M,M,M,M,55.40,KWYS 160255Z AUTO VRB04KT 10SM FEW049 SCT060 BKN075 13/08 A3026 RMK AO2,M
WYS,2024-08-16 03:55,51.80,51.80,100.00,100.00,8.00,0.02,30.26,M,6.00,M,SCT,BKN,OVC,M,3700.00,5500.00,10000.00,M,BR,M,M,M,M,M,M,51.80,KWYS 160355Z AUTO 10008KT 6SM BR SCT037 BKN055 OVC100 11/11 A3026 RMK AO2 P0002,M
WYS,2024-08-16 04:55,48.20,50.00,M,320.00,4.00,0.00,30.24,M,10.00,M,CLR,M,M,M,M,M,M,M,M,M,M,M,M,M,M,M,KWYS 160455Z AUTO 32004KT 10SM CLR 09/10 A3024 RMK AO2,M
WYS,2024-08-16 05:55,46.40,46.40,100.00,0.00,0.00,0.00,30.25,M,10.00,M,CLR,M,M,M,M,M,M,M,M,M,M,M,M,M,M,46.40,KWYS 160555Z AUTO 00000KT 10SM CLR 08/08 A3025 RMK AO2,M
WYS,2024-08-16 06:55,46.40,46.40,100.00,0.00,0.00,0.00,30.24,M,10.00,M,CLR,M,M,M,M,M,M,M,M,M,M,M,M,M,M,46.40,KWYS 160655Z AUTO 00000KT 10SM CLR 08/08 A3024 RMK AO2,M
WYS,2024-08-16 07:55,42.80,42.80,100.00,0.00,0.00,0.00,30.23,M,10.00,M,CLR,M,M,M,M,M,M,M,M,M,M,M,M,M,M,42.80,KWYS 160755Z AUTO 00000KT 10SM CLR 06/06 A3023 RMK AO2,M
WYS,2024-08-16 08:55,41.00,41.00,100.00,0.00,0.00,0.00,30.21,M,10.00,M,BKN,M,M,M,200.00,M,M,M,M,M,M,M,M,M,M,41.00,KWYS 160855Z AUTO 00000KT 10SM BKN002 05/05 A3021 RMK AO2,M
WYS,2024-08-16 09:55,41.00,41.00,100.00,210.00,3.00,0.00,30.21,M,0.25,M,OVC,M,M,M,100.00,M,M,M,FG,M,M,M,M,M,M,38.98,KWYS 160955Z AUTO 21003KT 1/4SM FG OVC001 05/05 A3021 RMK AO2,M
WYS,2024-08-16 10:55,39.20,39.20,100.00,0.00,0.00,0.00,30.20,M,0.25,M,OVC,M,M,M,200.00,M,M,M,FG,M,M,M,M,M,M,39.20,KWYS 161055Z AUTO 00000KT 1/4SM FG OVC002 04/04 A3020 RMK AO2,M
WYS,2024-08-16 11:55,37.40,37.40,100.00,0.00,0.00,0.00,30.20,M,0.50,M,OVC,M,M,M,200.00,M,M,M,BR,M,M,M,M,M,M,37.40,KWYS 161155Z AUTO 00000KT 1/2SM BR OVC002 03/03 A3020 RMK AO2,M
WYS,2024-08-16 12:55,37.40,37.40,100.00,0.00,0.00,0.00,30.22,M,0.25,M,OVC,M,M,M,300.00,M,M,M,FG,M,M,M,M,M,M,37.40,KWYS 161255Z AUTO 00000KT M1/4SM FG OVC003 03/03 A3022 RMK AO2,M
WYS,2024-08-16 13:55,39.20,39.20,100.00,0.00,0.00,0.00,30.23,M,0.25,M,OVC,M,M,M,200.00,M,M,M,FG,M,M,M,M,M,M,39.20,KWYS 161355Z AUTO 00000KT M1/4SM FG OVC002 04/04 A3023 RMK AO2,M
WYS,2024-08-16 14:50,42.80,42.80,100.00,0.00,0.00,0.00,30.24,M,3.00,M,OVC,M,M,M,300.00,M,M,M,BR,M,M,M,M,M,M,42.80,KWYS 161450Z AUTO 00000KT 3SM BR OVC003 06/06 A3024 RMK AO2,M
WYS,2024-08-16 15:55,50.00,50.00,100.00,0.00,0.00,0.00,30.24,M,10.00,M,CLR,M,M,M,M,M,M,M,M,M,M,M,M,M,M,50.00,KWYS 161555Z AUTO 00000KT 10SM CLR 10/10 A3024 RMK AO2,M
WYS,2024-08-16 16:55,57.20,48.20,71.83,0.00,0.00,0.00,30.23,M,10.00,M,CLR,M,M,M,M,M,M,M,M,M,M,M,M,M,M,57.20,KWYS 161655Z AUTO 00000KT 10SM CLR 14/09 A3023 RMK AO2,M
WYS,2024-08-16 17:55,66.20,46.40,48.83,0.00,0.00,0.00,30.21,M,10.00,M,CLR,M,M,M,M,M,M,M,M,M,M,M,M,M,M,66.20,KWYS 161755Z AUTO 00000KT 10SM CLR 19/08 A3021 RMK AO2,M
WYS,2024-08-16 18:55,71.60,33.80,24.86,200.00,15.00,0.00,30.20,M,10.00,31.00,FEW,FEW,M,M,7000.00,8000.00,M,M,M,M,M,M,M,M,M,71.60,KWYS 161855Z AUTO 20015G31KT 10SM FEW070 FEW080 22/01 A3020 RMK AO2,M
WYS,2024-08-16 19:55,71.60,37.40,28.68,200.00,17.00,0.00,30.20,M,10.00,26.00,FEW,M,M,M,11000.00,M,M,M,M,M,M,M,M,M,M,71.60,KWYS 161955Z AUTO 20017G26KT 10SM FEW110 22/03 A3020 RMK AO2,M
WYS,2024-08-16 20:55,71.60,33.80,24.86,220.00,11.00,0.00,30.20,M,10.00,22.00,SCT,BKN,M,M,9000.00,10000.00,M,M,M,M,M,M,M,M,M,71.60,KWYS 162055Z AUTO 22011G22KT 10SM SCT090 BKN100 22/01 A3020 RMK AO2,M
WYS,2024-08-16 21:55,73.40,35.60,25.13,210.00,15.00,0.00,30.18,M,10.00,25.00,SCT,M,M,M,8000.00,M,M,M,M,M,M,M,M,M,M,73.40,KWYS 162155Z AUTO 21015G25KT 10SM SCT080 23/02 A3018 RMK AO2,M
WYS,2024-08-16 22:55,73.40,35.60,25.13,210.00,12.00,0.00,30.19,M,10.00,20.00,CLR,M,M,M,M,M,M,M,M,M,M,M,M,M,M,73.40,KWYS 162255Z AUTO 21012G20KT 10SM CLR 23/02 A3019 RMK AO2,M
WYS,2024-08-16 23:55,73.40,33.80,23.39,210.00,15.00,0.00,30.18,M,10.00,21.00,CLR,M,M,M,M,M,M,M,M,M,M,M,M,M,M,73.40,KWYS 162355Z AUTO 21015G21KT 10SM CLR 23/01 A3018 RMK AO2,M
WYS,2024-08-17 00:55,71.60,35.60,26.71,200.00,16.00,0.00,30.16,M,10.00,M,CLR,M,M,M,M,M,M,M,M,M,M,M,M,M,M,71.60,KWYS 170055Z AUTO 20016KT 10SM CLR 22/02 A3016 RMK AO2,M
WYS,2024-08-17 01:55,68.00,35.60,30.20,220.00,10.00,0.00,30.17,M,10.00,15.00,CLR,M,M,M,M,M,M,M,M,M,M,M,M,M,M,68.00,KWYS 170155Z AUTO 22010G15KT 10SM CLR 20/02 A3017 RMK AO2,M
WYS,2024-08-17 02:55,59.00,39.20,47.72,210.00,6.00,0.00,30.17,M,10.00,M,CLR,M,M,M,M,M,M,M,M,M,M,M,M,M,M,59.00,KWYS 170255Z AUTO 21006KT 10SM CLR 15/04 A3017 RMK AO2,M
WYS,2024-08-17 03:55,53.60,41.00,62.23,0.00,0.00,0.00,30.18,M,10.00,M,CLR,M,M,M,M,M,M,M,M,M,M,M,M,M,M,53.60,KWYS 170355Z AUTO 00000KT 10SM CLR 12/05 A3018 RMK AO2,M
WYS,2024-08-17 04:55,59.00,37.40,44.47,0.00,0.00,0.00,30.18,M,10.00,M,SCT,M,M,M,11000.00,M,M,M,M,M,M,M,M,M,M,59.00,KWYS 170455Z AUTO 00000KT 10SM SCT110 15/03 A3018 RMK AO2,M
WYS,2024-08-17 05:55,51.80,41.00,66.48,0.00,0.00,0.00,30.19,M,10.00,M,FEW,M,M,M,11000.00,M,M,M,M,M,M,M,M,M,M,51.80,KWYS 170555Z AUTO 00000KT 10SM FEW110 11/05 A3019 RMK AO2,M
WYS,2024-08-17 06:55,46.40,42.80,87.19,0.00,0.00,0.00,30.19,M,10.00,M,FEW,M,M,M,11000.00,M,M,M,M,M,M,M,M,M,M,46.40,KWYS 170655Z AUTO 00000KT 10SM FEW110 08/06 A3019 RMK AO2,M
WYS,2024-08-17 07:55,42.80,42.80,100.00,0.00,0.00,0.00,30.19,M,10.00,M,CLR,M,M,M,M,M,M,M,M,M,M,M,M,M,M,42.80,KWYS 170755Z AUTO 00000KT 10SM CLR 06/06 A3019 RMK AO2,M
WYS,2024-08-17 08:55,41.00,41.00,100.00,0.00,0.00,0.00,30.19,M,10.00,M,CLR,M,M,M,M,M,M,M,M,M,M,M,M,M,M,41.00,KWYS 170855Z AUTO 00000KT 10SM CLR 05/05 A3019 RMK AO2,M
WYS,2024-08-17 09:55,39.20,39.20,100.00,0.00,0.00,0.00,30.19,M,10.00,M,CLR,M,M,M,M,M,M,M,M,M,M,M,M,M,M,39.20,KWYS 170955Z AUTO 00000KT 10SM CLR 04/04 A3019 RMK AO2,M
WYS,2024-08-17 10:55,37.40,37.40,100.00,0.00,0.00,0.00,30.20,M,10.00,M,CLR,M,M,M,M,M,M,M,M,M,M,M,M,M,M,37.40,KWYS 171055Z AUTO 00000KT 10SM CLR 03/03 A3020 RMK AO2,M
WYS,2024-08-17 11:55,35.60,35.60,100.00,0.00,0.00,0.00,30.21,M,10.00,M,CLR,M,M,M,M,M,M,M,M,M,M,M,M,M,M,35.60,KWYS 171155Z AUTO 00000KT 10SM CLR 02/02 A3021 RMK AO2,M
WYS,2024-08-17 12:55,35.60,35.60,100.00,0.00,0.00,0.00,30.23,M,10.00,M,CLR,M,M,M,M,M,M,M,M,M,M,M,M,M,M,35.60,KWYS 171255Z AUTO 00000KT 10SM CLR 02/02 A3023 RMK AO2,M
WYS,2024-08-17 13:55,42.80,42.80,100.00,0.00,0.00,0.00,30.24,M,10.00,M,CLR,M,M,M,M,M,M,M,M,M,M,M,M,M,M,42.80,KWYS 171355Z AUTO 00000KT 10SM CLR 06/06 A3024 RMK AO2,M
WYS,2024-08-17 14:55,50.00,42.80,76.18,0.00,0.00,0.00,30.24,M,10.00,M,CLR,M,M,M,M,M,M,M,M,M,M,M,M,M,M,50.00,KWYS 171455Z AUTO 00000KT 10SM CLR 10/06 A3024 RMK AO2,M
WYS,2024-08-17 15:55,57.20,39.20,50.91,0.00,0.00,0.00,30.24,M,10.00,M,CLR,M,M,M,M,M,M,M,M,M,M,M,M,M,M,57.20,KWYS 171555Z AUTO 00000KT 10SM CLR 14/04 A3024 RMK AO2,M
WYS,2024-08-17 16:55,62.60,41.00,45.04,0.00,0.00,0.00,30.23,M,10.00,M,CLR,M,M,M,M,M,M,M,M,M,M,M,M,M,M,62.60,KWYS 171655Z AUTO 00000KT 10SM CLR 17/05 A3023 RMK AO2,M
WYS,2024-08-17 17:55,69.80,39.20,32.72,0.00,0.00,0.00,30.21,M,10.00,M,CLR,M,M,M,M,M,M,M,M,M,M,M,M,M,M,69.80,KWYS 171755Z AUTO 00000KT 10SM CLR 21/04 A3021 RMK AO2,M
WYS,2024-08-17 18:55,75.20,35.60,23.66,0.00,0.00,0.00,30.19,M,10.00,M,CLR,M,M,M,M,M,M,M,M,M,M,M,M,M,M,75.20,KWYS 171855Z AUTO 00000KT 10SM CLR 24/02 A3019 RMK AO2,M
WYS,2024-08-17 19:55,78.80,32.00,18.18,0.00,0.00,0.00,30.17,M,10.00,M,CLR,M,M,M,M,M,M,M,M,M,M,M,M,M,M,78.80,KWYS 171955Z AUTO 00000KT 10SM CLR 26/M00 A3017 RMK AO2,M
WYS,2024-08-17 20:55,80.60,30.20,15.94,M,5.00,0.00,30.16,M,10.00,13.00,CLR,M,M,M,M,M,M,M,M,M,M,M,M,M,M,78.77,KWYS 172055Z AUTO VRB05G13KT 10SM CLR 27/M01 A3016 RMK AO2,M
WYS,2024-08-17 21:55,82.40,30.20,15.03,M,4.00,0.00,30.15,M,10.00,M,CLR,M,M,M,M,M,M,M,M,M,M,M,M,M,M,79.97,KWYS 172155Z AUTO VRB04KT 10SM CLR 28/M01 A3015 RMK AO2,M
WYS,2024-08-17 22:55,80.60,32.00,17.14,200.00,12.00,0.00,30.15,M,10.00,17.00,CLR,M,M,M,M,M,M,M,M,M,M,M,M,M,M,78.82,KWYS 172255Z AUTO 20012G17KT 10SM CLR 27/M00 A3015 RMK AO2,M
WYS,2024-08-17 23:55,80.60,32.00,17.14,220.00,8.00,0.00,30.15,M,10.00,14.00,CLR,M,M,M,M,M,M,M,M,M,M,M,M,M,M,78.82,KWYS 172355Z AUTO 22008G14KT 10SM CLR 27/00 A3015 RMK AO2,M
WYS,2024-08-18 00:55,77.00,39.20,25.67,240.00,3.00,0.00,30.14,M,10.00,M,CLR,M,M,M,M,M,M,M,M,M,M,M,M,M,M,77.00,KWYS 180055Z AUTO 24003KT 10SM CLR 25/04 A3014 RMK AO2,M
WYS,2024-08-18 01:55,71.60,41.00,33.00,230.00,15.00,0.00,30.15,M,10.00,23.00,CLR,M,M,M,M,M,M,M,M,M,M,M,M,M,M,71.60,KWYS 180155Z AUTO 23015G23KT 10SM CLR 22/05 A3015 RMK AO2,M
WYS,2024-08-18 02:55,68.00,44.60,42.85,230.00,8.00,0.00,30.17,M,10.00,13.00,CLR,M,M,M,M,M,M,M,M,M,M,M,M,M,M,68.00,KWYS 180255Z AUTO 23008G13KT 10SM CLR 20/07 A3017 RMK AO2,M
WYS,2024-08-18 03:55,64.40,44.60,48.55,220.00,7.00,0.00,30.19,M,10.00,M,CLR,M,M,M,M,M,M,M,M,M,M,M,M,M,M,64.40,KWYS 180355Z AUTO 22007KT 10SM CLR 18/07 A3019 RMK AO2,M
WYS,2024-08-18 04:55,60.80,46.40,59.01,220.00,4.00,0.00,30.20,M,10.00,M,CLR,M,M,M,M,M,M,M,M,M,M,M,M,M,M,60.80,KWYS 180455Z AUTO 22004KT 10SM CLR 16/08 A3020 RMK AO2,M
WYS,2024-08-18 05:55,57.20,48.20,71.83,200.00,5.00,0.00,30.20,M,10.00,M,OVC,M,M,M,9000.00,M,M,M,M,M,M,M,M,M,M,57.20,KWYS 180555Z AUTO 20005KT 10SM OVC090 14/09 A3020 RMK AO2,M
WYS,2024-08-18 06:55,57.20,48.20,71.83,180.00,8.00,0.00,30.21,M,10.00,M,FEW,FEW,M,M,7000.00,9000.00,M,M,M,M,M,M,M,M,M,57.20,KWYS 180655Z AUTO 18008KT 10SM FEW070 FEW090 14/09 A3021 RMK AO2,M
WYS,2024-08-18 07:55,53.60,50.00,87.56,190.00,3.00,0.00,30.22,M,10.00,M,OVC,M,M,M,7500.00,M,M,M,M,M,M,M,M,M,M,53.60,KWYS 180755Z AUTO 19003KT 10SM OVC075 12/10 A3022 RMK AO2,M
WYS,2024-08-18 08:55,53.60,50.00,87.56,190.00,4.00,0.00,30.22,M,10.00,M,BKN,M,M,M,6000.00,M,M,M,M,M,M,M,M,M,M,53.60,KWYS 180855Z AUTO 19004KT 10SM BKN060 12/10 A3022 RMK AO2,M
WYS,2024-08-18 09:55,51.80,50.00,93.55,0.00,0.00,0.00,30.23,M,10.00,M,FEW,M,M,M,6500.00,M,M,M,M,M,M,M,M,M,M,51.80,KWYS 180955Z AUTO 00000KT 10SM FEW065 11/10 A3023 RMK AO2,M
WYS,2024-08-18 10:55,50.00,50.00,100.00,0.00,0.00,0.00,30.24,M,10.00,M,CLR,M,M,M,M,M,M,M,M,M,M,M,M,M,M,50.00,KWYS 181055Z AUTO 00000KT 10SM CLR 10/10 A3024 RMK AO2,M
WYS,2024-08-18 11:55,46.40,46.40,100.00,0.00,0.00,0.00,30.25,M,10.00,M,CLR,M,M,M,M,M,M,M,M,M,M,M,M,M,M,46.40,KWYS 181155Z AUTO 00000KT 10SM CLR 08/08 A3025 RMK AO2,M
WYS,2024-08-18 12:55,44.60,44.60,100.00,0.00,0.00,0.00,30.27,M,10.00,M,CLR,M,M,M,M,M,M,M,M,M,M,M,M,M,M,44.60,KWYS 181255Z AUTO 00000KT 10SM CLR 07/07 A3027 RMK AO2,M
WYS,2024-08-18 13:55,50.00,50.00,100.00,0.00,0.00,0.00,30.29,M,10.00,M,CLR,M,M,M,M,M,M,M,M,M,M,M,M,M,M,50.00,KWYS 181355Z AUTO 00000KT 10SM CLR 10/10 A3029 RMK AO2,M
WYS,2024-08-18 14:55,57.20,50.00,76.82,0.00,0.00,0.00,30.30,M,10.00,M,CLR,M,M,M,M,M,M,M,M,M,M,M,M,M,M,57.20,KWYS 181455Z AUTO 00000KT 10SM CLR 14/10 A3030 RMK AO2,M
WYS,2024-08-18 15:55,64.40,50.00,59.50,70.00,5.00,0.00,30.30,M,10.00,M,CLR,M,M,M,M,M,M,M,M,M,M,M,M,M,M,64.40,KWYS 181555Z AUTO 07005KT 10SM CLR 18/10 A3030 RMK AO2,M
WYS,2024-08-18 16:55,69.80,48.20,46.16,0.00,0.00,0.00,30.30,M,10.00,M,CLR,M,M,M,M,M,M,M,M,M,M,M,M,M,M,69.80,KWYS 181655Z AUTO 00000KT 10SM CLR 21/09 A3030 RMK AO2,M
WYS,2024-08-18 17:55,73.40,46.40,38.18,210.00,13.00,0.00,30.29,M,10.00,M,CLR,M,M,M,M,M,M,M,M,M,M,M,M,M,M,73.40,KWYS 181755Z AUTO 21013KT 10SM CLR 23/08 A3029 RMK AO2,M
WYS,2024-08-18 18:55,75.20,48.20,38.46,M,6.00,0.00,30.29,M,10.00,17.00,FEW,M,M,M,5500.00,M,M,M,M,M,M,M,M,M,M,75.20,KWYS 181855Z AUTO VRB06G17KT 210V290 10SM FEW055 24/09 A3029 RMK AO2,M
WYS,2024-08-18 19:55,77.00,48.20,36.22,190.00,6.00,0.00,30.28,M,10.00,15.00,CLR,M,M,M,M,M,M,M,M,M,M,M,M,M,M,77.00,KWYS 181955Z AUTO 19006G15KT 10SM CLR 25/09 A3028 RMK AO2,M
WYS,2024-08-18 20:55,78.80,46.40,31.90,200.00,15.00,0.00,30.26,M,10.00,21.00,CLR,M,M,M,M,M,M,M,M,M,M,M,M,M,M,78.80,KWYS 182055Z AUTO 20015G21KT 10SM CLR 26/08 A3026 RMK AO2,M
WYS,2024-08-18 21:55,80.60,44.60,28.08,230.00,14.00,0.00,30.25,M,10.00,22.00,FEW,M,M,M,7500.00,M,M,M,M,M,M,M,M,M,M,79.42,KWYS 182155Z AUTO 23014G22KT 170V270 10SM FEW075 27/07 A3025 RMK AO2,M
WYS,2024-08-18 22:55,80.60,35.60,19.79,220.00,11.00,0.00,30.24,M,10.00,18.00,CLR,M,M,M,M,M,M,M,M,M,M,M,M,M,M,78.94,KWYS 182255Z AUTO 22011G18KT 190V250 10SM CLR 27/02 A3024 RMK AO2,M
WYS,2024-08-18 23:55,80.60,33.80,18.42,230.00,12.00,0.00,30.22,M,10.00,18.00,CLR,M,M,M,M,M,M,M,M,M,M,M,M,M,M,78.88,KWYS 182355Z AUTO 23012G18KT 10SM CLR 27/01 A3022 RMK AO2,M
WYS,2024-08-19 00:55,77.00,35.60,22.28,230.00,6.00,0.00,30.21,M,10.00,13.00,CLR,M,M,M,M,M,M,M,M,M,M,M,M,M,M,77.00,KWYS 190055Z AUTO 23006G13KT 10SM CLR 25/02 A3021 RMK AO2,M
WYS,2024-08-19 01:55,71.60,44.60,37.89,220.00,3.00,0.00,30.23,M,10.00,M,CLR,M,M,M,M,M,M,M,M,M,M,M,M,M,M,71.60,KWYS 190155Z AUTO 22003KT 10SM CLR 22/07 A3023 RMK AO2,M
WYS,2024-08-19 02:55,68.00,44.60,42.85,0.00,0.00,0.00,30.24,M,10.00,M,FEW,FEW,M,M,10000.00,12000.00,M,M,M,M,M,M,M,M,M,68.00,KWYS 190255Z AUTO 00000KT 10SM FEW100 FEW120 20/07 A3024 RMK AO2,M
WYS,2024-08-19 03:55,69.80,37.40,30.49,210.00,13.00,0.00,30.23,M,10.00,25.00,FEW,BKN,M,M,9000.00,12000.00,M,M,M,M,M,M,M,M,M,69.80,KWYS 190355Z AUTO 21013G25KT 10SM FEW090 BKN120 21/03 A3023 RMK AO2,M
WYS,2024-08-19 04:55,66.20,41.00,39.72,220.00,17.00,0.00,30.27,M,10.00,23.00,SCT,SCT,BKN,M,4200.00,6000.00,9000.00,M,M,M,M,M,M,M,M,66.20,KWYS 190455Z AUTO 22017G23KT 10SM SCT042 SCT060 BKN090 19/05 A3027 RMK AO2,M
WYS,2024-08-19 05:55,64.40,44.60,48.55,210.00,22.00,0.00,30.32,M,10.00,M,BKN,M,M,M,11000.00,M,M,M,M,M,M,M,M,M,M,64.40,KWYS 190555Z AUTO 21022KT 10SM BKN110 18/07 A3032 RMK AO2,M
WYS,2024-08-19 06:55,55.40,53.60,93.65,200.00,14.00,0.01,30.35,M,5.00,24.00,FEW,SCT,BKN,M,3500.00,5000.00,6500.00,M,BR,M,M,M,M,M,M,55.40,KWYS 190655Z AUTO 20014G24KT 5SM BR FEW035 SCT050 BKN065 13/12 A3035 RMK AO2 P0001,M
WYS,2024-08-19 07:55,53.60,53.60,100.00,0.00,0.00,0.01,30.31,M,10.00,10.00,FEW,SCT,BKN,M,5000.00,6000.00,7500.00,M,M,M,M,M,M,M,M,53.60,KWYS 190755Z AUTO 00000G10KT 10SM FEW050 SCT060 BKN075 12/12 A3031 RMK AO2 P0001,M
WYS,2024-08-19 08:55,53.60,53.60,100.00,210.00,4.00,0.00,30.31,M,10.00,M,FEW,OVC,M,M,8000.00,9500.00,M,M,M,M,M,M,M,M,M,53.60,KWYS 190855Z AUTO 21004KT 10SM FEW080 OVC095 12/12 A3031 RMK AO2,M
WYS,2024-08-19 09:55,51.80,51.80,100.00,0.00,0.00,0.00,30.32,M,10.00,M,FEW,BKN,BKN,M,4700.00,6000.00,7500.00,M,M,M,M,M,M,M,M,51.80,KWYS 190955Z AUTO 00000KT 10SM FEW047 BKN060 BKN075 11/11 A3032 RMK AO2,M
WYS,2024-08-19 10:55,50.00,50.00,100.00,200.00,5.00,0.00,30.32,M,10.00,M,FEW,FEW,M,M,6500.00,7500.00,M,M,M,M,M,M,M,M,M,50.00,KWYS 191055Z AUTO 20005KT 10SM FEW065 FEW075 10/10 A3032 RMK AO2,M
WYS,2024-08-19 11:55,51.80,51.80,100.00,0.00,0.00,0.00,30.32,M,10.00,M,OVC,M,M,M,8000.00,M,M,M,M,M,M,M,M,M,M,51.80,KWYS 191155Z AUTO 00000KT 10SM OVC080 11/11 A3032 RMK AO2,M
WYS,2024-08-19 12:55,50.00,50.00,100.00,0.00,0.00,0.00,30.32,M,10.00,M,CLR,M,M,M,M,M,M,M,M,M,M,M,M,M,M,50.00,KWYS 191255Z AUTO 00000KT 10SM CLR 10/10 A3032 RMK AO2,M
WYS,2024-08-19 13:55,53.60,53.60,100.00,0.00,0.00,0.00,30.34,M,10.00,M,SCT,M,M,M,8000.00,M,M,M,M,M,M,M,M,M,M,53.60,KWYS 191355Z AUTO 00000KT 10SM SCT080 12/12 A3034 RMK AO2,M
WYS,2024-08-19 14:55,57.20,55.40,93.69,0.00,0.00,0.00,30.35,M,10.00,M,CLR,M,M,M,M,M,M,M,M,M,M,M,M,M,M,57.20,KWYS 191455Z AUTO 00000KT 10SM CLR 14/13 A3035 RMK AO2,M
WYS,2024-08-19 15:55,60.80,50.00,67.54,0.00,0.00,0.00,30.34,M,10.00,M,CLR,M,M,M,M,M,M,M,M,M,M,M,M,M,M,60.80,KWYS 191555Z AUTO 00000KT 10SM CLR 16/10 A3034 RMK AO2,M
WYS,2024-08-19 16:55,66.20,50.00,55.88,0.00,0.00,0.00,30.34,M,10.00,M,CLR,M,M,M,M,M,M,M,M,M,M,M,M,M,M,66.20,KWYS 191655Z AUTO 00000KT 10SM CLR 19/10 A3034 RMK AO2,M
WYS,2024-08-19 17:55,71.60,46.40,40.57,230.00,8.00,0.00,30.32,M,10.00,13.00,CLR,M,M,M,M,M,M,M,M,M,M,M,M,M,M,71.60,KWYS 191755Z AUTO 23008G13KT 10SM CLR 22/08 A3032 RMK AO2,M
WYS,2024-08-19 18:55,75.20,46.40,35.94,220.00,18.00,0.00,30.31,M,10.00,24.00,CLR,M,M,M,M,M,M,M,M,M,M,M,M,M,M,75.20,KWYS 191855Z AUTO 22018G24KT 10SM CLR 24/08 A3031 RMK AO2,M
WYS,2024-08-19 19:55,73.40,48.20,40.85,200.00,11.00,0.00,30.30,M,10.00,20.00,CLR,M,M,M,M,M,M,M,M,M,M,M,M,M,M,73.40,KWYS 191955Z AUTO 20011G20KT 10SM CLR 23/09 A3030 RMK AO2,M
WYS,2024-08-19 20:55,77.00,48.20,36.22,210.00,15.00,0.00,30.28,M,10.00,21.00,CLR,M,M,M,M,M,M,M,M,M,M,M,M,M,M,77.00,KWYS 192055Z AUTO 21015G21KT 10SM CLR 25/09 A3028 RMK AO2,M
WYS,2024-08-19 21:55,77.00,44.60,31.62,210.00,18.00,0.00,30.25,M,10.00,24.00,CLR,M,M,M,M,M,M,M,M,M,M,M,M,M,M,77.00,KWYS 192155Z AUTO 21018G24KT 10SM CLR 25/07 A3025 RMK AO2,M
WYS,2024-08-19 22:55,78.80,42.80,27.81,220.00,15.00,0.00,30.23,M,10.00,27.00,CLR,M,M,M,M,M,M,M,M,M,M,M,M,M,M,78.80,KWYS 192255Z AUTO 22015G27KT 10SM CLR 26/06 A3023 RMK AO2,M
WYS,2024-08-19 23:55,78.80,39.20,24.19,240.00,14.00,0.00,30.24,M,10.00,23.00,CLR,M,M,M,M,M,M,M,M,M,M,M,M,M,M,78.80,KWYS 192355Z AUTO 24014G23KT 10SM CLR 26/04 A3024 RMK AO2,M
WYS,2024-08-20 00:55,75.20,39.20,27.26,230.00,11.00,0.00,30.23,M,10.00,21.00,CLR,M,M,M,M,M,M,M,M,M,M,M,M,M,M,75.20,KWYS 200055Z AUTO 23011G21KT 10SM CLR 24/04 A3023 RMK AO2,M
WYS,2024-08-20 01:55,71.60,44.60,37.89,210.00,6.00,0.00,30.24,M,10.00,M,FEW,M,M,M,9000.00,M,M,M,M,M,M,M,M,M,M,71.60,KWYS 200155Z AUTO 21006KT 10SM FEW090 22/07 A3024 RMK AO2,M
WYS,2024-08-20 02:55,64.40,46.40,51.98,190.00,3.00,0.00,30.25,M,10.00,M,FEW,FEW,M,M,7500.00,8500.00,M,M,M,M,M,M,M,M,M,64.40,KWYS 200255Z AUTO 19003KT 10SM FEW075 FEW085 18/08 A3025 RMK AO2,M
WYS,2024-08-20 03:55,60.80,46.40,59.01,0.00,0.00,0.00,30.25,M,10.00,M,CLR,M,M,M,M,M,M,M,M,M,M,M,M,M,M,60.80,KWYS 200355Z AUTO 00000KT 10SM CLR 16/08 A3025 RMK AO2,M
WYS,2024-08-20 04:55,57.20,46.40,67.12,0.00,0.00,0.00,30.25,M,10.00,M,CLR,M,M,M,M,M,M,M,M,M,M,M,M,M,M,57.20,KWYS 200455Z AUTO 00000KT 10SM CLR 14/08 A3025 RMK AO2,M
WYS,2024-08-20 05:55,55.40,48.20,76.66,0.00,0.00,0.00,30.25,M,10.00,M,CLR,M,M,M,M,M,M,M,M,M,M,M,M,M,M,55.40,KWYS 200555Z AUTO 00000KT 10SM CLR 13/09 A3025 RMK AO2,M
WYS,2024-08-20 06:55,51.80,48.20,87.47,0.00,0.00,0.00,30.27,M,10.00,M,CLR,M,M,M,M,M,M,M,M,M,M,M,M,M,M,51.80,KWYS 200655Z AUTO 00000KT 10SM CLR 11/09 A3027 RMK AO2,M
WYS,2024-08-20 07:55,51.80,48.20,87.47,350.00,4.00,0.00,30.27,M,10.00,M,CLR,M,M,M,M,M,M,M,M,M,M,M,M,M,M,51.80,KWYS 200755Z AUTO 35004KT 10SM CLR 11/09 A3027 RMK AO2,M
WYS,2024-08-20 08:55,46.40,46.40,100.00,190.00,4.00,0.00,30.28,M,10.00,M,CLR,M,M,M,M,M,M,M,M,M,M,M,M,M,M,44.24,KWYS 200855Z AUTO 19004KT 10SM CLR 08/08 A3028 RMK AO2,M
WYS,2024-08-20 09:55,44.60,44.60,100.00,0.00,0.00,0.00,30.28,M,10.00,M,CLR,M,M,M,M,M,M,M,M,M,M,M,M,M,M,44.60,KWYS 200955Z AUTO 00000KT 10SM CLR 07/07 A3028 RMK AO2,M
WYS,2024-08-20 10:55,42.80,42.80,100.00,0.00,0.00,0.00,30.27,M,10.00,M,CLR,M,M,M,M,M,M,M,M,M,M,M,M,M,M,42.80,KWYS 201055Z AUTO 00000KT 10SM CLR 06/06 A3027 RMK AO2,M
WYS,2024-08-20 11:55,41.00,41.00,100.00,200.00,3.00,0.00,30.28,M,10.00,M,CLR,M,M,M,M,M,M,M,M,M,M,M,M,M,M,38.98,KWYS 201155Z AUTO 20003KT 10SM CLR 05/05 A3028 RMK AO2,M
WYS,2024-08-20 12:55,41.00,41.00,100.00,0.00,0.00,0.00,30.28,M,10.00,M,CLR,M,M,M,M,M,M,M,M,M,M,M,M,M,M,41.00,KWYS 201255Z AUTO 00000KT 10SM CLR 05/05 A3028 RMK AO2,M
WYS,2024-08-20 13:55,48.20,48.20,100.00,0.00,0.00,0.00,30.30,M,10.00,M,CLR,M,M,M,M,M,M,M,M,M,M,M,M,M,M,48.20,KWYS 201355Z AUTO 00000KT 10SM CLR 09/09 A3030 RMK AO2,M
WYS,2024-08-20 14:55,50.00,50.00,100.00,0.00,0.00,0.00,30.34,M,10.00,10.00,SCT,M,M,M,8000.00,M,M,M,M,M,M,M,M,M,M,50.00,KWYS 201455Z AUTO 00000G10KT 10SM SCT080 10/10 A3034 RMK AO2,M
WYS,2024-08-20 15:55,53.60,53.60,100.00,160.00,5.00,0.05,30.33,M,10.00,M,FEW,FEW,M,M,8000.00,9500.00,M,M,M,M,M,M,M,M,M,53.60,KWYS 201555Z AUTO 16005KT 10SM FEW080 FEW095 12/12 A3033 RMK AO2 P0005,M
WYS,2024-08-20 16:55,60.80,51.80,72.20,150.00,3.00,0.00,30.31,M,10.00,M,FEW,M,M,M,8000.00,M,M,M,M,M,M,M,M,M,M,60.80,KWYS 201655Z AUTO 15003KT 10SM FEW080 16/11 A3031 RMK AO2,M
WYS,2024-08-20 17:55,66.20,50.00,55.88,0.00,0.00,0.00,30.29,M,10.00,M,CLR,M,M,M,M,M,M,M,M,M,M,M,M,M,M,66.20,KWYS 201755Z AUTO 00000KT 10SM CLR 19/10 A3029 RMK AO2,M
WYS,2024-08-20 18:55,71.60,46.40,40.57,0.00,0.00,0.00,30.25,M,10.00,M,CLR,M,M,M,M,M,M,M,M,M,M,M,M,M,M,71.60,KWYS 201855Z AUTO 00000KT 10SM CLR 22/08 A3025 RMK AO2,M
WYS,2024-08-20 19:55,77.00,46.40,33.85,220.00,12.00,0.00,30.23,M,10.00,M,CLR,M,M,M,M,M,M,M,M,M,M,M,M,M,M,77.00,KWYS 201955Z AUTO 22012KT 200V270 10SM CLR 25/08 A3023 RMK AO2,M
WYS,2024-08-20 20:55,78.80,41.00,25.95,230.00,16.00,0.00,30.19,M,10.00,28.00,CLR,M,M,M,M,M,M,M,M,M,M,M,M,M,M,78.80,KWYS 202055Z AUTO 23016G28KT 10SM CLR 26/05 A3019 RMK AO2,M
WYS,2024-08-20 21:55,80.60,37.40,21.25,210.00,20.00,0.00,30.17,M,10.00,31.00,CLR,M,M,M,M,M,M,M,M,M,M,M,M,M,M,79.02,KWYS 202155Z AUTO 21020G31KT 10SM CLR 27/03 A3017 RMK AO2,M
WYS,2024-08-20 22:55,77.00,28.40,16.67,220.00,23.00,0.00,30.16,M,10.00,29.00,CLR,M,M,M,M,M,M,M,M,M,M,M,M,M,M,77.00,KWYS 202255Z AUTO 22023G29KT 10SM CLR 25/M02 A3016 RMK AO2,M
WYS,2024-08-20 23:55,77.00,30.20,17.94,220.00,18.00,0.00,30.17,M,10.00,25.00,CLR,M,M,M,M,M,M,M,M,M,M,M,M,M,M,77.00,KWYS 202355Z AUTO 22018G25KT 10SM CLR 25/M01 A3017 RMK AO2,M
WYS,2024-08-21 00:55,75.20,26.60,16.43,220.00,15.00,0.00,30.16,M,10.00,24.00,CLR,M,M,M,M,M,M,M,M,M,M,M,M,M,M,75.20,KWYS 210055Z AUTO 22015G24KT 10SM CLR 24/M03 A3016 RMK AO2,M
WYS,2024-08-21 01:55,73.40,32.00,21.76,220.00,13.00,0.00,30.17,M,10.00,18.00,CLR,M,M,M,M,M,M,M,M,M,M,M,M,M,M,73.40,KWYS 210155Z AUTO 22013G18KT 10SM CLR 23/M00 A3017 RMK AO2,M
WYS,2024-08-21 02:55,68.00,32.00,26.15,200.00,6.00,0.00,30.18,M,10.00,M,CLR,M,M,M,M,M,M,M,M,M,M,M,M,M,M,68.00,KWYS 210255Z AUTO 20006KT 10SM CLR 20/M00 A3018 RMK AO2,M
WYS,2024-08-21 03:55,59.00,33.80,38.56,0.00,0.00,0.00,30.19,M,10.00,M,CLR,M,M,M,M,M,M,M,M,M,M,M,M,M,M,59.00,KWYS 210355Z AUTO 00000KT 10SM CLR 15/01 A3019 RMK AO2,M
WYS,2024-08-21 04:55,53.60,35.60,50.36,0.00,0.00,0.00,30.19,M,10.00,M,CLR,M,M,M,M,M,M,M,M,M,M,M,M,M,M,53.60,KWYS 210455Z AUTO 00000KT 10SM CLR 12/02 A3019 RMK AO2,M
WYS,2024-08-21 05:55,55.40,30.20,37.97,0.00,0.00,0.00,30.19,M,10.00,M,CLR,M,M,M,M,M,M,M,M,M,M,M,M,M,M,55.40,KWYS 210555Z AUTO 00000KT 10SM CLR 13/M01 A3019 RMK AO2,M
WYS,2024-08-21 06:55,50.00,32.00,49.81,0.00,0.00,0.00,30.18,M,10.00,M,CLR,M,M,M,M,M,M,M,M,M,M,M,M,M,M,50.00,KWYS 210655Z AUTO 00000KT 10SM CLR 10/00 A3018 RMK AO2,M
WYS,2024-08-21 07:55,44.60,33.80,65.61,0.00,0.00,0.00,30.18,M,10.00,M,CLR,M,M,M,M,M,M,M,M,M,M,M,M,M,M,44.60,KWYS 210755Z AUTO 00000KT 10SM CLR 07/01 A3018 RMK AO2,M
WYS,2024-08-21 08:55,41.00,37.40,86.89,0.00,0.00,0.00,30.17,M,10.00,M,CLR,M,M,M,M,M,M,M,M,M,M,M,M,M,M,41.00,KWYS 210855Z AUTO 00000KT 10SM CLR 05/03 A3017 RMK AO2,M
WYS,2024-08-21 09:55,39.20,37.40,93.19,0.00,0.00,0.00,30.18,M,10.00,M,CLR,M,M,M,M,M,M,M,M,M,M,M,M,M,M,39.20,KWYS 210955Z AUTO 00000KT 10SM CLR 04/03 A3018 RMK AO2,M
WYS,2024-08-21 10:55,37.40,37.40,100.00,0.00,0.00,0.00,30.17,M,10.00,M,CLR,M,M,M,M,M,M,M,M,M,M,M,M,M,M,37.40,KWYS 211055Z AUTO 00000KT 10SM CLR 03/03 A3017 RMK AO2,M
WYS,2024-08-21 11:55,35.60,35.60,100.00,0.00,0.00,0.00,30.16,M,10.00,M,CLR,M,M,M,M,M,M,M,M,M,M,M,M,M,M,35.60,KWYS 211155Z AUTO 00000KT 10SM CLR 02/02 A3016 RMK AO2,M
WYS,2024-08-21 12:55,35.60,35.60,100.00,0.00,0.00,0.00,30.15,M,10.00,M,CLR,M,M,M,M,M,M,M,M,M,M,M,M,M,M,35.60,KWYS 211255Z AUTO 00000KT 10SM CLR 02/02 A3015 RMK AO2,M
WYS,2024-08-21 13:55,41.00,37.40,86.89,0.00,0.00,0.00,30.16,M,10.00,M,CLR,M,M,M,M,M,M,M,M,M,M,M,M,M,M,41.00,KWYS 211355Z AUTO 00000KT 10SM CLR 05/03 A3016 RMK AO2,M
WYS,2024-08-21 14:55,51.80,35.60,53.81,0.00,0.00,0.00,30.16,M,10.00,M,CLR,M,M,M,M,M,M,M,M,M,M,M,M,M,M,51.80,KWYS 211455Z AUTO 00000KT 10SM CLR 11/02 A3016 RMK AO2,M
WYS,2024-08-21 15:55,59.00,37.40,44.47,0.00,0.00,0.00,30.17,M,10.00,M,CLR,M,M,M,M,M,M,M,M,M,M,M,M,M,M,59.00,KWYS 211555Z AUTO 00000KT 10SM CLR 15/03 A3017 RMK AO2,M
WYS,2024-08-21 16:55,66.20,39.20,37.03,40.00,4.00,0.00,30.16,M,10.00,M,CLR,M,M,M,M,M,M,M,M,M,M,M,M,M,M,66.20,KWYS 211655Z AUTO 04004KT 10SM CLR 19/04 A3016 RMK AO2,M
WYS,2024-08-21 17:55,73.40,30.20,20.23,200.00,16.00,0.00,30.14,M,10.00,M,CLR,M,M,M,M,M,M,M,M,M,M,M,M,M,M,73.40,KWYS 211755Z AUTO 20016KT 10SM CLR 23/M01 A3014 RMK AO2,M
WYS,2024-08-21 18:55,75.20,32.00,20.49,200.00,17.00,0.00,30.14,M,10.00,M,SCT,M,M,M,11000.00,M,M,M,M,M,M,M,M,M,M,75.20,KWYS 211855Z AUTO 20017KT 10SM SCT110 24/00 A3014 RMK AO2,M
WYS,2024-08-21 19:55,75.20,30.20,19.05,230.00,15.00,0.00,30.14,M,10.00,21.00,CLR,M,M,M,M,M,M,M,M,M,M,M,M,M,M,75.20,KWYS 211955Z AUTO 23015G21KT 10SM CLR 24/M01 A3014 RMK AO2,M
WYS,2024-08-21 20:55,73.40,30.20,20.23,220.00,17.00,0.00,30.15,M,10.00,23.00,FEW,SCT,M,M,10000.00,12000.00,M,M,M,M,M,M,M,M,M,73.40,KWYS 212055Z AUTO 22017G23KT 10SM FEW100 SCT120 23/M01 A3015 RMK AO2,M
WYS,2024-08-21 21:55,68.00,24.80,19.47,270.00,8.00,0.00,30.18,M,10.00,17.00,BKN,BKN,M,M,9000.00,11000.00,M,M,M,M,M,M,M,M,M,68.00,KWYS 212155Z AUTO 27008G17KT 230V300 10SM BKN090 BKN110 20/M04 A3018 RMK AO2,M
WYS,2024-08-21 22:55,69.80,30.20,22.86,230.00,9.00,0.00,30.18,M,10.00,M,FEW,FEW,SCT,M,7000.00,9500.00,12000.00,M,M,M,M,M,M,M,M,69.80,KWYS 212255Z AUTO 23009KT 10SM FEW070 FEW095 SCT120 21/M01 A3018 RMK AO2,M
WYS,2024-08-21 23:55,69.80,33.80,26.43,160.00,7.00,0.00,30.15,M,10.00,13.00,FEW,FEW,M,M,8500.00,12000.00,M,M,M,M,M,M,M,M,M,69.80,KWYS 212355Z AUTO 16007G13KT 10SM FEW085 FEW120 21/01 A3015 RMK AO2,M
WYS,2024-08-22 00:55,68.00,33.80,28.11,170.00,4.00,0.00,30.14,M,10.00,M,FEW,M,M,M,12000.00,M,M,M,M,M,M,M,M,M,M,68.00,KWYS 220055Z AUTO 17004KT 10SM FEW120 20/01 A3014 RMK AO2,M
WYS,2024-08-22 01:55,66.20,33.80,29.92,200.00,6.00,0.00,30.14,M,10.00,M,CLR,M,M,M,M,M,M,M,M,M,M,M,M,M,M,66.20,KWYS 220155Z AUTO 20006KT 10SM CLR 19/01 A3014 RMK AO2,M
WYS,2024-08-22 02:55,57.20,33.80,41.13,190.00,5.00,0.00,30.15,M,10.00,10.00,CLR,M,M,M,M,M,M,M,M,M,M,M,M,M,M,57.20,KWYS 220255Z AUTO 19005G10KT 10SM CLR 14/01 A3015 RMK AO2,M
WYS,2024-08-22 03:55,51.80,37.40,57.77,0.00,0.00,0.00,30.17,M,10.00,M,CLR,M,M,M,M,M,M,M,M,M,M,M,M,M,M,51.80,KWYS 220355Z AUTO 00000KT 10SM CLR 11/03 A3017 RMK AO2,M
WYS,2024-08-22 04:20,51.80,35.60,53.81,0.00,0.00,0.00,30.17,M,10.00,M,CLR,M,M,M,M,M,M,M,M,M,M,M,M,M,M,51.80,KWYS 220420Z AUTO 00000KT 10SM CLR 11/02 A3017 RMK AO2,M
WYS,2024-08-22 07:55,37.40,35.60,93.14,0.00,0.00,0.00,30.19,M,10.00,M,CLR,M,M,M,M,M,M,M,M,M,M,M,M,M,M,37.40,KWYS 220755Z AUTO 00000KT 10SM CLR 03/02 A3019 RMK AO2,M
WYS,2024-08-22 08:55,35.60,35.60,100.00,0.00,0.00,0.00,30.19,M,10.00,M,CLR,M,M,M,M,M,M,M,M,M,M,M,M,M,M,35.60,KWYS 220855Z AUTO 00000KT 10SM CLR 02/02 A3019 RMK AO2,M
WYS,2024-08-22 09:55,33.80,33.80,100.00,0.00,0.00,0.00,30.19,M,10.00,M,CLR,M,M,M,M,M,M,M,M,M,M,M,M,M,M,33.80,KWYS 220955Z AUTO 00000KT 10SM CLR 01/01 A3019 RMK AO2,M
WYS,2024-08-22 10:55,32.00,32.00,100.00,0.00,0.00,0.00,30.20,M,10.00,M,CLR,M,M,M,M,M,M,M,M,M,M,M,M,M,M,32.00,KWYS 221055Z AUTO 00000KT 10SM CLR M00/M00 A3020 RMK AO2,M
WYS,2024-08-22 11:55,30.20,30.20,100.00,0.00,0.00,0.00,30.21,M,10.00,M,CLR,M,M,M,M,M,M,M,M,M,M,M,M,M,M,30.20,KWYS 221155Z AUTO 00000KT 10SM CLR M01/M01 A3021 RMK AO2,M
WYS,2024-08-22 12:55,30.20,30.20,100.00,0.00,0.00,0.00,30.23,M,10.00,M,CLR,M,M,M,M,M,M,M,M,M,M,M,M,M,M,30.20,KWYS 221255Z AUTO 00000KT 10SM CLR M01/M01 A3023 RMK AO2,M
WYS,2024-08-22 13:55,39.20,37.40,93.19,0.00,0.00,0.00,30.23,M,10.00,M,CLR,M,M,M,M,M,M,M,M,M,M,M,M,M,M,39.20,KWYS 221355Z AUTO 00000KT 10SM CLR 04/03 A3023 RMK AO2,M
WYS,2024-08-22 14:55,48.20,33.80,57.26,0.00,0.00,0.00,30.22,M,10.00,M,CLR,M,M,M,M,M,M,M,M,M,M,M,M,M,M,48.20,KWYS 221455Z AUTO 00000KT 10SM CLR 09/01 A3022 RMK AO2,M
WYS,2024-08-22 15:55,53.60,33.80,46.88,0.00,0.00,0.00,30.21,M,10.00,M,CLR,M,M,M,M,M,M,M,M,M,M,M,M,M,M,53.60,KWYS 221555Z AUTO 00000KT 10SM CLR 12/01 A3021 RMK AO2,M
WYS,2024-08-22 16:55,62.60,33.80,33.93,0.00,0.00,0.00,30.19,M,10.00,M,CLR,M,M,M,M,M,M,M,M,M,M,M,M,M,M,62.60,KWYS 221655Z AUTO 00000KT 10SM CLR 17/01 A3019 RMK AO2,M
WYS,2024-08-22 17:55,69.80,32.00,24.59,M,3.00,0.00,30.17,M,10.00,M,CLR,M,M,M,M,M,M,M,M,M,M,M,M,M,M,69.80,KWYS 221755Z AUTO VRB03KT 10SM CLR 21/M00 A3017 RMK AO2,M
WYS,2024-08-22 18:55,75.20,28.40,17.70,260.00,4.00,0.00,30.14,M,10.00,M,CLR,M,M,M,M,M,M,M,M,M,M,M,M,M,M,75.20,KWYS 221855Z AUTO 26004KT 10SM CLR 24/M02 A3014 RMK AO2,M
WYS,2024-08-22 19:55,78.80,24.80,13.54,M,6.00,0.00,30.12,M,10.00,19.00,CLR,M,M,M,M,M,M,M,M,M,M,M,M,M,M,78.80,KWYS 221955Z AUTO VRB06G19KT 10SM CLR 26/M04 A3012 RMK AO2,M
WYS,2024-08-22 20:55,80.60,23.00,11.83,200.00,12.00,0.00,30.11,M,10.00,21.00,CLR,M,M,M,M,M,M,M,M,M,M,M,M,M,M,78.80,KWYS 222055Z AUTO 20012G21KT 10SM CLR 27/M05 A3011 RMK AO2,M
WYS,2024-08-22 21:55,78.80,24.80,13.54,210.00,14.00,0.00,30.10,M,10.00,22.00,CLR,M,M,M,M,M,M,M,M,M,M,M,M,M,M,78.80,KWYS 222155Z AUTO 21014G22KT 180V240 10SM CLR 26/M04 A3010 RMK AO2,M
WYS,2024-08-22 22:55,78.80,28.40,15.71,180.00,11.00,0.00,30.09,M,10.00,19.00,SCT,M,M,M,11000.00,M,M,M,M,M,M,M,M,M,M,78.80,KWYS 222255Z AUTO 18011G19KT 10SM SCT110 26/M02 A3009 RMK AO2,M
WYS,2024-08-22 23:55,78.80,26.60,14.59,220.00,10.00,0.00,30.08,M,10.00,19.00,FEW,M,M,M,12000.00,M,M,M,M,M,M,M,M,M,M,78.80,KWYS 222355Z AUTO 22010G19KT 10SM FEW120 26/M03 A3008 RMK AO2,M
WYS,2024-08-23 00:55,77.00,28.40,16.67,230.00,11.00,0.00,30.08,M,10.00,M,CLR,M,M,M,M,M,M,M,M,M,M,M,M,M,M,77.00,KWYS 230055Z AUTO 23011KT 10SM CLR 25/M02 A3008 RMK AO2,M
WYS,2024-08-23 01:55,71.60,28.40,19.98,240.00,3.00,0.00,30.07,M,10.00,M,CLR,M,M,M,M,M,M,M,M,M,M,M,M,M,M,71.60,KWYS 230155Z AUTO 24003KT 10SM CLR 22/M02 A3007 RMK AO2,M
WYS,2024-08-23 02:55,59.00,35.60,41.42,M,6.00,0.00,30.09,M,10.00,M,FEW,M,M,M,11000.00,M,M,M,M,M,M,M,M,M,M,59.00,KWYS 230255Z AUTO VRB06KT 10SM FEW110 15/02 A3009 RMK AO2,M
WYS,2024-08-23 03:55,64.40,33.80,31.85,0.00,0.00,0.00,30.08,M,10.00,M,CLR,M,M,M,M,M,M,M,M,M,M,M,M,M,M,64.40,KWYS 230355Z AUTO 00000KT 10SM CLR 18/01 A3008 RMK AO2,M
WYS,2024-08-23 04:55,55.40,35.60,47.16,0.00,0.00,0.00,30.07,M,10.00,M,CLR,M,M,M,M,M,M,M,M,M,M,M,M,M,M,55.40,KWYS 230455Z AUTO 00000KT 10SM CLR 13/02 A3007 RMK AO2,M
WYS,2024-08-23 05:55,57.20,33.80,41.13,0.00,0.00,0.00,30.08,M,10.00,M,CLR,M,M,M,M,M,M,M,M,M,M,M,M,M,M,57.20,KWYS 230555Z AUTO 00000KT 10SM CLR 14/01 A3008 RMK AO2,M
WYS,2024-08-23 06:55,53.60,33.80,46.88,0.00,0.00,0.00,30.07,M,10.00,M,CLR,M,M,M,M,M,M,M,M,M,M,M,M,M,M,53.60,KWYS 230655Z AUTO 00000KT 10SM CLR 12/01 A3007 RMK AO2,M
WYS,2024-08-23 07:55,51.80,33.80,50.08,240.00,6.00,0.00,30.11,M,10.00,11.00,FEW,M,M,M,9500.00,M,M,M,M,M,M,M,M,M,M,51.80,KWYS 230755Z AUTO 24006G11KT 10SM FEW095 11/01 A3011 RMK AO2,M
WYS,2024-08-23 08:55,59.00,41.00,51.18,230.00,13.00,0.00,30.14,M,10.00,21.00,BKN,M,M,M,8500.00,M,M,M,M,M,M,M,M,M,M,59.00,KWYS 230855Z AUTO 23013G21KT 10SM BKN085 15/05 A3014 RMK AO2,M
WYS,2024-08-23 09:55,57.20,44.60,62.69,0.00,0.00,0.00,30.15,M,10.00,M,FEW,BKN,OVC,M,7500.00,10000.00,12000.00,M,M,M,M,M,M,M,M,57.20,KWYS 230955Z AUTO 00000KT 10SM FEW075 BKN100 OVC120 14/07 A3015 RMK AO2,M
WYS,2024-08-23 10:55,51.80,51.80,100.00,330.00,5.00,0.02,30.10,M,7.00,M,SCT,BKN,OVC,M,3600.00,6500.00,7500.00,M,-DZ,M,M,M,M,M,M,51.80,KWYS 231055Z AUTO 33005KT 7SM -DZ SCT036 BKN065 OVC075 11/11 A3010 RMK AO2 P0002,M
WYS,2024-08-23 11:55,51.80,51.80,100.00,50.00,10.00,0.14,30.12,M,3.00,M,FEW,SCT,BKN,M,500.00,2500.00,3600.00,M,RA,M,M,M,M,M,M,51.80,KWYS 231155Z AUTO 05010KT 3SM RA FEW005 SCT025 BKN036 11/11 A3012 RMK AO2 P0014,M
WYS,2024-08-23 12:55,51.80,51.80,100.00,220.00,6.00,0.01,30.13,M,10.00,M,OVC,M,M,M,7000.00,M,M,M,M,M,M,M,M,M,M,51.80,KWYS 231255Z AUTO 22006KT 10SM OVC070 11/11 A3013 RMK AO2 P0001,M
WYS,2024-08-23 13:55,50.00,50.00,100.00,0.00,0.00,0.01,30.11,M,10.00,M,SCT,BKN,M,M,6500.00,11000.00,M,M,M,M,M,M,M,M,M,50.00,KWYS 231355Z AUTO 00000KT 10SM SCT065 BKN110 10/10 A3011 RMK AO2 P0001,M
WYS,2024-08-23 14:55,53.60,53.60,100.00,340.00,4.00,0.00,30.11,M,10.00,M,SCT,BKN,BKN,M,6500.00,7500.00,10000.00,M,M,M,M,M,M,M,M,53.60,KWYS 231455Z AUTO 34004KT 10SM SCT065 BKN075 BKN100 12/12 A3011 RMK AO2,M
WYS,2024-08-23 15:55,55.40,55.40,100.00,0.00,0.00,0.01,30.09,M,10.00,M,OVC,M,M,M,5500.00,M,M,M,M,M,M,M,M,M,M,55.40,KWYS 231555Z AUTO 00000KT 10SM OVC055 13/13 A3009 RMK AO2 P0001,M
WYS,2024-08-23 16:55,60.80,57.20,87.92,260.00,5.00,0.00,30.07,M,10.00,M,CLR,M,M,M,M,M,M,M,M,M,M,M,M,M,M,60.80,KWYS 231655Z AUTO 26005KT 10SM CLR 16/14 A3007 RMK AO2,M
WYS,2024-08-23 17:55,64.40,53.60,67.95,0.00,0.00,0.00,30.04,M,10.00,M,CLR,M,M,M,M,M,M,M,M,M,M,M,M,M,M,64.40,KWYS 231755Z AUTO 00000KT 10SM CLR 18/12 A3004 RMK AO2,M
WYS,2024-08-23 18:55,71.60,50.00,46.43,M,3.00,0.00,29.99,M,10.00,M,CLR,M,M,M,M,M,M,M,M,M,M,M,M,M,M,71.60,KWYS 231855Z AUTO VRB03KT 10SM CLR 22/10 A2999 RMK AO2,M
WYS,2024-08-23 19:55,69.80,44.60,40.29,170.00,10.00,0.00,29.96,M,10.00,M,FEW,M,M,M,10000.00,M,M,M,M,M,M,M,M,M,M,69.80,KWYS 231955Z AUTO 17010KT 10SM FEW100 21/07 A2996 RMK AO2,M
WYS,2024-08-23 20:55,64.40,48.20,55.63,230.00,9.00,0.02,29.97,M,10.00,17.00,FEW,BKN,M,M,7000.00,8500.00,M,M,M,M,M,M,M,M,M,64.40,KWYS 232055Z AUTO 23009G17KT 10SM FEW070 BKN085 18/09 A2997 RMK AO2 P0002,M
WYS,2024-08-23 21:55,62.60,57.20,82.50,160.00,4.00,0.09,29.98,M,10.00,13.00,FEW,FEW,FEW,M,7500.00,8000.00,10000.00,M,M,M,M,M,M,M,M,62.60,KWYS 232155Z AUTO 16004G13KT 10SM FEW075 FEW080 FEW100 17/14 A2998 RMK AO2 P0009,M
WYS,2024-08-23 22:55,62.60,51.80,67.75,200.00,17.00,0.00,29.96,M,6.00,23.00,FEW,FEW,FEW,M,3500.00,4800.00,7000.00,M,HZ,M,M,M,M,M,M,62.60,KWYS 232255Z AUTO 20017G23KT 6SM HZ FEW035 FEW048 FEW070 17/11 A2996 RMK AO2,M
WYS,2024-08-23 23:55,59.00,51.80,76.98,M,5.00,0.03,30.00,M,10.00,14.00,FEW,SCT,M,M,6000.00,8000.00,M,M,M,M,M,M,M,M,M,59.00,KWYS 232355Z AUTO VRB05G14KT 10SM FEW060 SCT080 15/11 A3000 RMK AO2 P0003,M
WYS,2024-08-24 00:55,60.80,48.20,63.15,110.00,5.00,0.00,29.99,M,10.00,M,FEW,M,M,M,11000.00,M,M,M,M,M,M,M,M,M,M,60.80,KWYS 240055Z AUTO 11005KT 10SM FEW110 16/09 A2999 RMK AO2,M
WYS,2024-08-24 01:55,55.40,55.40,100.00,0.00,0.00,0.00,29.98,M,10.00,M,CLR,M,M,M,M,M,M,M,M,M,M,M,M,M,M,55.40,KWYS 240155Z AUTO 00000KT 10SM CLR 13/13 A2998 RMK AO2,M
WYS,2024-08-24 02:55,57.20,51.80,82.12,0.00,0.00,0.00,29.98,M,10.00,16.00,FEW,SCT,OVC,M,5500.00,7000.00,7500.00,M,M,M,M,M,M,M,M,57.20,KWYS 240255Z AUTO 00000G16KT 10SM FEW055 SCT070 OVC075 14/11 A2998 RMK AO2,M
WYS,2024-08-24 03:55,50.00,50.00,100.00,280.00,3.00,0.00,30.00,M,10.00,M,CLR,M,M,M,M,M,M,M,M,M,M,M,M,M,M,50.00,KWYS 240355Z AUTO 28003KT 10SM CLR 10/10 A3000 RMK AO2,M
WYS,2024-08-24 04:55,48.20,48.20,100.00,0.00,0.00,0.00,30.00,M,10.00,M,CLR,M,M,M,M,M,M,M,M,M,M,M,M,M,M,48.20,KWYS 240455Z AUTO 00000KT 10SM CLR 09/09 A3000 RMK AO2,M
WYS,2024-08-24 05:55,46.40,46.40,100.00,0.00,0.00,0.00,30.00,M,10.00,M,CLR,M,M,M,M,M,M,M,M,M,M,M,M,M,M,46.40,KWYS 240555Z AUTO 00000KT 10SM CLR 08/08 A3000 RMK AO2,M
WYS,2024-08-24 06:55,44.60,44.60,100.00,0.00,0.00,0.00,30.01,M,10.00,M,CLR,M,M,M,M,M,M,M,M,M,M,M,M,M,M,44.60,KWYS 240655Z AUTO 00000KT 10SM CLR 07/07 A3001 RMK AO2,M
WYS,2024-08-24 07:55,42.80,42.80,100.00,0.00,0.00,0.00,30.01,M,10.00,M,CLR,M,M,M,M,M,M,M,M,M,M,M,M,M,M,42.80,KWYS 240755Z AUTO 00000KT 10SM CLR 06/06 A3001 RMK AO2,M
WYS,2024-08-24 08:55,41.00,41.00,100.00,0.00,0.00,0.00,30.01,M,10.00,M,CLR,M,M,M,M,M,M,M,M,M,M,M,M,M,M,41.00,KWYS 240855Z AUTO 00000KT 10SM CLR 05/05 A3001 RMK AO2,M
WYS,2024-08-24 09:55,39.20,39.20,100.00,0.00,0.00,0.00,30.01,M,10.00,M,CLR,M,M,M,M,M,M,M,M,M,M,M,M,M,M,39.20,KWYS 240955Z AUTO 00000KT 10SM CLR 04/04 A3001 RMK AO2,M
WYS,2024-08-24 10:55,37.40,37.40,100.00,0.00,0.00,0.00,30.03,M,10.00,M,CLR,M,M,M,M,M,M,M,M,M,M,M,M,M,M,37.40,KWYS 241055Z AUTO 00000KT 10SM CLR 03/03 A3003 RMK AO2,M
WYS,2024-08-24 11:55,35.60,35.60,100.00,0.00,0.00,0.00,30.05,M,10.00,M,CLR,M,M,M,M,M,M,M,M,M,M,M,M,M,M,35.60,KWYS 241155Z AUTO 00000KT 10SM CLR 02/02 A3005 RMK AO2,M
WYS,2024-08-24 12:55,35.60,35.60,100.00,0.00,0.00,0.00,30.06,M,10.00,M,CLR,M,M,M,M,M,M,M,M,M,M,M,M,M,M,35.60,KWYS 241255Z AUTO 00000KT 10SM CLR 02/02 A3006 RMK AO2,M
WYS,2024-08-24 13:55,41.00,41.00,100.00,0.00,0.00,0.00,30.06,M,10.00,M,CLR,M,M,M,M,M,M,M,M,M,M,M,M,M,M,41.00,KWYS 241355Z AUTO 00000KT 10SM CLR 05/05 A3006 RMK AO2,M
WYS,2024-08-24 14:55,48.20,48.20,100.00,0.00,0.00,0.00,30.07,M,10.00,M,CLR,M,M,M,M,M,M,M,M,M,M,M,M,M,M,48.20,KWYS 241455Z AUTO 00000KT 10SM CLR 09/09 A3007 RMK AO2,M
WYS,2024-08-24 15:55,55.40,46.40,71.64,0.00,0.00,0.00,30.07,M,10.00,M,CLR,M,M,M,M,M,M,M,M,M,M,M,M,M,M,55.40,KWYS 241555Z AUTO 00000KT 10SM CLR 13/08 A3007 RMK AO2,M
WYS,2024-08-24 16:55,62.60,39.20,42.00,0.00,0.00,0.00,30.07,M,10.00,M,CLR,M,M,M,M,M,M,M,M,M,M,M,M,M,M,62.60,KWYS 241655Z AUTO 00000KT 10SM CLR 17/04 A3007 RMK AO2,M
WYS,2024-08-24 17:55,66.20,35.60,32.14,210.00,12.00,0.00,30.07,M,10.00,19.00,CLR,M,M,M,M,M,M,M,M,M,M,M,M,M,M,66.20,KWYS 241755Z AUTO 21012G19KT 10SM CLR 19/02 A3007 RMK AO2,M
WYS,2024-08-24 18:55,69.80,28.40,21.24,220.00,13.00,0.00,30.07,M,10.00,29.00,CLR,M,M,M,M,M,M,M,M,M,M,M,M,M,M,69.80,KWYS 241855Z AUTO 22013G29KT 10SM CLR 21/M02 A3007 RMK AO2,M
WYS,2024-08-24 19:55,71.60,24.80,17.22,220.00,14.00,0.00,30.07,M,10.00,29.00,CLR,M,M,M,M,M,M,M,M,M,M,M,M,M,M,71.60,KWYS 241955Z AUTO 22014G29KT 10SM CLR 22/M04 A3007 RMK AO2,M
WYS,2024-08-24 20:55,71.60,26.60,18.55,210.00,15.00,0.00,30.05,M,10.00,22.00,CLR,M,M,M,M,M,M,M,M,M,M,M,M,M,M,71.60,KWYS 242055Z AUTO 21015G22KT 10SM CLR 22/M03 A3005 RMK AO2,M
WYS,2024-08-24 21:55,69.80,24.80,18.30,250.00,11.00,0.00,30.04,M,10.00,20.00,CLR,M,M,M,M,M,M,M,M,M,M,M,M,M,M,69.80,KWYS 242155Z AUTO 25011G20KT 10SM CLR 21/M04 A3004 RMK AO2,M
WYS,2024-08-24 22:55,68.00,28.40,22.59,240.00,9.00,0.00,30.05,M,10.00,15.00,CLR,M,M,M,M,M,M,M,M,M,M,M,M,M,M,68.00,KWYS 242255Z AUTO 24009G15KT 10SM CLR 20/M02 A3005 RMK AO2,M
WYS,2024-08-24 23:55,68.00,30.20,24.32,220.00,13.00,0.00,30.06,M,10.00,19.00,CLR,M,M,M,M,M,M,M,M,M,M,M,M,M,M,68.00,KWYS 242355Z AUTO 22013G19KT 10SM CLR 20/M01 A3006 RMK AO2,M
WYS,2024-08-25 00:55,64.40,26.60,23.77,240.00,14.00,0.00,30.09,M,10.00,21.00,CLR,M,M,M,M,M,M,M,M,M,M,M,M,M,M,64.40,KWYS 250055Z AUTO 24014G21KT 10SM CLR 18/M03 A3009 RMK AO2,M
WYS,2024-08-25 01:55,60.80,26.60,26.98,230.00,16.00,0.00,30.15,M,10.00,24.00,BKN,M,M,M,11000.00,M,M,M,M,M,M,M,M,M,M,60.80,KWYS 250155Z AUTO 23016G24KT 10SM BKN110 16/M03 A3015 RMK AO2,M
WYS,2024-08-25 02:55,59.00,26.60,28.77,210.00,6.00,0.00,30.17,M,10.00,M,BKN,BKN,M,M,10000.00,12000.00,M,M,M,M,M,M,M,M,M,59.00,KWYS 250255Z AUTO 21006KT 10SM BKN100 BKN120 15/M03 A3017 RMK AO2,M
WYS,2024-08-25 03:55,55.40,30.20,37.97,0.00,0.00,0.00,30.17,M,10.00,M,BKN,M,M,M,11000.00,M,M,M,M,M,M,M,M,M,M,55.40,KWYS 250355Z AUTO 00000KT 10SM BKN110 13/M01 A3017 RMK AO2,M
WYS,2024-08-25 04:55,51.80,28.40,40.25,0.00,0.00,0.00,30.17,M,10.00,M,CLR,M,M,M,M,M,M,M,M,M,M,M,M,M,M,51.80,KWYS 250455Z AUTO 00000KT 10SM CLR 11/M02 A3017 RMK AO2,M
WYS,2024-08-25 05:55,51.80,30.20,43.32,0.00,0.00,0.00,30.18,M,10.00,M,FEW,M,M,M,12000.00,M,M,M,M,M,M,M,M,M,M,51.80,KWYS 250555Z AUTO 00000KT 10SM FEW120 11/M01 A3018 RMK AO2,M
WYS,2024-08-25 06:55,53.60,30.20,40.54,0.00,0.00,0.00,30.20,M,10.00,M,FEW,M,M,M,12000.00,M,M,M,M,M,M,M,M,M,M,53.60,KWYS 250655Z AUTO 00000KT 10SM FEW120 12/M01 A3020 RMK AO2,M
WYS,2024-08-25 07:55,50.00,33.80,53.54,0.00,0.00,0.00,30.20,M,10.00,M,FEW,M,M,M,11000.00,M,M,M,M,M,M,M,M,M,M,50.00,KWYS 250755Z AUTO 00000KT 10SM FEW110 10/01 A3020 RMK AO2,M
WYS,2024-08-25 08:55,50.00,33.80,53.54,210.00,4.00,0.00,30.21,M,10.00,M,CLR,M,M,M,M,M,M,M,M,M,M,M,M,M,M,50.00,KWYS 250855Z AUTO 21004KT 10SM CLR 10/01 A3021 RMK AO2,M
WYS,2024-08-25 09:55,44.60,33.80,65.61,190.00,3.00,0.00,30.22,M,10.00,M,CLR,M,M,M,M,M,M,M,M,M,M,M,M,M,M,43.09,KWYS 250955Z AUTO 19003KT 10SM CLR 07/01 A3022 RMK AO2,M
WYS,2024-08-25 10:55,42.80,37.40,81.07,0.00,0.00,0.00,30.23,M,10.00,M,FEW,M,M,M,12000.00,M,M,M,M,M,M,M,M,M,M,42.80,KWYS 251055Z AUTO 00000KT 10SM FEW120 06/03 A3023 RMK AO2,M
WYS,2024-08-25 11:55,41.00,35.60,80.93,300.00,5.00,0.00,30.23,M,10.00,M,CLR,M,M,M,M,M,M,M,M,M,M,M,M,M,M,37.08,KWYS 251155Z AUTO 30005KT 10SM CLR 05/02 A3023 RMK AO2,M
WYS,2024-08-25 12:55,37.40,37.40,100.00,0.00,0.00,0.00,30.25,M,10.00,M,CLR,M,M,M,M,M,M,M,M,M,M,M,M,M,M,37.40,KWYS 251255Z AUTO 00000KT 10SM CLR 03/03 A3025 RMK AO2,M
WYS,2024-08-25 13:55,39.20,39.20,100.00,0.00,0.00,0.00,30.26,M,10.00,M,CLR,M,M,M,M,M,M,M,M,M,M,M,M,M,M,39.20,KWYS 251355Z AUTO 00000KT 10SM CLR 04/04 A3026 RMK AO2,M
WYS,2024-08-25 14:55,48.20,35.60,61.52,0.00,0.00,0.00,30.27,M,10.00,M,CLR,M,M,M,M,M,M,M,M,M,M,M,M,M,M,48.20,KWYS 251455Z AUTO 00000KT 10SM CLR 09/02 A3027 RMK AO2,M
WYS,2024-08-25 15:55,53.60,35.60,50.36,0.00,0.00,0.00,30.26,M,10.00,M,CLR,M,M,M,M,M,M,M,M,M,M,M,M,M,M,53.60,KWYS 251555Z AUTO 00000KT 10SM CLR 12/02 A3026 RMK AO2,M
WYS,2024-08-25 16:55,59.00,33.80,38.56,M,4.00,0.00,30.25,M,10.00,M,CLR,M,M,M,M,M,M,M,M,M,M,M,M,M,M,59.00,KWYS 251655Z AUTO VRB04KT 10SM CLR 15/01 A3025 RMK AO2,M
WYS,2024-08-25 17:55,62.60,33.80,33.93,0.00,0.00,0.00,30.25,M,10.00,M,FEW,M,M,M,10000.00,M,M,M,M,M,M,M,M,M,M,62.60,KWYS 251755Z AUTO 00000KT 10SM FEW100 17/01 A3025 RMK AO2,M
WYS,2024-08-25 18:55,68.00,30.20,24.32,210.00,14.00,0.00,30.23,M,10.00,20.00,BKN,M,M,M,11000.00,M,M,M,M,M,M,M,M,M,M,68.00,KWYS 251855Z AUTO 21014G20KT 10SM BKN110 20/M01 A3023 RMK AO2,M
WYS,2024-08-25 19:55,68.00,30.20,24.32,230.00,15.00,0.00,30.23,M,10.00,24.00,SCT,M,M,M,11000.00,M,M,M,M,M,M,M,M,M,M,68.00,KWYS 251955Z AUTO 23015G24KT 10SM SCT110 20/M01 A3023 RMK AO2,M
WYS,2024-08-25 20:55,69.80,28.40,21.24,210.00,21.00,0.00,30.22,M,10.00,26.00,FEW,M,M,M,11000.00,M,M,M,M,M,M,M,M,M,M,69.80,KWYS 252055Z AUTO 21021G26KT 10SM FEW110 21/M02 A3022 RMK AO2,M
WYS,2024-08-25 21:55,69.80,26.60,19.72,200.00,16.00,0.00,30.22,M,10.00,26.00,CLR,M,M,M,M,M,M,M,M,M,M,M,M,M,M,69.80,KWYS 252155Z AUTO 20016G26KT 10SM CLR 21/M03 A3022 RMK AO2,M
WYS,2024-08-25 22:55,69.80,26.60,19.72,230.00,8.00,0.00,30.23,M,10.00,14.00,CLR,M,M,M,M,M,M,M,M,M,M,M,M,M,M,69.80,KWYS 252255Z AUTO 23008G14KT 10SM CLR 21/M03 A3023 RMK AO2,M
WYS,2024-08-25 23:55,69.80,26.60,19.72,220.00,8.00,0.00,30.23,M,10.00,M,FEW,M,M,M,10000.00,M,M,M,M,M,M,M,M,M,M,69.80,KWYS 252355Z AUTO 22008KT 10SM FEW100 21/M03 A3023 RMK AO2,M
WYS,2024-08-26 00:55,66.20,28.40,24.04,170.00,4.00,0.00,30.24,M,10.00,M,FEW,BKN,BKN,M,8000.00,9500.00,11000.00,M,M,M,M,M,M,M,M,66.20,KWYS 260055Z AUTO 17004KT 10SM FEW080 BKN095 BKN110 19/M02 A3024 RMK AO2,M
WYS,2024-08-26 01:55,62.60,33.80,33.93,120.00,7.00,0.00,30.26,M,10.00,M,OVC,M,M,M,11000.00,M,M,M,M,M,M,M,M,M,M,62.60,KWYS 260155Z AUTO 12007KT 10SM OVC110 17/01 A3026 RMK AO2,M
WYS,2024-08-26 02:55,59.00,37.40,44.47,70.00,8.00,0.00,30.29,M,10.00,M,FEW,OVC,M,M,7000.00,9000.00,M,M,M,M,M,M,M,M,M,59.00,KWYS 260255Z AUTO 07008KT 10SM FEW070 OVC090 15/03 A3029 RMK AO2,M
WYS,2024-08-26 03:55,59.00,33.80,38.56,0.00,0.00,0.00,30.34,M,10.00,M,FEW,BKN,OVC,M,2700.00,4600.00,7000.00,M,M,M,M,M,M,M,M,59.00,KWYS 260355Z AUTO 00000KT 10SM FEW027 BKN046 OVC070 15/01 A3034 RMK AO2,M
WYS,2024-08-26 04:55,57.20,33.80,41.13,160.00,6.00,0.00,30.34,M,10.00,M,BKN,OVC,M,M,7000.00,10000.00,M,M,M,M,M,M,M,M,M,57.20,KWYS 260455Z AUTO 16006KT 10SM BKN070 OVC100 14/01 A3034 RMK AO2,M
WYS,2024-08-26 05:55,55.40,35.60,47.16,130.00,4.00,0.00,30.32,M,10.00,10.00,FEW,OVC,M,M,9000.00,12000.00,M,M,M,M,M,M,M,M,M,55.40,KWYS 260555Z AUTO 13004G10KT 10SM FEW090 OVC120 13/02 A3032 RMK AO2,M
WYS,2024-08-26 06:55,53.60,33.80,46.88,0.00,0.00,0.00,30.33,M,10.00,M,SCT,BKN,M,M,9000.00,12000.00,M,M,M,M,M,M,M,M,M,53.60,KWYS 260655Z AUTO 00000KT 10SM SCT090 BKN120 12/01 A3033 RMK AO2,M
WYS,2024-08-26 07:55,50.00,35.60,57.52,0.00,0.00,0.00,30.34,M,10.00,M,BKN,M,M,M,11000.00,M,M,M,M,M,M,M,M,M,M,50.00,KWYS 260755Z AUTO 00000KT 10SM BKN110 10/02 A3034 RMK AO2,M
WYS,2024-08-26 08:55,48.20,37.40,66.05,240.00,5.00,0.00,30.35,M,10.00,M,FEW,M,M,M,12000.00,M,M,M,M,M,M,M,M,M,M,45.63,KWYS 260855Z AUTO 24005KT 10SM FEW120 09/03 A3035 RMK AO2,M
WYS,2024-08-26 09:55,50.00,39.20,66.27,250.00,5.00,0.00,30.34,M,10.00,M,FEW,BKN,OVC,M,6000.00,7500.00,9500.00,M,M,M,M,M,M,M,M,50.00,KWYS 260955Z AUTO 25005KT 10SM FEW060 BKN075 OVC095 10/04 A3034 RMK AO2,M
WYS,2024-08-26 10:55,46.40,41.00,81.34,140.00,4.00,0.00,30.35,M,10.00,M,CLR,M,M,M,M,M,M,M,M,M,M,M,M,M,M,44.24,KWYS 261055Z AUTO 14004KT 10SM CLR 08/05 A3035 RMK AO2,M
WYS,2024-08-26 11:55,41.00,41.00,100.00,0.00,0.00,0.00,30.35,M,10.00,M,CLR,M,M,M,M,M,M,M,M,M,M,M,M,M,M,41.00,KWYS 261155Z AUTO 00000KT 10SM CLR 05/05 A3035 RMK AO2,M
WYS,2024-08-26 12:55,39.20,39.20,100.00,0.00,0.00,0.00,30.35,M,10.00,M,CLR,M,M,M,M,M,M,M,M,M,M,M,M,M,M,39.20,KWYS 261255Z AUTO 00000KT 10SM CLR 04/04 A3035 RMK AO2,M
WYS,2024-08-26 13:55,42.80,42.80,100.00,0.00,0.00,0.00,30.37,M,10.00,M,CLR,M,M,M,M,M,M,M,M,M,M,M,M,M,M,42.80,KWYS 261355Z AUTO 00000KT 10SM CLR 06/06 A3037 RMK AO2,M
WYS,2024-08-26 14:55,50.00,39.20,66.27,40.00,3.00,0.00,30.37,M,10.00,M,CLR,M,M,M,M,M,M,M,M,M,M,M,M,M,M,50.00,KWYS 261455Z AUTO 04003KT 10SM CLR 10/04 A3037 RMK AO2,M
WYS,2024-08-26 15:55,55.40,39.20,54.34,180.00,3.00,0.00,30.37,M,10.00,M,CLR,M,M,M,M,M,M,M,M,M,M,M,M,M,M,55.40,KWYS 261555Z AUTO 18003KT 10SM CLR 13/04 A3037 RMK AO2,M
WYS,2024-08-26 16:55,59.00,37.40,44.47,210.00,11.00,0.00,30.37,M,10.00,M,CLR,M,M,M,M,M,M,M,M,M,M,M,M,M,M,59.00,KWYS 261655Z AUTO 21011KT 10SM CLR 15/03 A3037 RMK AO2,M
WYS,2024-08-26 17:55,60.80,37.40,41.71,230.00,10.00,0.00,30.36,M,10.00,15.00,FEW,M,M,M,4900.00,M,M,M,M,M,M,M,M,M,M,60.80,KWYS 261755Z AUTO 23010G15KT 10SM FEW049 16/03 A3036 RMK AO2,M
WYS,2024-08-26 18:55,62.60,39.20,42.00,210.00,14.00,0.00,30.36,M,10.00,M,FEW,SCT,SCT,M,6000.00,7000.00,9500.00,M,M,M,M,M,M,M,M,62.60,KWYS 261855Z AUTO 21014KT 10SM FEW060 SCT070 SCT095 17/04 A3036 RMK AO2,M
WYS,2024-08-26 19:55,64.40,39.20,39.43,220.00,17.00,0.00,30.34,M,10.00,23.00,BKN,BKN,M,M,5500.00,7000.00,M,M,M,M,M,M,M,M,M,64.40,KWYS 261955Z AUTO 22017G23KT 190V250 10SM BKN055 BKN070 18/04 A3034 RMK AO2,M
WYS,2024-08-26 20:55,64.40,37.40,36.74,260.00,11.00,0.00,30.35,M,10.00,19.00,BKN,OVC,M,M,6000.00,11000.00,M,M,M,M,M,M,M,M,M,64.40,KWYS 262055Z AUTO 26011G19KT 200V310 10SM BKN060 OVC110 18/03 A3035 RMK AO2,M
WYS,2024-08-26 21:55,62.60,37.40,39.14,260.00,8.00,0.00,30.36,M,10.00,15.00,BKN,OVC,M,M,7000.00,8000.00,M,M,M,M,M,M,M,M,M,62.60,KWYS 262155Z AUTO 26008G15KT 10SM BKN070 OVC080 17/03 A3036 RMK AO2,M
WYS,2024-08-26 22:55,62.60,41.00,45.04,220.00,10.00,0.00,30.36,M,10.00,M,FEW,FEW,M,M,7500.00,11000.00,M,M,M,M,M,M,M,M,M,62.60,KWYS 262255Z AUTO 22010KT 10SM FEW075 FEW110 17/05 A3036 RMK AO2,M
WYS,2024-08-26 23:55,64.40,37.40,36.74,210.00,10.00,0.00,30.36,M,10.00,19.00,FEW,M,M,M,7500.00,M,M,M,M,M,M,M,M,M,M,64.40,KWYS 262355Z AUTO 21010G19KT 10SM FEW075 18/03 A3036 RMK AO2,M
WYS,2024-08-27 00:55,64.40,37.40,36.74,210.00,12.00,0.00,30.36,M,10.00,17.00,CLR,M,M,M,M,M,M,M,M,M,M,M,M,M,M,64.40,KWYS 270055Z AUTO 21012G17KT 10SM CLR 18/03 A3036 RMK AO2,M
WYS,2024-08-27 01:55,59.00,37.40,44.47,220.00,9.00,0.00,30.36,M,10.00,M,CLR,M,M,M,M,M,M,M,M,M,M,M,M,M,M,59.00,KWYS 270155Z AUTO 22009KT 10SM CLR 15/03 A3036 RMK AO2,M
WYS,2024-08-27 02:55,55.40,37.40,50.64,220.00,7.00,0.00,30.38,M,10.00,M,CLR,M,M,M,M,M,M,M,M,M,M,M,M,M,M,55.40,KWYS 270255Z AUTO 22007KT 10SM CLR 13/03 A3038 RMK AO2,M
WYS,2024-08-27 03:55,53.60,37.40,54.07,230.00,6.00,0.00,30.39,M,10.00,M,CLR,M,M,M,M,M,M,M,M,M,M,M,M,M,M,53.60,KWYS 270355Z AUTO 23006KT 10SM CLR 12/03 A3039 RMK AO2,M
WYS,2024-08-27 04:55,53.60,35.60,50.36,190.00,5.00,0.00,30.39,M,10.00,M,CLR,M,M,M,M,M,M,M,M,M,M,M,M,M,M,53.60,KWYS 270455Z AUTO 19005KT 10SM CLR 12/02 A3039 RMK AO2,M
WYS,2024-08-27 05:55,50.00,35.60,57.52,0.00,0.00,0.00,30.39,M,10.00,M,CLR,M,M,M,M,M,M,M,M,M,M,M,M,M,M,50.00,KWYS 270555Z AUTO 00000KT 10SM CLR 10/02 A3039 RMK AO2,M
WYS,2024-08-27 06:55,42.80,37.40,81.07,30.00,4.00,0.00,30.40,M,10.00,M,CLR,M,M,M,M,M,M,M,M,M,M,M,M,M,M,40.03,KWYS 270655Z AUTO 03004KT 10SM CLR 06/03 A3040 RMK AO2,M
WYS,2024-08-27 07:55,39.20,37.40,93.19,0.00,0.00,0.00,30.40,M,10.00,M,CLR,M,M,M,M,M,M,M,M,M,M,M,M,M,M,39.20,KWYS 270755Z AUTO 00000KT 10SM CLR 04/03 A3040 RMK AO2,M
WYS,2024-08-27 08:55,37.40,37.40,100.00,0.00,0.00,0.00,30.39,M,10.00,M,CLR,M,M,M,M,M,M,M,M,M,M,M,M,M,M,37.40,KWYS 270855Z AUTO 00000KT 10SM CLR 03/03 A3039 RMK AO2,M
WYS,2024-08-27 09:55,33.80,33.80,100.00,0.00,0.00,0.00,30.38,M,10.00,M,CLR,M,M,M,M,M,M,M,M,M,M,M,M,M,M,33.80,KWYS 270955Z AUTO 00000KT 10SM CLR 01/01 A3038 RMK AO2,M
WYS,2024-08-27 10:55,32.00,32.00,100.00,0.00,0.00,0.00,30.38,M,10.00,M,CLR,M,M,M,M,M,M,M,M,M,M,M,M,M,M,32.00,KWYS 271055Z AUTO 00000KT 10SM CLR 00/00 A3038 RMK AO2,M
WYS,2024-08-27 11:55,30.20,30.20,100.00,0.00,0.00,0.00,30.38,M,10.00,M,CLR,M,M,M,M,M,M,M,M,M,M,M,M,M,M,30.20,KWYS 271155Z AUTO 00000KT 10SM CLR M01/M01 A3038 RMK AO2,M
WYS,2024-08-27 12:55,30.20,30.20,100.00,0.00,0.00,0.00,30.38,M,10.00,M,CLR,M,M,M,M,M,M,M,M,M,M,M,M,M,M,30.20,KWYS 271255Z AUTO 00000KT 10SM CLR M01/M01 A3038 RMK AO2,M
WYS,2024-08-27 13:55,35.60,35.60,100.00,0.00,0.00,0.00,30.38,M,10.00,M,CLR,M,M,M,M,M,M,M,M,M,M,M,M,M,M,35.60,KWYS 271355Z AUTO 00000KT 10SM CLR 02/02 A3038 RMK AO2,M
WYS,2024-08-27 14:55,42.80,39.20,86.99,0.00,0.00,0.00,30.37,M,10.00,M,CLR,M,M,M,M,M,M,M,M,M,M,M,M,M,M,42.80,KWYS 271455Z AUTO 00000KT 10SM CLR 06/04 A3037 RMK AO2,M
WYS,2024-08-27 15:55,51.80,37.40,57.77,0.00,0.00,0.00,30.35,M,10.00,M,CLR,M,M,M,M,M,M,M,M,M,M,M,M,M,M,51.80,KWYS 271555Z AUTO 00000KT 10SM CLR 11/03 A3035 RMK AO2,M
WYS,2024-08-27 16:55,60.80,37.40,41.71,0.00,0.00,0.00,30.33,M,10.00,M,CLR,M,M,M,M,M,M,M,M,M,M,M,M,M,M,60.80,KWYS 271655Z AUTO 00000KT 10SM CLR 16/03 A3033 RMK AO2,M
WYS,2024-08-27 17:55,66.20,35.60,32.14,220.00,16.00,0.00,30.31,M,10.00,22.00,CLR,M,M,M,M,M,M,M,M,M,M,M,M,M,M,66.20,KWYS 271755Z AUTO 22016G22KT 10SM CLR 19/02 A3031 RMK AO2,M
WYS,2024-08-27 18:55,68.00,33.80,28.11,210.00,20.00,0.00,30.28,M,10.00,M,CLR,M,M,M,M,M,M,M,M,M,M,M,M,M,M,68.00,KWYS 271855Z AUTO 21020KT 10SM CLR 20/01 A3028 RMK AO2,M
WYS,2024-08-27 19:55,69.80,32.00,24.59,200.00,19.00,0.00,30.26,M,10.00,26.00,CLR,M,M,M,M,M,M,M,M,M,M,M,M,M,M,69.80,KWYS 271955Z AUTO 20019G26KT 10SM CLR 21/00 A3026 RMK AO2,M
WYS,2024-08-27 20:55,71.60,32.00,23.13,210.00,13.00,0.00,30.24,M,10.00,20.00,CLR,M,M,M,M,M,M,M,M,M,M,M,M,M,M,71.60,KWYS 272055Z AUTO 21013G20KT 10SM CLR 22/00 A3024 RMK AO2,M
WYS,2024-08-27 21:55,71.60,30.20,21.50,210.00,17.00,0.00,30.21,M,10.00,26.00,CLR,M,M,M,M,M,M,M,M,M,M,M,M,M,M,71.60,KWYS 272155Z AUTO 21017G26KT 10SM CLR 22/M01 A3021 RMK AO2,M
WYS,2024-08-27 22:55,71.60,26.60,18.55,220.00,20.00,0.00,30.19,M,10.00,26.00,CLR,M,M,M,M,M,M,M,M,M,M,M,M,M,M,71.60,KWYS 272255Z AUTO 22020G26KT 10SM CLR 22/M03 A3019 RMK AO2,M
WYS,2024-08-27 23:55,71.60,26.60,18.55,210.00,17.00,0.00,30.18,M,10.00,27.00,CLR,M,M,M,M,M,M,M,M,M,M,M,M,M,M,71.60,KWYS 272355Z AUTO 21017G27KT 10SM CLR 22/M03 A3018 RMK AO2,M
WYS,2024-08-28 00:55,69.80,26.60,19.72,210.00,16.00,0.00,30.17,M,10.00,23.00,CLR,M,M,M,M,M,M,M,M,M,M,M,M,M,M,69.80,KWYS 280055Z AUTO 21016G23KT 10SM CLR 21/M03 A3017 RMK AO2,M
WYS,2024-08-28 01:55,66.20,26.60,22.33,220.00,6.00,0.00,30.14,M,10.00,M,CLR,M,M,M,M,M,M,M,M,M,M,M,M,M,M,66.20,KWYS 280155Z AUTO 22006KT 10SM CLR 19/M03 A3014 RMK AO2,M
WYS,2024-08-28 02:55,59.00,30.20,33.35,0.00,0.00,0.00,30.14,M,10.00,M,CLR,M,M,M,M,M,M,M,M,M,M,M,M,M,M,59.00,KWYS 280255Z AUTO 00000KT 10SM CLR 15/M01 A3014 RMK AO2,M
WYS,2024-08-28 03:55,59.00,30.20,33.35,M,5.00,0.00,30.13,M,10.00,M,CLR,M,M,M,M,M,M,M,M,M,M,M,M,M,M,59.00,KWYS 280355Z AUTO VRB05KT 10SM CLR 15/M01 A3013 RMK AO2,M
WYS,2024-08-28 04:55,57.20,32.00,38.26,M,4.00,0.00,30.11,M,10.00,11.00,CLR,M,M,M,M,M,M,M,M,M,M,M,M,M,M,57.20,KWYS 280455Z AUTO VRB04G11KT 10SM CLR 14/M00 A3011 RMK AO2,M
WYS,2024-08-28 05:55,57.20,30.20,35.57,40.00,4.00,0.00,30.10,M,10.00,M,CLR,M,M,M,M,M,M,M,M,M,M,M,M,M,M,57.20,KWYS 280555Z AUTO 04004KT 10SM CLR 14/M01 A3010 RMK AO2,M
WYS,2024-08-28 06:55,51.80,32.00,46.59,0.00,0.00,0.00,30.07,M,10.00,M,CLR,M,M,M,M,M,M,M,M,M,M,M,M,M,M,51.80,KWYS 280655Z AUTO 00000KT 10SM CLR 11/M00 A3007 RMK AO2,M
WYS,2024-08-28 07:55,57.20,30.20,35.57,M,5.00,0.00,30.06,M,10.00,M,CLR,M,M,M,M,M,M,M,M,M,M,M,M,M,M,57.20,KWYS 280755Z AUTO VRB05KT 10SM CLR 14/M01 A3006 RMK AO2,M
WYS,2024-08-28 08:55,57.20,28.40,33.05,210.00,15.00,0.00,30.04,M,10.00,M,CLR,M,M,M,M,M,M,M,M,M,M,M,M,M,M,57.20,KWYS 280855Z AUTO 21015KT 10SM CLR 14/M02 A3004 RMK AO2,M
WYS,2024-08-28 09:55,55.40,30.20,37.97,210.00,16.00,0.00,30.03,M,10.00,M,SCT,M,M,M,12000.00,M,M,M,M,M,M,M,M,M,M,55.40,KWYS 280955Z AUTO 21016KT 10SM SCT120 13/M01 A3003 RMK AO2,M
WYS,2024-08-28 10:55,57.20,28.40,33.05,200.00,18.00,0.00,30.02,M,10.00,M,OVC,M,M,M,12000.00,M,M,M,M,M,M,M,M,M,M,57.20,KWYS 281055Z AUTO 20018KT 10SM OVC120 14/M02 A3002 RMK AO2,M
WYS,2024-08-28 11:55,55.40,28.40,35.28,260.00,8.00,0.00,30.04,M,10.00,21.00,FEW,M,M,M,11000.00,M,M,M,M,M,M,M,M,M,M,55.40,KWYS 281155Z AUTO 26008G21KT 10SM FEW110 13/M02 A3004 RMK AO2,M
WYS,2024-08-28 12:55,51.80,33.80,50.08,210.00,17.00,0.00,30.07,M,10.00,23.00,CLR,M,M,M,M,M,M,M,M,M,M,M,M,M,M,51.80,KWYS 281255Z AUTO 21017G23KT 10SM CLR 11/01 A3007 RMK AO2,M
WYS,2024-08-28 13:55,50.00,37.40,61.76,240.00,6.00,0.00,30.12,M,10.00,M,SCT,M,M,M,4700.00,M,M,M,M,M,M,M,M,M,M,50.00,KWYS 281355Z AUTO 24006KT 10SM SCT047 10/03 A3012 RMK AO2,M
WYS,2024-08-28 14:55,51.80,35.60,53.81,230.00,7.00,0.00,30.13,M,10.00,M,BKN,OVC,M,M,4400.00,7000.00,M,M,M,M,M,M,M,M,M,51.80,KWYS 281455Z AUTO 23007KT 10SM BKN044 OVC070 11/02 A3013 RMK AO2,M
WYS,2024-08-28 15:55,51.80,35.60,53.81,240.00,7.00,0.00,30.16,M,10.00,12.00,FEW,FEW,BKN,M,3500.00,4500.00,9000.00,M,M,M,M,M,M,M,M,51.80,KWYS 281555Z AUTO 24007G12KT 10SM FEW035 FEW045 BKN090 11/02 A3016 RMK AO2,M
WYS,2024-08-28 16:55,55.40,23.00,28.20,M,4.00,0.00,30.18,M,10.00,20.00,CLR,M,M,M,M,M,M,M,M,M,M,M,M,M,M,55.40,KWYS 281655Z AUTO VRB04G20KT 10SM CLR 13/M05 A3018 RMK AO2,M
WYS,2024-08-28 17:55,57.20,14.00,17.95,270.00,9.00,0.00,30.17,M,10.00,21.00,CLR,M,M,M,M,M,M,M,M,M,M,M,M,M,M,57.20,KWYS 281755Z AUTO 27009G21KT 230V300 10SM CLR 14/M10 A3017 RMK AO2,M
WYS,2024-08-28 18:55,60.80,8.60,12.42,250.00,13.00,0.00,30.16,M,10.00,21.00,CLR,M,M,M,M,M,M,M,M,M,M,M,M,M,M,60.80,KWYS 281855Z AUTO 25013G21KT 230V290 10SM CLR 16/M13 A3016 RMK AO2,M
WYS,2024-08-28 19:55,60.80,3.20,9.71,270.00,15.00,0.00,30.15,M,10.00,24.00,CLR,M,M,M,M,M,M,M,M,M,M,M,M,M,M,60.80,KWYS 281955Z AUTO 27015G24KT 230V310 10SM CLR 16/M16 A3015 RMK AO2,M
WYS,2024-08-28 20:55,62.60,12.20,13.68,250.00,9.00,0.00,30.13,M,10.00,15.00,CLR,M,M,M,M,M,M,M,M,M,M,M,M,M,M,62.60,KWYS 282055Z AUTO 25009G15KT 10SM CLR 17/M11 A3013 RMK AO2,M
WYS,2024-08-28 21:55,64.40,23.00,20.46,190.00,18.00,0.00,30.12,M,10.00,25.00,BKN,M,M,M,8500.00,M,M,M,M,M,M,M,M,M,M,64.40,KWYS 282155Z AUTO 19018G25KT 10SM BKN085 18/M05 A3012 RMK AO2,M
WYS,2024-08-28 22:55,64.40,24.80,22.06,220.00,13.00,0.00,30.13,M,10.00,27.00,BKN,M,M,M,8000.00,M,M,M,M,M,M,M,M,M,M,64.40,KWYS 282255Z AUTO 22013G27KT 180V250 10SM BKN080 18/M04 A3013 RMK AO2,M
WYS,2024-08-28 23:55,60.80,23.00,23.23,230.00,9.00,0.00,30.12,M,10.00,18.00,BKN,BKN,M,M,9000.00,11000.00,M,M,M,M,M,M,M,M,M,60.80,KWYS 282355Z AUTO 23009G18KT 10SM BKN090 BKN110 16/M05 A3012 RMK AO2,M
WYS,2024-08-29 00:55,60.80,24.80,25.04,220.00,12.00,0.00,30.14,M,10.00,21.00,BKN,M,M,M,11000.00,M,M,M,M,M,M,M,M,M,M,60.80,KWYS 290055Z AUTO 22012G21KT 10SM BKN110 16/M04 A3014 RMK AO2,M
WYS,2024-08-29 01:55,57.20,24.80,28.48,220.00,16.00,0.00,30.15,M,10.00,25.00,FEW,M,M,M,11000.00,M,M,M,M,M,M,M,M,M,M,57.20,KWYS 290155Z AUTO 22016G25KT 10SM FEW110 14/M04 A3015 RMK AO2,M
WYS,2024-08-29 02:55,53.60,24.80,32.46,260.00,4.00,0.00,30.20,M,10.00,M,CLR,M,M,M,M,M,M,M,M,M,M,M,M,M,M,53.60,KWYS 290255Z AUTO 26004KT 10SM CLR 12/M04 A3020 RMK AO2,M
WYS,2024-08-29 03:55,50.00,23.00,34.39,230.00,6.00,0.00,30.21,M,10.00,M,CLR,M,M,M,M,M,M,M,M,M,M,M,M,M,M,50.00,KWYS 290355Z AUTO 23006KT 10SM CLR 10/M05 A3021 RMK AO2,M
WYS,2024-08-29 04:55,50.00,15.80,25.28,260.00,5.00,0.00,30.22,M,10.00,M,CLR,M,M,M,M,M,M,M,M,M,M,M,M,M,M,50.00,KWYS 290455Z AUTO 26005KT 10SM CLR 10/M09 A3022 RMK AO2,M
WYS,2024-08-29 05:55,42.80,19.40,38.75,240.00,3.00,0.00,30.23,M,10.00,M,CLR,M,M,M,M,M,M,M,M,M,M,M,M,M,M,41.03,KWYS 290555Z AUTO 24003KT 10SM CLR 06/M07 A3023 RMK AO2,M
WYS,2024-08-29 06:55,39.20,23.00,51.89,150.00,3.00,0.00,30.24,M,10.00,M,CLR,M,M,M,M,M,M,M,M,M,M,M,M,M,M,36.92,KWYS 290655Z AUTO 15003KT 10SM CLR 04/M05 A3024 RMK AO2,M
WYS,2024-08-29 07:55,37.40,23.00,55.68,0.00,0.00,0.00,30.24,M,10.00,M,CLR,M,M,M,M,M,M,M,M,M,M,M,M,M,M,37.40,KWYS 290755Z AUTO 00000KT 10SM CLR 03/M05 A3024 RMK AO2,M
WYS,2024-08-29 08:55,33.80,23.00,64.23,0.00,0.00,0.00,30.25,M,10.00,M,CLR,M,M,M,M,M,M,M,M,M,M,M,M,M,M,33.80,KWYS 290855Z AUTO 00000KT 10SM CLR 01/M05 A3025 RMK AO2,M
WYS,2024-08-29 09:55,30.20,23.00,74.26,0.00,0.00,0.00,30.27,M,10.00,M,CLR,M,M,M,M,M,M,M,M,M,M,M,M,M,M,30.20,KWYS 290955Z AUTO 00000KT 10SM CLR M01/M05 A3027 RMK AO2,M
WYS,2024-08-29 10:55,26.60,21.20,79.77,0.00,0.00,0.00,30.28,M,10.00,M,CLR,M,M,M,M,M,M,M,M,M,M,M,M,M,M,26.60,KWYS 291055Z AUTO 00000KT 10SM CLR M03/M06 A3028 RMK AO2,M
WYS,2024-08-29 11:55,26.60,23.00,86.07,0.00,0.00,0.00,30.30,M,10.00,M,CLR,M,M,M,M,M,M,M,M,M,M,M,M,M,M,26.60,KWYS 291155Z AUTO 00000KT 10SM CLR M03/M05 A3030 RMK AO2,M
WYS,2024-08-29 12:55,26.60,24.80,92.80,0.00,0.00,0.00,30.33,M,10.00,M,CLR,M,M,M,M,M,M,M,M,M,M,M,M,M,M,26.60,KWYS 291255Z AUTO 00000KT 10SM CLR M03/M04 A3033 RMK AO2,M
WYS,2024-08-29 13:55,32.00,26.60,80.22,190.00,3.00,0.00,30.35,M,10.00,M,CLR,M,M,M,M,M,M,M,M,M,M,M,M,M,M,28.69,KWYS 291355Z AUTO 19003KT 10SM CLR M00/M03 A3035 RMK AO2,M
WYS,2024-08-29 14:55,42.80,24.80,48.67,0.00,0.00,0.00,30.36,M,10.00,M,CLR,M,M,M,M,M,M,M,M,M,M,M,M,M,M,42.80,KWYS 291455Z AUTO 00000KT 10SM CLR 06/M04 A3036 RMK AO2,M
WYS,2024-08-29 15:55,48.20,26.60,42.73,0.00,0.00,0.00,30.36,M,10.00,M,CLR,M,M,M,M,M,M,M,M,M,M,M,M,M,M,48.20,KWYS 291555Z AUTO 00000KT 10SM CLR 09/M03 A3036 RMK AO2,M
WYS,2024-08-29 16:55,53.60,26.60,34.98,340.00,4.00,0.00,30.36,M,10.00,M,CLR,M,M,M,M,M,M,M,M,M,M,M,M,M,M,53.60,KWYS 291655Z AUTO 34004KT 10SM CLR 12/M03 A3036 RMK AO2,M
WYS,2024-08-29 17:55,59.00,28.40,30.98,M,4.00,0.00,30.35,M,10.00,M,CLR,M,M,M,M,M,M,M,M,M,M,M,M,M,M,59.00,KWYS 291755Z AUTO VRB04KT 10SM CLR 15/M02 A3035 RMK AO2,M
WYS,2024-08-29 18:55,62.60,30.20,29.35,M,5.00,0.00,30.34,M,10.00,M,CLR,M,M,M,M,M,M,M,M,M,M,M,M,M,M,62.60,KWYS 291855Z AUTO VRB05KT 10SM CLR 17/M01 A3034 RMK AO2,M
WYS,2024-08-29 19:55,64.40,30.20,27.55,0.00,0.00,0.00,30.33,M,10.00,M,CLR,M,M,M,M,M,M,M,M,M,M,M,M,M,M,64.40,KWYS 291955Z AUTO 00000KT 10SM CLR 18/M01 A3033 RMK AO2,M
WYS,2024-08-29 20:55,68.00,32.00,26.15,M,4.00,0.00,30.32,M,10.00,M,CLR,M,M,M,M,M,M,M,M,M,M,M,M,M,M,68.00,KWYS 292055Z AUTO VRB04KT 10SM CLR 20/M00 A3032 RMK AO2,M
WYS,2024-08-29 21:55,69.80,32.00,24.59,M,5.00,0.00,30.32,M,10.00,12.00,CLR,M,M,M,M,M,M,M,M,M,M,M,M,M,M,69.80,KWYS 292155Z AUTO VRB05G12KT 10SM CLR 21/M00 A3032 RMK AO2,M
WYS,2024-08-29 22:55,71.60,30.20,21.50,M,4.00,0.00,30.30,M,10.00,M,CLR,M,M,M,M,M,M,M,M,M,M,M,M,M,M,71.60,KWYS 292255Z AUTO VRB04KT 10SM CLR 22/M01 A3030 RMK AO2,M
WYS,2024-08-29 23:55,71.60,30.20,21.50,M,6.00,0.00,30.31,M,10.00,M,CLR,M,M,M,M,M,M,M,M,M,M,M,M,M,M,71.60,KWYS 292355Z AUTO VRB06KT 10SM CLR 22/M01 A3031 RMK AO2,M
WYS,2024-08-30 00:55,69.80,30.20,22.86,240.00,7.00,0.00,30.31,M,10.00,M,CLR,M,M,M,M,M,M,M,M,M,M,M,M,M,M,69.80,KWYS 300055Z AUTO 24007KT 10SM CLR 21/M01 A3031 RMK AO2,M
WYS,2024-08-30 01:55,64.40,32.00,29.63,250.00,3.00,0.00,30.32,M,10.00,M,CLR,M,M,M,M,M,M,M,M,M,M,M,M,M,M,64.40,KWYS 300155Z AUTO 25003KT 10SM CLR 18/00 A3032 RMK AO2,M
WYS,2024-08-30 02:55,57.20,33.80,41.13,240.00,5.00,0.00,30.34,M,10.00,M,CLR,M,M,M,M,M,M,M,M,M,M,M,M,M,M,57.20,KWYS 300255Z AUTO 24005KT 10SM CLR 14/01 A3034 RMK AO2,M
WYS,2024-08-30 03:50,55.40,32.00,40.84,0.00,0.00,0.00,30.36,M,10.00,M,CLR,M,M,M,M,M,M,M,M,M,M,M,M,M,M,55.40,KWYS 300350Z AUTO 00000KT 10SM CLR 13/00 A3036 RMK AO2,M
WYS,2024-08-30 04:55,50.00,32.00,49.81,0.00,0.00,0.00,30.37,M,10.00,M,CLR,M,M,M,M,M,M,M,M,M,M,M,M,M,M,50.00,KWYS 300455Z AUTO 00000KT 10SM CLR 10/00 A3037 RMK AO2,M
WYS,2024-08-30 05:55,44.60,32.00,61.03,0.00,0.00,0.00,30.37,M,10.00,M,CLR,M,M,M,M,M,M,M,M,M,M,M,M,M,M,44.60,KWYS 300555Z AUTO 00000KT 10SM CLR 07/M00 A3037 RMK AO2,M
WYS,2024-08-30 06:55,39.20,32.00,75.16,0.00,0.00,0.00,30.38,M,10.00,M,CLR,M,M,M,M,M,M,M,M,M,M,M,M,M,M,39.20,KWYS 300655Z AUTO 00000KT 10SM CLR 04/M00 A3038 RMK AO2,M
WYS,2024-08-30 07:55,37.40,32.00,80.65,0.00,0.00,0.00,30.38,M,10.00,M,CLR,M,M,M,M,M,M,M,M,M,M,M,M,M,M,37.40,KWYS 300755Z AUTO 00000KT 10SM CLR 03/M00 A3038 RMK AO2,M
WYS,2024-08-30 08:55,33.80,32.00,93.03,0.00,0.00,0.00,30.39,M,10.00,M,CLR,M,M,M,M,M,M,M,M,M,M,M,M,M,M,33.80,KWYS 300855Z AUTO 00000KT 10SM CLR 01/00 A3039 RMK AO2,M
WYS,2024-08-30 09:55,32.00,32.00,100.00,0.00,0.00,0.00,30.40,M,10.00,M,CLR,M,M,M,M,M,M,M,M,M,M,M,M,M,M,32.00,KWYS 300955Z AUTO 00000KT 10SM CLR 00/M00 A3040 RMK AO2,M
WYS,2024-08-30 10:55,30.20,30.20,100.00,0.00,0.00,0.00,30.40,M,10.00,M,CLR,M,M,M,M,M,M,M,M,M,M,M,M,M,M,30.20,KWYS 301055Z AUTO 00000KT 10SM CLR M01/M01 A3040 RMK AO2,M
WYS,2024-08-30 11:55,28.40,28.40,100.00,0.00,0.00,0.00,30.41,M,10.00,M,CLR,M,M,M,M,M,M,M,M,M,M,M,M,M,M,28.40,KWYS 301155Z AUTO 00000KT 10SM CLR M02/M02 A3041 RMK AO2,M
WYS,2024-08-30 12:55,28.40,28.40,100.00,0.00,0.00,0.00,30.42,M,10.00,M,CLR,M,M,M,M,M,M,M,M,M,M,M,M,M,M,28.40,KWYS 301255Z AUTO 00000KT 10SM CLR M02/M02 A3042 RMK AO2,M
WYS,2024-08-30 13:55,33.80,33.80,100.00,0.00,0.00,0.00,30.43,M,10.00,M,CLR,M,M,M,M,M,M,M,M,M,M,M,M,M,M,33.80,KWYS 301355Z AUTO 00000KT 10SM CLR 01/01 A3043 RMK AO2,M
WYS,2024-08-30 14:05,37.40,33.80,86.69,0.00,0.00,0.00,30.44,M,10.00,M,CLR,M,M,M,M,M,M,M,M,M,M,M,M,M,M,37.40,KWYS 301405Z AUTO 00000KT 10SM CLR 03/01 A3044 RMK AO2,M
WYS,2024-08-30 15:55,50.00,33.80,53.54,0.00,0.00,0.00,30.44,M,10.00,M,CLR,M,M,M,M,M,M,M,M,M,M,M,M,M,M,50.00,KWYS 301555Z AUTO 00000KT 10SM CLR 10/01 A3044 RMK AO2,M
WYS,2024-08-30 16:55,59.00,33.80,38.56,0.00,0.00,0.00,30.43,M,10.00,M,CLR,M,M,M,M,M,M,M,M,M,M,M,M,M,M,59.00,KWYS 301655Z AUTO 00000KT 10SM CLR 15/01 A3043 RMK AO2,M
WYS,2024-08-30 17:55,66.20,33.80,29.92,0.00,0.00,0.00,30.41,M,10.00,M,CLR,M,M,M,M,M,M,M,M,M,M,M,M,M,M,66.20,KWYS 301755Z AUTO 00000KT 10SM CLR 19/01 A3041 RMK AO2,M
WYS,2024-08-30 18:55,73.40,30.20,20.23,M,4.00,0.00,30.39,M,10.00,10.00,CLR,M,M,M,M,M,M,M,M,M,M,M,M,M,M,73.40,KWYS 301855Z AUTO VRB04G10KT 10SM CLR 23/M01 A3039 RMK AO2,M
WYS,2024-08-30 19:55,73.40,28.40,18.80,230.00,8.00,0.00,30.37,M,10.00,15.00,CLR,M,M,M,M,M,M,M,M,M,M,M,M,M,M,73.40,KWYS 301955Z AUTO 23008G15KT 10SM CLR 23/M02 A3037 RMK AO2,M
WYS,2024-08-30 20:55,77.00,28.40,16.67,240.00,8.00,0.00,30.36,M,10.00,M,CLR,M,M,M,M,M,M,M,M,M,M,M,M,M,M,77.00,KWYS 302055Z AUTO 24008KT 190V290 10SM CLR 25/M02 A3036 RMK AO2,M
WYS,2024-08-30 21:55,77.00,26.60,15.48,220.00,10.00,0.00,30.35,M,10.00,16.00,CLR,M,M,M,M,M,M,M,M,M,M,M,M,M,M,77.00,KWYS 302155Z AUTO 22010G16KT 190V270 10SM CLR 25/M03 A3035 RMK AO2,M
WYS,2024-08-30 22:55,78.80,26.60,14.59,M,5.00,0.00,30.34,M,10.00,16.00,CLR,M,M,M,M,M,M,M,M,M,M,M,M,M,M,78.80,KWYS 302255Z AUTO VRB05G16KT 10SM CLR 26/M03 A3034 RMK AO2,M
WYS,2024-08-30 23:55,78.80,26.60,14.59,200.00,12.00,0.00,30.33,M,10.00,M,CLR,M,M,M,M,M,M,M,M,M,M,M,M,M,M,78.80,KWYS 302355Z AUTO 20012KT 10SM CLR 26/M03 A3033 RMK AO2,M
